<?xml version='1.0' encoding='utf-8'?>
<osm version="0.6" generator="OSM Conflator 1.4.1"><changeset><tag k="source" v="dokomaps.com" /><tag k="created_by" v="OSM Conflator 1.4.1" /><tag k="type" v="import" /></changeset><node id="6528619190" version="1" lat="45.046017" lon="5.0511443" action="modify"><tag k="addr:city" v="Romans-sur-Isère" /><tag k="addr:housenumber" v="58" /><tag k="addr:postcode" v="26100" /><tag k="addr:street" v="Place Jean Jaurès" /><tag k="name" v="Pognes Mourier" /><tag k="phone" v="+33 4 75 02 79 91" /><tag k="shop" v="bakery" /><tag k="note:name" v="Pognes Mourier" /><tag k="note:address" v="58 Place Jean Jaurès, 26100 Romans-sur-Isère, France" /><tag k="note:city" v="Romans-sur-Isère" /><tag k="note:comment" v="☎️ Appeler avant de vous deplacer" /></node><node id="6527877930" version="1" lat="45.0459771" lon="5.050171" action="modify"><tag k="addr:city" v="Romans-sur-Isère" /><tag k="addr:housenumber" v="76" /><tag k="addr:postcode" v="26100" /><tag k="addr:street" v="Place Jean Jaurès" /><tag k="brand" v="La Mie Câline" /><tag k="brand:wikidata" v="Q3210704" /><tag k="brand:wikipedia" v="fr:La Mie câline" /><tag k="name" v="La Mie Câline" /><tag k="opening_hours" v="Mo-Su 6:00-20:00" /><tag k="phone" v="+33 4 75 45 85 94" /><tag k="shop" v="bakery" /><tag k="website" v="https://magasin.lamiecaline.com/magasin/romans/299" /><tag k="note:name" v="La Mie Câline" /><tag k="note:address" v="76 Place Jean Jaurès, 26100 Romans-sur-Isère, France" /><tag k="note:city" v="Romans-sur-Isère" /><tag k="note:comment" v="Pains et viennoiseries&#10;&#10;Ouvert tous les jours de 7h à 15h" /></node><node id="6516754773" version="2" lat="45.0460883" lon="5.0525965" action="modify"><tag k="addr:city" v="Romans-sur-Isère" /><tag k="addr:housenumber" v="38" /><tag k="addr:postcode" v="26100" /><tag k="addr:street" v="Place Jean Jaurès" /><tag k="name" v="La petite ferme" /><tag k="phone" v="+33 4 75 02 06 97" /><tag k="shop" v="greengrocer" /><tag k="note:name" v="La Petite Ferme" /><tag k="note:address" v="26100 Romans-sur-Isère, France" /><tag k="note:city" v="Romans-sur-Isère" /><tag k="note:comment" v="Fruits Légumes et Fromages&#10;&#10;Ouverte de 8h30 à 14h30 - Dimanche 8h30 à 12h" /></node><node id="6527985509" version="1" lat="45.0460034" lon="5.0508727" action="modify"><tag k="addr:city" v="Romans-sur-Isère" /><tag k="addr:housenumber" v="64" /><tag k="addr:postcode" v="26100" /><tag k="addr:street" v="Place Jean Jaurès" /><tag k="description" v="Boulangerie Patisserie crée en 1981 par Max et Patricia Bédouin. Venez vous régalez en dégustant la Campaillette , la Pogne , le Saint Genix ou notre spécialité LE NOUGATPOGNE !!!!" /><tag k="name" v="Boulangerie Patisserie Bédouin" /><tag k="phone" v="+33 4 75 05 12 89" /><tag k="shop" v="bakery" /><tag k="note:name" v="Boulangerie Pâtisserie Bédouin" /><tag k="note:address" v="64 Place Jean Jaurès, 26100 Romans-sur-Isère, France" /><tag k="note:city" v="Romans-sur-Isère" /><tag k="note:comment" v="☎️ Appeler avant de vous deplacer" /></node><way id="61077578" version="5" action="modify"><tag k="brand" v="Lidl" /><tag k="brand:wikidata" v="Q151954" /><tag k="brand:wikipedia" v="fr:Lidl" /><tag k="building" v="retail" /><tag k="name" v="Lidl" /><tag k="operator" v="Lidl" /><tag k="shop" v="supermarket" /><tag k="source" v="cadastre-dgi-fr source : Direction Générale des Finances Publiques - Cadastre. Mise à jour : 2017" /><tag k="note:name" v="Lidl" /><tag k="note:address" v="24 Rue Louis le Cardonnel, 26100 Romans-sur-Isère, France" /><tag k="note:city" v="Romans-sur-Isère" /><tag k="note:comment" v="☎️ Appeler avant de vous deplacer" /><nd ref="4772662453" /><nd ref="4772662454" /><nd ref="4772680350" /><nd ref="764351421" /><nd ref="764191260" /><nd ref="4772662265" /><nd ref="764142083" /><nd ref="764313790" /><nd ref="764366127" /><nd ref="764274123" /><nd ref="4772662453" /></way><node id="1865902438" version="4" lat="45.045161" lon="5.0465852" action="modify"><tag k="name" v="Lili croustille" /><tag k="shop" v="bakery" /><tag k="source" v="survey 2013" /><tag k="note:name" v="Lili Croustille" /><tag k="note:address" v="41 Cours Pierre Didier, 26100 Romans-sur-Isère, France" /><tag k="note:city" v="Romans-sur-Isère" /><tag k="note:comment" v="Ouvert de 7h-15h" /></node><node id="7223489342" version="1" lat="45.0456675" lon="5.0471954" action="modify"><tag k="name" v="La Nougatine" /><tag k="shop" v="bakery" /><tag k="note:name" v="La Nougatine" /><tag k="note:address" v="26100 Romans-sur-Isère, France" /><tag k="note:city" v="Romans-sur-Isère" /></node><node id="1865954397" version="4" lat="45.0500203" lon="5.0799239" action="modify"><tag k="addr:city" v="Romans-sur-Isère" /><tag k="addr:housenumber" v="4" /><tag k="addr:postcode" v="26100" /><tag k="addr:street" v="Avenue de la Déportation" /><tag k="brand" v="Marie Blachère" /><tag k="brand:website" v="http://www.marieblachere.com/" /><tag k="brand:wikidata" v="Q62082410" /><tag k="name" v="Marie Blachère" /><tag k="opening_hours" v="Mo-Su 6:30-19:30; Su off" /><tag k="payment:cash" v="yes" /><tag k="payment:credit_cards" v="yes" /><tag k="phone" v="+33 4 75 72 41 90" /><tag k="shop" v="bakery" /><tag k="note:name" v="Boulangerie Marie Blachère" /><tag k="note:address" v="4 Avenue de la Déportation, 26100 Romans-sur-Isère, France" /><tag k="note:city" v="Romans-sur-Isère" /><tag k="note:comment" v="Ouvert de 7h30 à 18h" /></node><node id="1865956856" version="4" lat="45.0497701" lon="5.079889" action="modify"><tag k="addr:city" v="Romans-sur-Isère" /><tag k="addr:housenumber" v="4" /><tag k="addr:postcode" v="26100" /><tag k="addr:street" v="Avenue de la Déportation" /><tag k="name" v="Provenc'Halles" /><tag k="phone" v="+33 4 75 02 24 19" /><tag k="shop" v="greengrocer" /><tag k="note:name" v="Provenc'Halles" /><tag k="note:address" v="4 Avenue de la Déportation, 26100 Romans-sur-Isère, France" /><tag k="note:city" v="Romans-sur-Isère" /><tag k="note:comment" v="☎️ Appeler avant de vous deplacer" /></node><way id="772138620" version="1" action="modify"><tag k="building" v="yes" /><tag k="name" v="Boulangerie la Fabrique" /><tag k="shop" v="bakery" /><tag k="source" v="cadastre-dgi-fr source : Direction Générale des Impôts - Cadastre. Mise à jour : 2020" /><tag k="note:name" v="La Fabrique" /><tag k="note:address" v="1082 Chemin de Devienne, 26100 Romans-sur-Isère, France" /><tag k="note:city" v="Romans-sur-Isère" /><tag k="note:comment" v="Ouvert de 7h-19h" /><nd ref="7208329327" /><nd ref="7208329326" /><nd ref="4393173031" /><nd ref="7208329320" /><nd ref="7208329325" /><nd ref="7208329327" /></way><node id="6558475480" version="1" lat="45.0458402" lon="5.0484379" action="modify"><tag k="addr:city" v="Romans-sur-Isère" /><tag k="addr:housenumber" v="12" /><tag k="addr:postcode" v="26100" /><tag k="addr:street" v="Cours Pierre Didier" /><tag k="brand" v="Carrefour Express" /><tag k="brand:wikidata" v="Q2940190" /><tag k="brand:wikipedia" v="fr:Carrefour Express" /><tag k="name" v="Carrefour Express" /><tag k="opening_hours" v="Mo-Sa 08:00-21:00; Su 09:00-13:00" /><tag k="operator" v="Groupe Carrefour" /><tag k="operator:wikidata" v="Q3117359" /><tag k="operator:wikipedia" v="fr:Groupe Carrefour" /><tag k="phone" v="+33 4 75 71 55 67" /><tag k="shop" v="supermarket" /><tag k="website" v="https://www.carrefour.fr/magasin/express-romans-sur-isere-didier" /><tag k="note:name" v="Carrefour Express" /><tag k="note:address" v="18 Rue Dr Perret, 26100 Romans-sur-Isère, France" /><tag k="note:city" v="Romans-sur-Isère" /></node><relation id="8697853" version="1" action="modify"><tag k="brand" v="Lidl" /><tag k="brand:wikidata" v="Q151954" /><tag k="brand:wikipedia" v="fr:Lidl" /><tag k="building" v="retail" /><tag k="name" v="Lidl" /><tag k="shop" v="supermarket" /><tag k="source" v="cadastre-dgi-fr source : Direction Générale des Finances Publiques - Cadastre. Mise à jour : 2017" /><tag k="type" v="multipolygon" /><tag k="note:name" v="Lidl" /><tag k="note:address" v="8 Avenue des Allobroges, 26100 Romans-sur-Isère, France" /><tag k="note:city" v="Romans-sur-Isère" /><tag k="note:comment" v="☎️ Appeler avant de vous deplacer" /><member type="way" ref="61069846" role="outer" /><member type="way" ref="625616303" role="outer" /></relation><node id="6796499986" version="2" lat="45.0514202" lon="5.0804127" action="modify"><tag k="brand" v="Biocoop" /><tag k="brand:wikidata" v="Q2904039" /><tag k="brand:wikipedia" v="fr:Biocoop" /><tag k="name" v="Biocoop" /><tag k="shop" v="supermarket" /><tag k="note:name" v="Biocoop Ferme Bio" /><tag k="note:address" v="5 Avenue des Allobroges, 26100 Romans-sur-Isère, France" /><tag k="note:city" v="Romans-sur-Isère" /><tag k="note:comment" v="☎️ Appeler avant de vous deplacer" /></node><node id="-1" version="1" lat="45.0454" lon="5.0481663"><tag k="note:name" v="Allianz Fulvio MANNINO" /><tag k="note:address" v="17 Cours Pierre Didier, 26100 Romans-sur-Isère, France" /><tag k="note:city" v="Romans-sur-Isère" /><tag k="note:comment" v="Ouverte du lundi au vendredi de 9h00 à 12h00 et sans accueil du public.&#10;&#10;Téléphone : 04 75 02 25 60" /></node><node id="-2" version="1" lat="45.055553" lon="5.090684"><tag k="note:name" v="Horaires exceptionnels, RDV sur notre site - Grand Frais Romans-sur-Isère" /><tag k="note:address" v="33 Avenue des Allobroges, 26100 Romans-sur-Isère, France" /><tag k="note:city" v="Romans-sur-Isère" /><tag k="note:comment" v="☎️ Appeler avant de vous deplacer" /></node><node id="-3" version="1" lat="45.050556" lon="5.0471287"><tag k="note:name" v="SPAR" /><tag k="note:address" v="7 Avenue Jean Moulin, 26100 Romans-sur-Isère, France" /><tag k="note:city" v="Romans-sur-Isère" /></node><node id="-4" version="1" lat="45.04608" lon="5.0520678"><tag k="note:name" v="Cadier Denis" /><tag k="note:address" v="46 Place Jean Jaurès, 26100 Romans-sur-Isère, France" /><tag k="note:city" v="Romans-sur-Isère" /><tag k="note:comment" v="46, place Jean Jaurès&#10;&#10;Horaires: du lundi au samedi de 7h30 à 12h30 et 14h30 à 18h30&#10;&#10;Fermé (temporairement) le dimanche" /></node><node id="-5" version="1" lat="45.046528" lon="5.0516415"><tag k="note:name" v="Rayon de Vie" /><tag k="note:address" v="11 bis Rue de la République, 26100 Romans-sur-Isère, France" /><tag k="note:city" v="Romans-sur-Isère" /><tag k="note:comment" v="☎️ Appeler avant de vous deplacer 0475052367" /></node><node id="-6" version="1" lat="45.042763" lon="5.0493193"><tag k="note:name" v="Aux Galets de l'Isère" /><tag k="note:address" v="7 Place Maurice Faure, 26100 Romans-sur-Isère, France" /><tag k="note:city" v="Romans-sur-Isère" /><tag k="note:comment" v="Ouvert du mercredi au samedi, de 7h-13h et 16h-18h et le dimanche 7h-13h" /></node><node id="-7" version="1" lat="45.045147" lon="5.054146"><tag k="note:name" v="Ginet Santé -Bébécash" /><tag k="note:address" v="23 Place Jean Jaurès Bis, 26100 Romans-sur-Isère, France" /><tag k="note:city" v="Romans-sur-Isère" /><tag k="note:comment" v="Location et vente de matériel médical et produit d’incontinence bébé&#10;&#10;(peut assurer les livraisons de lits, fauteuils roulants pour sortie d’hôpital)&#10;&#10;Ouvert : du lundi au samedi matin : 8h30 - 12h et 13h30 – 18h&#10;&#10;Livraison gratuite à domicile - Joignable non stop par téléphone au 04 75 05 37 71 ou 06 72&#10;&#10;87 78 74" /></node><node id="-8" version="1" lat="45.042923" lon="5.0520806"><tag k="note:name" v="Aux _ Délices de Romans" /><tag k="note:address" v="53 Rue Saint-Nicolas, 26100 Romans-sur-Isère, France" /><tag k="note:city" v="Romans-sur-Isère" /><tag k="note:comment" v="7h30 - 13h (durant la crise)&#10;&#10;du mardi au dimanche" /></node><node id="-9" version="1" lat="45.045868" lon="5.0488834"><tag k="note:name" v="Breyton Et Fils Sarl" /><tag k="note:address" v="4 Cours Pierre Didier, 26100 Romans-sur-Isère, France" /><tag k="note:city" v="Romans-sur-Isère" /><tag k="note:comment" v="Ouvert le matin" /></node><node id="-10" version="1" lat="45.04524" lon="5.0471816"><tag k="note:name" v="Boucherie Du Cours" /><tag k="note:address" v="39 Cours Pierre Didier, 26100 Romans-sur-Isère, France" /><tag k="note:city" v="Romans-sur-Isère" /><tag k="note:comment" v="☎️ Appeler avant de vous deplacer" /></node><node id="-11" version="1" lat="45.042942" lon="5.0459843"><tag k="note:name" v="Teysseire Daniel" /><tag k="note:address" v="6 Place Presle, 26100 Romans-sur-Isère, France" /><tag k="note:city" v="Romans-sur-Isère" /><tag k="note:comment" v="Ouverte du mardi au dimanche de 7h30 à 13h&#10;&#10;Possibilité de livraison avec paiement en carte bleue" /></node><node id="-12" version="1" lat="45.045963" lon="5.0610356"><tag k="note:name" v="Super U et drive" /><tag k="note:address" v="56 Avenue Gambetta, 26100 Romans-sur-Isère, France" /><tag k="note:city" v="Romans-sur-Isère" /><tag k="note:comment" v="☎️ Appeler avant de vous deplacer" /></node><node id="-13" version="1" lat="45.04435" lon="5.0302544"><tag k="note:name" v="Hyper U and drive" /><tag k="note:address" v="Route de Tain, 26100 Romans-sur-Isère, France" /><tag k="note:city" v="Romans-sur-Isère" /><tag k="note:comment" v="8h/18h avec accès prioritaire de 8 a 8h30 pour le personnel soignant/seniors/femme enceinte" /></node><node id="-14" version="1" lat="45.05859" lon="5.101887"><tag k="note:name" v="E.Leclerc Saint Paul Les Romans" /><tag k="note:address" v="95 Rue Clair, 26750 Saint-Paul-lès-Romans, France" /><tag k="note:city" v="Romans-sur-Isère" /></node><node id="-15" version="1" lat="45.04983" lon="5.0575786"><tag k="note:name" v="Utile" /><tag k="note:address" v="18 Avenue Emile Zola, 26100 Romans-sur-Isère, France" /><tag k="note:city" v="Romans-sur-Isère" /><tag k="note:comment" v="☎️ Appeler avant de vous deplacer" /></node></osm>