<?xml version='1.0' encoding='utf-8'?>
<osm version="0.6" generator="OSM Conflator 1.4.1"><changeset><tag k="source" v="dokomaps.com" /><tag k="created_by" v="OSM Conflator 1.4.1" /><tag k="type" v="import" /></changeset><node id="5197628737" version="2" lat="48.8287964" lon="2.3221314" action="modify"><tag k="name" v="Paris Bio" /><tag k="phone" v="+33 1 45 42 96 98" /><tag k="shop" v="greengrocer" /><tag k="website" v="http://www.parisbio.com/" /><tag k="note:name" v="Paris Bio" /><tag k="note:address" v="50 Rue des Plantes, 75014 Paris, France" /><tag k="note:city" v="Paris" /></node><node id="4085183957" version="8" lat="48.8951889" lon="2.3404176" action="modify"><tag k="addr:city" v="Paris" /><tag k="addr:housenumber" v="60" /><tag k="addr:postcode" v="75018" /><tag k="addr:street" v="Rue du Poteau" /><tag k="brand" v="Bio C' Bon" /><tag k="bulk_purchase" v="yes" /><tag k="contact:facebook" v="https://www.facebook.com/biocbonfrance/" /><tag k="name" v="Bio C' Bon" /><tag k="opening_hours" v="Mo-Sa 10:00-20:00; Su 10:00-13:00" /><tag k="opening_hours:covid19" v="Mo-Sa 10:00-19:00; Su 10:00-13:30" /><tag k="organic" v="only" /><tag k="phone" v="+33 1 42 51 12 63" /><tag k="shop" v="supermarket" /><tag k="website" v="https://www.bio-c-bon.eu/fr/nos_magasins/bio-c-bon-paris-poteau" /><tag k="note:name" v="Bio c' Bon Paris Poteau" /><tag k="note:address" v="60 Rue du Poteau, 75018 Paris, France" /><tag k="note:city" v="Paris" /><tag k="note:comment" v="Horaires exceptionnels: &#10;Lundi au Samedi de 10h Ã  19h &#10;Dimanche de 10h Ã  13h30" /></node><node id="7342602065" version="2" lat="48.8496163" lon="2.3497542" action="modify"><tag k="name" v="J'm le Bio" /><tag k="opening_hours:covid19" v="same" /><tag k="organic" v="only" /><tag k="shop" v="supermarket" /><tag k="note:name" v="J' M LE BIO" /><tag k="note:address" v="45 Boulevard Saint-Germain, 75005 Paris, France" /><tag k="note:city" v="Paris" /><tag k="note:comment" v="Horaires exceptionnels: &#10;Ouverture de 8h45 Ã  18h" /></node><node id="3397486193" version="5" lat="48.8662126" lon="2.3704884" action="modify"><tag k="addr:city" v="Paris" /><tag k="addr:housenumber" v="19" /><tag k="addr:postcode" v="75011" /><tag k="addr:street" v="Avenue de la RÃ©publique" /><tag k="brand" v="Biocoop" /><tag k="brand:wikidata" v="Q2904039" /><tag k="brand:wikipedia" v="fr:Biocoop" /><tag k="bulk_purchase" v="yes" /><tag k="name" v="Biocoop" /><tag k="opening_hours" v="Mo 12:00-20:00; Tu-Sa 10:00-20:00" /><tag k="organic" v="only" /><tag k="shop" v="supermarket" /><tag k="website" v="https://www.biocoop-larepublique.fr/" /><tag k="wheelchair" v="yes" /><tag k="note:name" v="Biocoop La RÃ©publique" /><tag k="note:address" v="19 Avenue de la RÃ©publique, 75011 Paris, France" /><tag k="note:city" v="Paris" /><tag k="note:comment" v="Horaires exceptionnels: &#10;Lundi au Samedi de 10h Ã  18h" /></node><node id="5842449643" version="3" lat="48.8894614" lon="2.3436729" action="modify"><tag k="brand" v="La Vie Claire" /><tag k="brand:wikidata" v="Q3213589" /><tag k="brand:wikipedia" v="fr:La Vie claire" /><tag k="bulk_purchase" v="yes" /><tag k="name" v="La Vie Claire" /><tag k="opening_hours" v="tu-su 09:00-20:30" /><tag k="organic" v="only" /><tag k="shop" v="supermarket" /><tag k="website" v="https://www.lavieclaire.com/magasin-bio/paris-custine.html" /><tag k="note:name" v="La Vie Claire" /><tag k="note:address" v="53 Rue Custine, 75018 Paris, France" /><tag k="note:city" v="Paris" /><tag k="note:comment" v="Horaires exceptionnels: &#10;Mardi au Dimanche de 9h00 Ã  13h30 et de 15h30 Ã  19h00 &#10;Ferme le Lundi" /></node><node id="5363368107" version="6" lat="48.8712808" lon="2.3617285" action="modify"><tag k="addr:city" v="Paris" /><tag k="addr:housenumber" v="45" /><tag k="addr:postcode" v="75010" /><tag k="addr:street" v="Rue de Lancry" /><tag k="brand" v="Biocoop" /><tag k="brand:wikidata" v="Q2904039" /><tag k="brand:wikipedia" v="fr:Biocoop" /><tag k="bulk_purchase" v="yes" /><tag k="email" v="biocoop.lancry@gmail.com" /><tag k="name" v="Biocoop" /><tag k="opening_hours" v="Mo-Sa 10:00-20:00" /><tag k="organic" v="only" /><tag k="phone" v="+33 1 83 79 08 96" /><tag k="shop" v="supermarket" /><tag k="website" v="https://www.biocoop.fr/magasins-bio/Trouver-mon-magasin-Biocoop/Ile-de-France/Paris/BIOCOOP-LANCRY" /><tag k="wheelchair" v="yes" /><tag k="note:name" v="Biocoop Lancry" /><tag k="note:address" v="45 Rue de Lancry, 75010 Paris, France" /><tag k="note:city" v="Paris" /><tag k="note:comment" v="ChÃ¨res clientes, chers clients,&#10;Afin de garantir votre sÃ©curitÃ© et celle de nos salariÃ©s, notre magasin du 45 rue de Lancry est fermÃ© jusquâ€™Ã  nouvel ordre.&#10;Nous prenons le temps de rÃ©organiser lâ€™Ã©quipe et nous vous prÃ©viendrons de la rÃ©ouverture du magasin et des nouveaux horaires bientÃ´t. &#10;Prenez soin de vous et de vos proches.&#10;Lâ€™Ã©quipe Biocoop Lancry" /></node><node id="4721277877" version="4" lat="48.8692522" lon="2.3713852" action="modify"><tag k="addr:city" v="Paris" /><tag k="addr:postcode" v="75011" /><tag k="addr:street" v="Avenue Parmentier" /><tag k="contact:housenumber" v="127" /><tag k="name" v="Altervojo" /><tag k="opening_hours" v="Mo-Sa 09:30-21:00, Su 9:30-13:00" /><tag k="opening_hours:covid19" v="same" /><tag k="organic" v="only" /><tag k="shop" v="greengrocer" /><tag k="website" v="http://www.altervojo.fr/" /><tag k="note:name" v="Altervojo" /><tag k="note:address" v="127 Avenue Parmentier, 75011 Paris, France" /><tag k="note:city" v="Paris" /><tag k="note:comment" v="Horaires exceptionnels: &#10;Ouverture de 9h17 Ã  19h15" /></node><node id="1312133690" version="6" lat="48.8624917" lon="2.3768261" action="modify"><tag k="addr:housenumber" v="52" /><tag k="addr:postcode" v="75011" /><tag k="addr:street" v="Avenue Parmentier" /><tag k="brand" v="Bio C' Bon" /><tag k="brand:wikidata" v="Q54312551" /><tag k="brand:wikipedia" v="fr:Bio c'bon" /><tag k="bulk_purchase" v="yes" /><tag k="contact:facebook" v="https://www.facebook.com/biocbonfrance/" /><tag k="name" v="Bio C' Bon" /><tag k="opening_hours" v="Mo-Sa 10:00-20:00; Su 10:00-13:00" /><tag k="organic" v="only" /><tag k="shop" v="convenience" /><tag k="website" v="https://bio-c-bon.eu/fr/nos_magasins/bio-c-bon-paris-parmentier" /><tag k="note:name" v="Bio c' Bon Paris Parmentier" /><tag k="note:address" v="52 Avenue Parmentier, 75011 Paris, France" /><tag k="note:city" v="Paris" /><tag k="note:comment" v="[IMPORTANT] L'ensemble de nos magasins (SAUF IDF) adaptent leurs horaires jusqu'Ã  nouvel ordre afin de vous servir dans les meilleures conditions possibles. Nous serons ouverts du lundi au samedi de 10h Ã  14h et de 15h Ã  18h afin de vous servir au mieux ! Les horaires restent inchangÃ©s le dimanche.&#10;Nous suivons de prÃ¨s lâ€™Ã©volution de la situation et nous vous tiendrons au courant des Ã©ventuels changements. Restons bienveillants et solidaires en cette pÃ©riode difficile !" /></node><node id="-1" version="1" lat="48.849747" lon="2.3757248"><tag k="note:name" v="Agrology" /><tag k="note:address" v="15 Rue de Prague, 75012 Paris, France" /><tag k="note:city" v="Paris" /><tag k="note:comment" v="Info coronavirus &#10;ðŸ“…Nous sommes ouvert du mardi au samedi de 11h Ã  19h&#10;ðŸššlivraisons dans un rayon de 10km&#10;â˜Žï¸commandes sur info@agrology et au 01 58 51 05 49.&#10;Arrivages toutes les semaines de produits frais de nos producteurs chouchous pour les soutenir!&#10;#agrology #lefooding #paris12 #restezchezvous #goodfood&#10;#goodproducts #mediterraneanspirit #jesoutiensmesproducteurs" /></node></osm>