<?xml version='1.0' encoding='utf-8'?>
<osm version="0.6" generator="OSM Conflator 1.4.1"><changeset><tag k="source" v="dokomaps.com" /><tag k="created_by" v="OSM Conflator 1.4.1" /><tag k="type" v="import" /></changeset><node id="4840065575" version="2" lat="44.8300647" lon="-0.5731941" action="modify"><tag k="addr:city" v="Bordeaux" /><tag k="addr:housenumber" v="9" /><tag k="addr:postcode" v="33000" /><tag k="addr:street" v="Cours de l'Argonne" /><tag k="name" v="Casino Shop" /><tag k="opening_hours" v="Mo-Sa 08:00-21:00" /><tag k="shop" v="supermarket" /><tag k="note:name" v="Casino Shop" /><tag k="note:address" v="9 Cours de l'Argonne, 33000 Bordeaux, France" /><tag k="note:city" v="Bordeaux" /></node><node id="6991387578" version="2" lat="44.831704" lon="-0.57295" action="modify"><tag k="amenity" v="restaurant" /><tag k="cuisine" v="thai" /><tag k="name" v="Pitaya" /><tag k="outdoor_seating" v="yes" /><tag k="note:name" v="Pitaya Sainte Catherine" /><tag k="note:address" v="275 Rue Sainte-Catherine, 33000 Bordeaux, France" /><tag k="note:city" v="Bordeaux" /><tag k="note:comment" v="Sauf erreur de ma part il sont uniquement en livraison (Uber eats), comme a priori tous les restaus ouverts" /></node><node id="6873753861" version="2" lat="44.8755065" lon="-0.5527475" action="modify"><tag k="addr:city" v="Bordeaux" /><tag k="addr:housenumber" v="160" /><tag k="addr:postcode" v="33300" /><tag k="addr:street" v="Boulevard Albert Brandenburg" /><tag k="name" v="Aux Douceurs de Bacalan" /><tag k="opening_hours" v="Mo-Fr 06:30-13:30,16:00-19:00; Sa-Su 07:00-13:00" /><tag k="shop" v="bakery" /><tag k="note:name" v="Aux Douceurs de Bacalan" /><tag k="note:address" v="160 Boulevard Albert Brandenburg, 33300 Bordeaux, France" /><tag k="note:city" v="Bordeaux" /><tag k="note:comment" v="Boulangerie - Pâtisserie&#10;Du lundi au vendredi : 6h30 - 13h30 et 16h - 19h&#10;Samedi et dimanche : 7h - 13h" /></node><node id="2572761660" version="4" lat="44.8421339" lon="-0.5800189" action="modify"><tag k="amenity" v="restaurant" /><tag k="cuisine" v="japanese" /><tag k="name" v="Planet Sushi" /><tag k="note:name" v="Planet Sushi Clémenceau" /><tag k="note:address" v="7 Cours Georges Clemenceau, 33000 Bordeaux, France" /><tag k="note:city" v="Bordeaux" /></node><node id="4637441490" version="2" lat="44.8299767" lon="-0.5810994" action="modify"><tag k="amenity" v="restaurant" /><tag k="cuisine" v="pizza" /><tag k="name" v="Burdiga Pizza" /><tag k="name:fr" v="Burdiga Pizza" /><tag k="opening_hours" v="Tu-Fr 10:00-14:30,18:00-22:00, Sa 18:00-22:30" /><tag k="note:name" v="Burdiga Pizza" /><tag k="note:address" v="63 Rue de Pessac, 33000 Bordeaux, France" /><tag k="note:city" v="Bordeaux" /></node><node id="4459976090" version="1" lat="44.8326186" lon="-0.6100799" action="modify"><tag k="addr:housenumber" v="2" /><tag k="addr:postcode" v="33000" /><tag k="addr:street" v="Place de l'Église Saint-Augustin" /><tag k="amenity" v="restaurant" /><tag k="name" v="Sushi Delight" /><tag k="name:fr" v="Sushi Delight" /><tag k="note:name" v="Sushi Delight &amp; Wok Delight" /><tag k="note:address" v="2 Place de l'Église Saint-Augustin, 33000 Bordeaux, France" /><tag k="note:city" v="Bordeaux" /></node><node id="6070507790" version="1" lat="44.8519696" lon="-0.5711739" action="modify"><tag k="addr:housenumber" v="73" /><tag k="addr:postcode" v="33000" /><tag k="addr:street" v="Rue Notre-Dame" /><tag k="brand" v="Bio C' Bon" /><tag k="bulk_purchase" v="yes" /><tag k="contact:facebook" v="https://www.facebook.com/biocbonfrance/" /><tag k="name" v="Bio C' Bon" /><tag k="opening_hours" v="Mo-Fr 10:00-20:00; Sa 09:30-20:00; Su 10:00-12:45" /><tag k="organic" v="only" /><tag k="shop" v="supermarket" /><tag k="website" v="https://bio-c-bon.eu/fr/nos_magasins/bio-c-bon-bordeaux-les-chartrons" /><tag k="note:name" v="Bio C Bon" /><tag k="note:address" v="73 Rue Notre Dame, 33000 Bordeaux, France" /><tag k="note:city" v="Bordeaux" /></node><node id="2896042501" version="2" lat="44.840985" lon="-0.559374" action="modify"><tag k="name" v="Station Velo Services" /><tag k="opening_hours" v="Mo-Fr 08:30-19:00, Sa 10:00-19:00" /><tag k="shop" v="bicycle" /><tag k="note:name" v="Station Vélo Services" /><tag k="note:address" v="36 Place de Stalingrad, 33100 Bordeaux, France" /><tag k="note:city" v="Bordeaux" /><tag k="note:comment" v="Entretien, réparation et vente de vélos. Ouvert du lundi au vendredi de 10h à 17h (infos de leur page FB au 17 mars 2020)" /></node><node id="2485563790" version="11" lat="44.8324914" lon="-0.5728165" action="modify"><tag k="amenity" v="restaurant" /><tag k="cuisine" v="japanese" /><tag k="name" v="Nobi Nobi" /><tag k="outdoor_seating" v="yes" /><tag k="takeaway" v="yes" /><tag k="note:name" v="Nobi Nobi" /><tag k="note:address" v="262 Rue Sainte-Catherine, 33000 Bordeaux, France" /><tag k="note:city" v="Bordeaux" /></node><node id="7235404285" version="1" lat="44.853361" lon="-0.5698483" action="modify"><tag k="addr:housenumber" v="114" /><tag k="addr:postcode" v="33000" /><tag k="addr:street" v="Rue Notre-Dame" /><tag k="amenity" v="restaurant" /><tag k="name" v="Pok" /><tag k="name:fr" v="Poké Moon" /><tag k="note:name" v="Poke Moon Chartrons" /><tag k="note:address" v="114 Rue Notre Dame, 33300 Bordeaux, France" /><tag k="note:city" v="Bordeaux" /><tag k="note:comment" v="Nous sommes ouvert sur les plateformes de livraisons de 11h15 à 14h15, et de 18h15 à 22h30" /></node><node id="5666807698" version="1" lat="44.7959273" lon="-0.6027956" action="modify"><tag k="name" v="Laverie Automatique Libération" /><tag k="shop" v="laundry" /><tag k="note:name" v="Laverie Automatique Libération" /><tag k="note:address" v="690 Cours de la Libération, 33400 Talence, France" /><tag k="note:city" v="Bordeaux" /></node><node id="3740119320" version="4" lat="44.8359282" lon="-0.5810005" action="modify"><tag k="addr:housenumber" v="59" /><tag k="addr:postcode" v="76000" /><tag k="addr:street" v="Cours d'Albret" /><tag k="brand" v="Bio C' Bon" /><tag k="bulk_purchase" v="yes" /><tag k="contact:facebook" v="https://www.facebook.com/biocbonfrance/" /><tag k="name" v="Bio C' Bon" /><tag k="opening_hours" v="Mo-Sa 09:30-20:00; Su 10:00-12:45" /><tag k="organic" v="only" /><tag k="shop" v="supermarket" /><tag k="website" v="https://bio-c-bon.eu/fr/nos_magasins/bio-c-bon-bordeaux-albret" /><tag k="note:name" v="Bio c' Bon Bordeaux cours d'Albret" /><tag k="note:address" v="59 Cours d'Albret, 33000 Bordeaux, France" /><tag k="note:city" v="Bordeaux" /></node><node id="1879621336" version="3" lat="44.8388637" lon="-0.5816466" action="modify"><tag k="addr:city" v="Bordeaux" /><tag k="addr:housenumber" v="2" /><tag k="addr:postcode" v="33000" /><tag k="addr:street" v="Cours d'Albret" /><tag k="amenity" v="restaurant" /><tag k="cuisine" v="pizza" /><tag k="name" v="Basilic &amp; Co" /><tag k="phone" v="05.57.83.69.18" /><tag k="takeaway" v="no" /><tag k="website" v="https://basilic-and-co.com/" /><tag k="note:name" v="Basilic &amp; Co Bordeaux" /><tag k="note:address" v="2 Cours d'Albret, 33000 Bordeaux, France" /><tag k="note:city" v="Bordeaux" /></node><node id="6368816248" version="1" lat="44.8373512" lon="-0.5726483" action="modify"><tag k="addr:housenumber" v="10" /><tag k="addr:street" v="Rue Ravez" /><tag k="bulk_purchase" v="yes" /><tag k="name" v="La Vie Saine" /><tag k="organic" v="only" /><tag k="shop" v="supermarket" /><tag k="website" v="http://www.laviesaine.fr/magasins-bio/63/33-bordeaux/" /><tag k="note:name" v="La Vie Saine Bordeaux" /><tag k="note:address" v="8 Rue Ravez, 33000 Bordeaux, France" /><tag k="note:city" v="Bordeaux" /></node><node id="-1" version="1" lat="44.85166" lon="-0.587214"><tag k="note:name" v="Cave BRIAU" /><tag k="note:address" v="94 Rue David Johnston, 33000 Bordeaux, France" /><tag k="note:city" v="Bordeaux" /><tag k="note:comment" v="Reconnue comme une des grandes adresses de Bordeaux, nous vous proposons une large sélection de vins à petits prix jusqu’aux plus grands crus prestigieux, en passant des bulles d’un champagne à la tourbe d’un whisky.&#10;La Cave BRIAU possède plus de 700 références, vins, champagnes, bières et spiritueux.&#10;&#10;Face à la situation exceptionnelle, nous mettons en place un service minimum.&#10;1. Demandez notre tarif sur info@briau.com ou au 05 56 79 25 71 &#10;2. Réglez votre commande à distance&#10;3. Venez la récupérer sur notre parking ou faites-vous livrer !&#10;&#10;Cave Briau 94 rue David Johnston 33000 Bordeaux, 05 56 79 25 71&#10;Horaires d'ouverture du lundi au samedi de 10h à 12h30 et de 15h à 18h.&#10;Parking gratuit à disposition." /></node><node id="-2" version="1" lat="44.817463" lon="-0.5856647"><tag k="note:name" v="Laverie Roustaing" /><tag k="note:address" v="5 Rue René Balloux, 33400 Talence, France" /><tag k="note:city" v="Bordeaux" /></node><node id="-3" version="1" lat="44.862858" lon="-0.5512933"><tag k="note:name" v="Les Halles Bacalan" /><tag k="note:address" v="10 Quai de Bacalan, 33300 Bordeaux, France" /><tag k="note:city" v="Bordeaux" /><tag k="note:comment" v="Seule une partie des commerces est ouverte...y compris Balme, spécialiste de la truffe :-)" /></node><node id="-4" version="1" lat="44.840347" lon="-0.5538529"><tag k="note:name" v="Bobi" /><tag k="note:address" v="111 Rue de la Benauge, 33100 Bordeaux, France" /><tag k="note:city" v="Bordeaux" /><tag k="note:comment" v="mardi au samedi &#10;9H30-17H" /></node><node id="-5" version="1" lat="44.841396" lon="-0.558426"><tag k="note:name" v="Epicerie Domergue" /><tag k="note:address" v="24 Avenue Thiers, 33100 Bordeaux, France" /><tag k="note:city" v="Bordeaux" /><tag k="note:comment" v="du mardi au samedi &#10;horaire ?" /></node><node id="-6" version="1" lat="44.839508" lon="-0.5596817"><tag k="note:name" v="Madame Fromage Bordeaux" /><tag k="note:address" v="3 Quai Deschamps, 33100 Bordeaux, France" /><tag k="note:city" v="Bordeaux" /><tag k="note:comment" v="Cremerie fromagerie &#10;Mardi au Samedi de 10H a 17H." /></node><node id="-7" version="1" lat="44.811947" lon="-0.590437"><tag k="note:name" v="Les Halles De Talence - Biltoki" /><tag k="note:address" v="Place Alcala de Henares, 33400 Talence, France" /><tag k="note:city" v="Bordeaux" /><tag k="note:comment" v="Ouvert du mardi au dimanche de 8h à 14h&#10;Ouverture réservée de 8 à 9h aux personnes de plus de 70 ans" /></node><node id="-8" version="1" lat="44.856426" lon="-0.5966281"><tag k="note:name" v="Maison Burgalieres, boucherie charcuterie traiteur" /><tag k="note:address" v="Tram D, arrêt Courbet, 71 Avenue de la Libération Charles de Gaulle, 33110 Le Bouscat, France" /><tag k="note:city" v="Bordeaux" /><tag k="note:comment" v="Du mardi au samedi de 9h à 15h" /></node><node id="-9" version="1" lat="44.843384" lon="-0.5322471"><tag k="note:name" v="Laverie Cenon Floirac" /><tag k="note:address" v="114 Cours Gambetta, 33150 Cenon, France" /><tag k="note:city" v="Bordeaux" /></node><node id="-10" version="1" lat="44.85331" lon="-0.5698073"><tag k="note:name" v="Dolomites Pizzas Bordeaux" /><tag k="note:address" v="23 Cours de la Martinique, 33000 Bordeaux, France" /><tag k="note:city" v="Bordeaux" /></node><node id="-11" version="1" lat="44.82571" lon="-0.5543548"><tag k="note:name" v="TENDANCE BIO, pizzas et salades sur place, à emporter, ou en livraison à Bordeaux" /><tag k="note:address" v="76 Rue des Terres de Borde, 33800 Bordeaux, France" /><tag k="note:city" v="Bordeaux" /></node><node id="-12" version="1" lat="44.848564" lon="-0.5825711"><tag k="note:name" v="Le Petit Casino" /><tag k="note:address" v="129-131 Rue Fondaudège, 33000 Bordeaux, France" /><tag k="note:city" v="Bordeaux" /></node><node id="-13" version="1" lat="44.8324" lon="-0.6124398"><tag k="note:name" v="Casino Shop" /><tag k="note:address" v="38 Rue Jenny Lépreux, 33000 Bordeaux, France" /><tag k="note:city" v="Bordeaux" /></node><node id="-14" version="1" lat="44.828693" lon="-0.5743837"><tag k="note:name" v="Laundry L Argonne." /><tag k="note:address" v="57 Cours de l'Argonne, 33000 Bordeaux, France" /><tag k="note:city" v="Bordeaux" /></node><node id="-15" version="1" lat="44.838493" lon="-0.5719535"><tag k="note:name" v="Carrefour Bio" /><tag k="note:address" v="49 Rue du Pas-Saint-Georges, 33000 Bordeaux, France" /><tag k="note:city" v="Bordeaux" /></node><node id="-16" version="1" lat="44.835236" lon="-0.5694199"><tag k="note:name" v="Str'eat Burger" /><tag k="note:address" v="70 Cours Victor Hugo, 33000 Bordeaux, France" /><tag k="note:city" v="Bordeaux" /></node><node id="-17" version="1" lat="44.853107" lon="-0.5702138"><tag k="note:name" v="Laverie Les Chartrons" /><tag k="note:address" v="111 Rue Notre Dame, 33000 Bordeaux, France" /><tag k="note:city" v="Bordeaux" /></node><node id="-18" version="1" lat="44.850792" lon="-0.5698736"><tag k="note:name" v="PIERRE A FEU" /><tag k="note:address" v="32 Quai des Chartrons, 33000 Bordeaux, France" /><tag k="note:city" v="Bordeaux" /><tag k="note:comment" v="tabac cigare presse jeux vap" /></node><node id="-19" version="1" lat="44.721783" lon="-0.5306933"><tag k="note:name" v="La Canave" /><tag k="note:address" v="2 Rue de la Canave, 33650 Martillac, France" /><tag k="note:city" v="Bordeaux" /><tag k="note:comment" v="Tabac presse, ouvert du lundi au samedi de 7h à 19h" /></node></osm>