<?xml version='1.0' encoding='utf-8'?>
<osm version="0.6" generator="OSM Conflator 1.4.1"><changeset><tag k="source" v="dokomaps.com" /><tag k="created_by" v="OSM Conflator 1.4.1" /><tag k="type" v="import" /></changeset><node id="5902521406" version="6" lat="43.7073137" lon="7.2630408" action="modify"><tag k="addr:city" v="Nice" /><tag k="addr:housenumber" v="3" /><tag k="addr:postcode" v="06000" /><tag k="addr:street" v="Rue Vernier" /><tag k="brand" v="day by day" /><tag k="bulk_purchase" v="only" /><tag k="contact:email" v="daybyday.nice@gmail.com" /><tag k="contact:facebook" v="https://www.facebook.com/magasindaybyday" /><tag k="description:covid19" v="horaires réadaptés régulièrements, se renseigner" /><tag k="dog" v="no" /><tag k="name" v="Day by Day" /><tag k="opening_hours" v="Tu-Sa 09:30-13:00,15:00-19:00" /><tag k="opening_hours:covid19" v="same" /><tag k="organic" v="yes" /><tag k="phone" v="+33483398982" /><tag k="shop" v="convenience" /><tag k="website" v="http://daybyday-shop.com/magasin/nice" /><tag k="note:name" v="day by day - Mon épicerie en vrac" /><tag k="note:address" v="3 Rue Vernier, 06000 Nice, France" /><tag k="note:city" v="Nice" /><tag k="note:comment" v="04 83 39 89 82" /></node><node id="4930432604" version="1" lat="43.6981172" lon="7.287659" action="modify"><tag k="level" v="0" /><tag k="name" v="Rôtisserie" /><tag k="organic" v="yes" /><tag k="shop" v="butcher" /><tag k="note:name" v="Rôtisserie" /><tag k="note:address" v="10 Boulevard Carnot, 06300 Nice, France" /><tag k="note:city" v="Nice" /><tag k="note:comment" v="Pour limiter au maximum les déplacements et l'attente dans nos points de vente, toutes nos équipes de Menton à Nice en passant par Beausoleil sont disponibles par téléphone.&#10;Appelez les pour qu'elles vous préparent vos commandes à emporter." /></node><node id="3218730661" version="1" lat="43.7006594" lon="7.2752599" action="modify"><tag k="amenity" v="restaurant" /><tag k="cuisine" v="pizza" /><tag k="name" v="Pizza Hut" /><tag k="note:name" v="Pizza Hut" /><tag k="note:address" v="28 Rue Gioffredo, 06000 Nice, France" /><tag k="note:city" v="Nice" /></node><node id="4580887406" version="5" lat="43.7023582" lon="7.2664199" action="modify"><tag k="addr:city" v="Nice" /><tag k="addr:housenumber" v="1" /><tag k="addr:postcode" v="06000" /><tag k="addr:street" v="Avenue Georges Clemenceau" /><tag k="brand" v="Bio C' Bon" /><tag k="bulk_purchase" v="yes" /><tag k="contact:facebook" v="https://www.facebook.com/biocbonfrance/" /><tag k="name" v="Bio C' Bon" /><tag k="opening_hours" v="Mo-Sa 10:00-20:00; Su 10:00-13:00" /><tag k="organic" v="only" /><tag k="phone" v="+33 4 93 81 05 06" /><tag k="shop" v="supermarket" /><tag k="website" v="https://bio-c-bon.eu/fr/nos_magasins/bio-c-bon-nice-clemenceau" /><tag k="note:name" v="Bio c' Bon Nice Clémenceau" /><tag k="note:address" v="1 Avenue Georges Clemenceau, 06000 Nice, France" /><tag k="note:city" v="Nice" /></node><node id="1398473971" version="7" lat="43.6997568" lon="7.2825741" action="modify"><tag k="addr:city" v="Nice" /><tag k="addr:country" v="FR" /><tag k="addr:housenumber" v="11" /><tag k="addr:street" v="Rue Cassini" /><tag k="brand" v="Carrefour City" /><tag k="brand:wikidata" v="Q2940187" /><tag k="brand:wikipedia" v="fr:Carrefour City" /><tag k="name" v="Carrefour City" /><tag k="opening_hours" v="Mo-Sa 07:00-22:00; Su 08:30-20:00" /><tag k="operator" v="Groupe Carrefour" /><tag k="operator:wikidata" v="Q3117359" /><tag k="operator:wikipedia" v="fr:Groupe Carrefour" /><tag k="shop" v="supermarket" /><tag k="note:name" v="Carrefour City" /><tag k="note:address" v="11 Rue Cassini, 06000 Nice, France" /><tag k="note:city" v="Nice" /></node><node id="3076885883" version="5" lat="43.6987539" lon="7.2778679" action="modify"><tag k="addr:city" v="Nice" /><tag k="addr:housenumber" v="3-5" /><tag k="addr:postcode" v="06300" /><tag k="addr:street" v="Place Saint-François" /><tag k="brand" v="Carrefour Express" /><tag k="brand:wikidata" v="Q2940190" /><tag k="brand:wikipedia" v="fr:Carrefour Express" /><tag k="name" v="Carrefour Express" /><tag k="opening_hours" v="Mo-Sa 08:00-21:00; Su 09:00-21:00" /><tag k="phone" v="+33 4 93 85 04 27" /><tag k="shop" v="supermarket" /><tag k="note:name" v="Carrefour Express" /><tag k="note:address" v="3-5 Place Saint-François, 06300 Nice, France" /><tag k="note:city" v="Nice" /></node><node id="310593188" version="8" lat="43.7076023" lon="7.2562076" action="modify"><tag k="brand" v="Naturalia" /><tag k="brand:wikidata" v="Q3337081" /><tag k="brand:wikipedia" v="fr:Naturalia" /><tag k="bulk_purchase" v="yes" /><tag k="name" v="Naturalia" /><tag k="opening_hours" v="Mo-Sa 09:00-20:00" /><tag k="organic" v="only" /><tag k="shop" v="supermarket" /><tag k="wheelchair" v="yes" /><tag k="note:name" v="Naturalia" /><tag k="note:address" v="122-124 Boulevard Gambetta, 06000 Nice, France" /><tag k="note:city" v="Nice" /></node><way id="139669881" version="11" action="modify"><tag k="addr:city" v="Nice" /><tag k="addr:housenumber" v="104" /><tag k="addr:postcode" v="06300" /><tag k="addr:street" v="Avenue Henri Dunant" /><tag k="brand" v="Biocoop" /><tag k="brand:wikidata" v="Q2904039" /><tag k="brand:wikipedia" v="fr:Biocoop" /><tag k="building" v="yes" /><tag k="bulk_purchase" v="yes" /><tag k="height" v="3" /><tag k="level" v="0" /><tag k="name" v="Biocoop Riviera" /><tag k="operator" v="Biocoop Nice" /><tag k="organic" v="only" /><tag k="phone" v="+33 4 97 07 19 11" /><tag k="shop" v="supermarket" /><tag k="source" v="cadastre-dgi-fr source : Direction Générale des Impôts - Cadastre. Mise à jour : 2011" /><tag k="website" v="https://www.biocoop.fr/magasins-bio/Trouver-mon-magasin-Biocoop/Provence-Alpes-Cote-d-Azur/Alpes-Maritimes/BIOCOOP-RIVIERA" /><tag k="note:name" v="Biocoop Riviera" /><tag k="note:address" v="104 Avenue Henry Dunant, 06100 Nice, France" /><tag k="note:city" v="Nice" /><nd ref="1530938796" /><nd ref="1530938939" /><nd ref="1530939667" /><nd ref="1530939491" /><nd ref="1530938796" /></way><node id="-1" version="1" lat="43.69779" lon="7.265382"><tag k="note:name" v="Biocoop Nice Grimaldi" /><tag k="note:address" v="2 Place Grimaldi, 06000 Nice, France" /><tag k="note:city" v="Nice" /></node><node id="-2" version="1" lat="43.6987" lon="7.251063"><tag k="note:name" v="Le Petit Casino" /><tag k="note:address" v="65 Boulevard François Grosso, 06000 Nice, France" /><tag k="note:city" v="Nice" /></node><node id="-3" version="1" lat="43.707466" lon="7.262517"><tag k="note:name" v="Le Petit Casino" /><tag k="note:address" v="4 Bis Rue Vernier, 06000 Nice, France" /><tag k="note:city" v="Nice" /></node><node id="-4" version="1" lat="43.69512" lon="7.2560387"><tag k="note:name" v="MOMO PIZZA" /><tag k="note:address" v="91 Rue de France, 06300 Nice, France" /><tag k="note:city" v="Nice" /></node><node id="-5" version="1" lat="43.699303" lon="7.2721586"><tag k="note:name" v="XOCOALT - A l'origine du chocolat" /><tag k="note:address" v="10 Rue Alberti, 06000 Nice, France" /><tag k="note:city" v="Nice" /><tag k="note:comment" v="Ouverture et livraison&#10;04 93 91 29 54" /></node><node id="-6" version="1" lat="43.693493" lon="7.249642"><tag k="note:name" v="Palais Des Arts" /><tag k="note:address" v="144 Rue de France, 06000 Nice, France" /><tag k="note:city" v="Nice" /></node><node id="-7" version="1" lat="43.709946" lon="7.259517"><tag k="note:name" v="Rôtisserie" /><tag k="note:address" v="17 Boulevard Joseph Garnier, 06000 Nice, France" /><tag k="note:city" v="Nice" /><tag k="note:comment" v="Pour limiter au maximum les déplacements et l'attente dans nos points de vente, toutes nos équipes de Menton à Nice en passant par Beausoleil sont disponibles par téléphone.&#10;Appelez les pour qu'elles vous préparent vos commandes à emporter." /></node><node id="-8" version="1" lat="43.69626" lon="7.2563853"><tag k="note:name" v="Rôtisserie" /><tag k="note:address" v="16 Boulevard Gambetta, 06000 Nice, France" /><tag k="note:city" v="Nice" /><tag k="note:comment" v="Pour limiter au maximum les déplacements et l'attente dans nos points de vente, toutes nos équipes de Menton à Nice en passant par Beausoleil sont disponibles par téléphone.&#10;Appelez les pour qu'elles vous préparent vos commandes à emporter." /></node><node id="-9" version="1" lat="43.70522" lon="7.2654123"><tag k="note:name" v="KFC" /><tag k="note:address" v="64 Avenue Jean Médecin, 06000 Nice, France" /><tag k="note:city" v="Nice" /></node></osm>