<?xml version='1.0' encoding='utf-8'?>
<osm version="0.6" generator="OSM Conflator 1.4.1"><changeset><tag k="source" v="dokomaps.com" /><tag k="created_by" v="OSM Conflator 1.4.1" /><tag k="type" v="import" /></changeset><node id="956222244" version="10" lat="45.7566136" lon="4.8750371" action="modify"><tag k="brand" v="Super U" /><tag k="brand:wikidata" v="Q2529029" /><tag k="brand:wikipedia" v="en:Système U" /><tag k="name" v="Super U" /><tag k="opening_hours" v="Mo-Sa 08:30-20:00, Su 08:30-12:00" /><tag k="opening_hours:covid19" v="Mo-Sa 08:30-19:00, Su 08:30-12:00" /><tag k="operator" v="Super U" /><tag k="shop" v="supermarket" /><tag k="wheelchair" v="yes" /><tag k="note:name" v="Super U et drive" /><tag k="note:address" v="14 Rue Frédéric Mistral, 69003 Lyon, France" /><tag k="note:city" v="Lyon" /><tag k="note:comment" v="SUPER U LYON MISTRAL&#10;14 rue Frédéric Mistral&#10;69003 LYON&#10;Tél : 0472918020&#10;Horaires :&#10;Lundi : 08h30 à 20h30&#10;Mardi : 08h30 à 20h30&#10;Mercredi : 08h30 à 20h30&#10;Jeudi : 08h30 à 20h30&#10;Vendredi : 08h30 à 20h30&#10;Samedi : 08h30 à 20h30&#10;Dimanche : 08h30 à 12h30" /></node><node id="4455161358" version="6" lat="45.7536431" lon="4.8296616" action="modify"><tag k="email" v="victorhugo@boulangeriechezjules.fr" /><tag k="name" v="Chez Jules" /><tag k="opening_hours" v="Mo-Sa 07:00-20:00" /><tag k="opening_hours:covid19" v="Mo-Fr 07:00-17:00 ; Sa 07:00-17:00 ; Su 07:30-15:00" /><tag k="phone" v="+33967131688" /><tag k="shop" v="bakery" /><tag k="website" v="https://boulangeriechezjules.fr/" /><tag k="note:name" v="Chez Jules Boulangerie Victor Hugo" /><tag k="note:address" v="39 Rue Victor Hugo, 69002 Lyon, France" /><tag k="note:city" v="Lyon" /><tag k="note:comment" v="Nouveaux horaires: &#10;Ouvert de 7h00-18h00&#10;Vu la situation il est vivement conseillé d'appeler avant de vous déplacer.&#10;tel: 09 67 13 16 88" /></node><node id="1789265812" version="5" lat="45.7546269" lon="4.8415701" action="modify"><tag k="addr:city" v="Lyon" /><tag k="addr:country" v="FR" /><tag k="addr:postcode" v="69007" /><tag k="addr:street" v="Rue Passet" /><tag k="name" v="Supermarché Asie" /><tag k="opening_hours" v="Mo-Su 09:00-19:30" /><tag k="shop" v="convenience" /><tag k="survey:date" v="2019-02-02" /><tag k="note:name" v="Supermarché Asie" /><tag k="note:address" v="12 Rue Passet, 69007 Lyon, France" /><tag k="note:city" v="Lyon" /></node><node id="6423443514" version="2" lat="45.7488512" lon="4.8389425" action="modify"><tag k="name" v="La Maie du 26" /><tag k="opening_hours:covid19" v="same" /><tag k="shop" v="bakery" /><tag k="note:name" v="La Maie du 26" /><tag k="note:address" v="26 Rue Chevreul, 69007 Lyon, France" /><tag k="note:city" v="Lyon" /><tag k="note:comment" v="Boulangerie.&#10;Message du 18/03 :&#10;Au lieu de gaspiller, Si vous voulez passer acheter des pâtisseries, du pain, de la viennoiserie ( croissant, pain au chocolat, kouign Amann , brioche aux pralines, sablés...), on vous en offre une autre.... AVIS À TOUS LES GOURMANDS !" /></node><node id="1998615471" version="20" lat="45.7527098" lon="4.8465168" action="modify"><tag k="brand" v="Biocoop" /><tag k="brand:wikidata" v="Q2904039" /><tag k="brand:wikipedia" v="fr:Biocoop" /><tag k="bulk_purchase" v="yes" /><tag k="contact:phone" v="+33 4 72 70 98 82" /><tag k="name" v="Biocoop" /><tag k="opening_hours" v="Mo-Sa 08:30-19:30" /><tag k="opening_hours:covid19" v="Mo-Sa 09:00-19:30" /><tag k="operator" v="Vert la Terre" /><tag k="organic" v="only" /><tag k="shop" v="supermarket" /><tag k="website" v="https://www.biocooplyonsaxe.fr/" /><tag k="wheelchair" v="yes" /><tag k="note:name" v="Biocoop Saxe Gambetta" /><tag k="note:address" v="15 Avenue Jean Jaurès, 69007 Lyon, France" /><tag k="note:city" v="Lyon" /><tag k="note:comment" v="Attention&#10;Nouveaux horaires&#10;Magasin ouvert de  9h-19h30" /></node><node id="1215478378" version="10" lat="45.7513524" lon="4.84477" action="modify"><tag k="name" v="L'Epicerie Equitable" /><tag k="opening_hours" v="Tu-Sa 09:00-20:00, Mo 14:00-20:00" /><tag k="opening_hours:covid19" v="Tu-Sa 09:00-20:00, Mo 14:00-20:00 &quot;Commande par mail ou téléphone et retrait en pédidrive&quot;" /><tag k="organic" v="only" /><tag k="shop" v="convenience" /><tag k="toilets:wheelchair" v="no" /><tag k="wheelchair" v="yes" /><tag k="note:name" v="L'Epicerie Equitable" /><tag k="note:address" v="78 Rue Montesquieu, 69007 Lyon, France" /><tag k="note:city" v="Lyon" /><tag k="note:comment" v="A compter du 18 mars 2020, &#10;- l’épicerie équitable de Lyon ne sera plus accessible physiquement&#10;- les commandes s’opéreront uniquement par courriel, téléphone et pigeon voyageur &#10;Voici le processus de commande :&#10;1. Vous préparez votre commande idéale de chez vous &#10;2. Vous téléphonez au 04 37 28 07 71 ou envoyez un courriel à commandes@epicerie-equitable.com (en laissant votre téléphone)&#10;3. Nous préparons votre commande&#10;4. Nous vous rappelons pour faire le point&#10;5. Nous procédons à l’encaissement sécurisé par CB à distance&#10;6. Nous convenons d’une heure de RDV entre 9h et 17h&#10;7. Vous passez récupérer votre commande déjà réglée&#10;8. Vous buvez un coup à notre santé" /></node><node id="2092840975" version="5" lat="45.7546559" lon="4.8470397" action="modify"><tag k="name" v="La Miche Au Vieux Four" /><tag k="opening_hours" v="Mo-Fr 06:00-20:00, Sa 06:00-14:00,15:00-20:00" /><tag k="opening_hours:covid19" v="same" /><tag k="shop" v="bakery" /><tag k="note:name" v="La Miche Au Vieux Four" /><tag k="note:address" v="153 Avenue Maréchal de Saxe, 69003 Lyon, France" /><tag k="note:city" v="Lyon" /><tag k="note:comment" v="Pour l'instant les horaires habituels sont maintenus. &#10;Conseille d'appeler avant de vous déplacer.&#10;tel: 04 78 62 35 55" /></node><node id="2135297280" version="6" lat="45.7509835" lon="4.8319736" action="modify"><tag k="amenity" v="restaurant" /><tag k="cuisine" v="indian" /><tag k="name" v="Shalimar" /><tag k="opening_hours" v="mo-tu 19:00-22:30; we-fr 12:00-14:00; 19:00-22:30; th-sa 12:00-14:00; 19:00-23:00; su off" /><tag k="phone" v="+33 4 78 42 18 20" /><tag k="source" v="survey" /><tag k="website" v="http://www.leshalimar.com/" /><tag k="wheelchair" v="yes" /><tag k="note:name" v="Shalimar Restaurant" /><tag k="note:address" v="39 Quai du Dr Gailleton, 69002 Lyon, France" /><tag k="note:city" v="Lyon" /><tag k="note:comment" v="Ouvert pour la vente a emporter.(19h-22h30)&#10;Vous pouvez commander aussi au 04 78 42 18 20" /></node><node id="-1" version="1" lat="45.749893" lon="4.8387094"><tag k="note:name" v="U Express et drive" /><tag k="note:address" v="72 Rue de Marseille, 69007 Lyon, France" /><tag k="note:city" v="Lyon" /></node><node id="-2" version="1" lat="45.747204" lon="4.8377843"><tag k="note:name" v="Maestro Pizzas" /><tag k="note:address" v="11 Place Jules Guesde, 69007 Lyon, France" /><tag k="note:city" v="Lyon" /><tag k="note:comment" v="Uniquement à emporter&#10;tel 04 72 72 90 90" /></node><node id="-3" version="1" lat="45.75538" lon="4.8420143"><tag k="note:name" v="Frédéric Henon Gambetta" /><tag k="note:address" v="14 Cours Gambetta, 69007 Lyon, France" /><tag k="note:city" v="Lyon" /><tag k="note:comment" v="Pour l'instant les horaires habituels sont maintenus. &#10;Conseille d'appeler avant de vous déplacer.&#10;tel: 04 72 73 38 58" /></node><node id="-4" version="1" lat="45.74905" lon="4.8473563"><tag k="note:name" v="U Express et drive" /><tag k="note:address" v="52 Rue de la Thibaudière, 69007 Lyon, France" /><tag k="note:city" v="Lyon" /></node><node id="-5" version="1" lat="45.745506" lon="4.9322815"><tag k="note:name" v="LEAF MARKET" /><tag k="note:address" v="254 Avenue Franklin Roosevelt, 69120 Vaulx-en-Velin, France" /><tag k="note:city" v="Lyon" /><tag k="note:comment" v="Pour l'instant pas de changement d'horaire&#10;Ouverture de 9h00 à 20h00" /></node><node id="-6" version="1" lat="45.76568" lon="4.854992"><tag k="note:name" v="Aldo Pizza" /><tag k="note:address" v="93 Rue Masséna, 69006 Lyon, France" /><tag k="note:city" v="Lyon" /><tag k="note:comment" v="Pas de changement pour le moment&#10;#NOUVEAUTÉ : &#10;1 PIZZA ACHETÉE = 1 PIZZA OFFERTE !*&#10;7 SUR 7 - JUSQU'À 5 HEURE DU MATIN#&#10;Tel : 04 37 24 06 06" /></node><node id="-7" version="1" lat="45.754536" lon="4.865331"><tag k="note:name" v="LIBANO PIZZA" /><tag k="note:address" v="151 Avenue Félix Faure, 69003 Lyon, France" /><tag k="note:city" v="Lyon" /><tag k="note:comment" v="Pour linstant le restaurant fonctionne aux heures habituelles.&#10;Vous pouvez commander aussi au 09.82.22.51.83 (appel NON surtaxé)" /></node></osm>