<?xml version='1.0' encoding='utf-8'?>
<osm version="0.6" generator="OSM Conflator 1.4.1"><changeset><tag k="source" v="dokomaps.com" /><tag k="created_by" v="OSM Conflator 1.4.1" /><tag k="type" v="import" /></changeset><node id="5729748699" version="1" lat="48.9900352" lon="1.7184599" action="modify"><tag k="addr:city" v="Mantes-la-Jolie" /><tag k="addr:housenumber" v="7" /><tag k="addr:postcode" v="78200" /><tag k="addr:street" v="Rue Marie et Robert Dubois" /><tag k="name" v="Le Brazza" /><tag k="opening_hours" v="Mo 15:00-21:00, Tu-Fr 08:30-21:00, Sa 08:30-22:00" /><tag k="shop" v="tobacco" /><tag k="note:name" v="Le Brazza" /><tag k="note:address" v="7 Bis Rue Marie et Robert Dubois, 78200 Mantes-la-Jolie, France" /><tag k="note:city" v="Mantes-la-Jolie" /><tag k="note:comment" v="Tabac :&#10;Ouvert le mardi de 10h00 à 16h" /></node><node id="5729680307" version="1" lat="48.9903558" lon="1.7170371" action="modify"><tag k="addr:city" v="Mantes-la-Jolie" /><tag k="addr:housenumber" v="42" /><tag k="addr:postcode" v="78200" /><tag k="addr:street" v="Rue Nationale" /><tag k="name" v="Les Douceurs de Mantes" /><tag k="opening_hours" v="Tu-Sa 06:30-20:00, Su 07:30-13:30" /><tag k="shop" v="bakery" /><tag k="note:name" v="Les Douceurs de Mantes" /><tag k="note:address" v="42 Rue nationale, 78200 Mantes-la-Jolie, France" /><tag k="note:city" v="Mantes-la-Jolie" /></node><node id="6025772035" version="3" lat="48.9909746" lon="1.7157774" action="modify"><tag k="addr:housenumber" v="2" /><tag k="addr:postcode" v="78200" /><tag k="addr:street" v="Rue d'Alsace" /><tag k="brand" v="Biocoop" /><tag k="brand:wikidata" v="Q2904039" /><tag k="brand:wikipedia" v="fr:Biocoop" /><tag k="bulk_purchase" v="yes" /><tag k="name" v="Biocoop" /><tag k="organic" v="only" /><tag k="shop" v="supermarket" /><tag k="website" v="https://mantes.biocoop.net/" /><tag k="note:name" v="Biocoop du Mantois" /><tag k="note:address" v="2 Rue d'Alsace, 78200 Mantes-la-Jolie, France" /><tag k="note:city" v="Mantes-la-Jolie" /></node><node id="1418118602" version="6" lat="48.9892555" lon="1.7160119" action="modify"><tag k="brand" v="Monoprix" /><tag k="brand:wikidata" v="Q3321241" /><tag k="brand:wikipedia" v="fr:Monoprix (France)" /><tag k="name" v="Monoprix" /><tag k="operator" v="Groupe Casino" /><tag k="shop" v="supermarket" /><tag k="note:name" v="MONOPRIX" /><tag k="note:address" v="27 Rue Gambetta, 78200 Mantes-la-Jolie, France" /><tag k="note:city" v="Mantes-la-Jolie" /></node><node id="6833266499" version="1" lat="48.9998869" lon="1.6860003" action="modify"><tag k="name" v="Val Prim" /><tag k="shop" v="supermarket" /><tag k="note:name" v="Val'Prim" /><tag k="note:address" v="Boulevard Georges Clemenceau, 78200 Mantes-la-Jolie, France" /><tag k="note:city" v="Mantes-la-Jolie" /></node><node id="1234516686" version="4" lat="48.9879378" lon="1.7111019" action="modify"><tag k="brand" v="Carrefour Market" /><tag k="brand:wikidata" v="Q2689639" /><tag k="brand:wikipedia" v="fr:Carrefour Market" /><tag k="name" v="Carrefour Market" /><tag k="operator" v="Carrefour" /><tag k="shop" v="supermarket" /><tag k="note:name" v="Carrefour Market" /><tag k="note:address" v="5 Rue du Lavoir, 78200 Mantes-la-Jolie, France" /><tag k="note:city" v="Mantes-la-Jolie" /></node><node id="6343351525" version="3" lat="48.9898084" lon="1.7152452" action="modify"><tag k="addr:housenumber" v="32" /><tag k="addr:street" v="Rue Chanzy" /><tag k="bulk_purchase" v="only" /><tag k="name" v="Day by Day" /><tag k="opening_hours" v="Tu-Fr 10:00-13:30,15:00-19:30; Sa 09:30-13:30,15:00-19:30" /><tag k="opening_hours:covid19" v="Tu-Sa 09:30-13:30,15:00-18:00" /><tag k="organic" v="yes" /><tag k="phone" v="+33134977987" /><tag k="shop" v="convenience" /><tag k="website" v="http://daybyday-shop.com/magasin/mantes-la-jolie" /><tag k="note:name" v="day by day - Mon épicerie en vrac" /><tag k="note:address" v="32 Rue Chanzy, 78200 Mantes-la-Jolie, France" /><tag k="note:city" v="Mantes-la-Jolie" /></node><node id="5202581416" version="4" lat="48.9852224" lon="1.717185" action="modify"><tag k="addr:city" v="Mantes-la-Jolie" /><tag k="addr:housenumber" v="13" /><tag k="addr:postcode" v="78200" /><tag k="addr:street" v="Boulevard Victor Duhamel" /><tag k="brand" v="Mr.Bricolage" /><tag k="brand:wikidata" v="Q3141657" /><tag k="brand:wikipedia" v="fr:Mr Bricolage" /><tag k="description:covid19" v="Vous attendez à l'entrée du magasin et le commerçant va chercher ce dont vous avez besoin." /><tag k="name" v="Mr.Bricolage" /><tag k="opening_hours:covid19" v="Mo-Sa 09:00-12:30,14:00-18:00" /><tag k="shop" v="doityourself" /><tag k="note:name" v="Mr Bricolage" /><tag k="note:address" v="13 Boulevard Victor Duhamel, 78200 Mantes-la-Jolie, France" /><tag k="note:city" v="Mantes-la-Jolie" /><tag k="note:comment" v="9h- 12.40 / 14h-18.00 et fermé le dimanche" /></node><way id="161348049" version="4" action="modify"><tag k="addr:city" v="Mantes-la-Jolie" /><tag k="addr:country" v="FR" /><tag k="addr:full" v="Zac Henri IV - Centre Commercial - Les Bords de Seine - 16 Rue Jean Hoët - 78200 Mantes-la-Jolie" /><tag k="addr:housenumber" v="16" /><tag k="addr:postcode" v="78200" /><tag k="addr:street" v="Rue Jean Hoët" /><tag k="brand" v="Intermarché" /><tag k="brand:wikidata" v="Q3153200" /><tag k="brand:wikipedia" v="fr:Intermarché" /><tag k="building" v="retail" /><tag k="contact:phone" v="+33 1 30 33 06 84" /><tag k="name" v="Intermarché" /><tag k="operator" v="Groupement des Mousquetaires" /><tag k="shop" v="supermarket" /><tag k="source" v="cadastre-dgi-fr source : Direction Générale des Impôts - Cadastre. Mise à jour : 2012" /><tag k="note:name" v="Intermarché SUPER Mantes la Jolie et Drive" /><tag k="note:address" v="16 Rue Jean Hoët, 78200 Mantes-la-Jolie, France" /><tag k="note:city" v="Mantes-la-Jolie" /><nd ref="1733313504" /><nd ref="1733313552" /><nd ref="1733313473" /><nd ref="1733313400" /><nd ref="1733313298" /><nd ref="1733313371" /><nd ref="1733313321" /><nd ref="1733313091" /><nd ref="1733312156" /><nd ref="1733311801" /><nd ref="1733310265" /><nd ref="1733310771" /><nd ref="1733310653" /><nd ref="1733309644" /><nd ref="1733311858" /><nd ref="1733312138" /><nd ref="1733313573" /><nd ref="1733313504" /></way><node id="-1" version="1" lat="48.990616" lon="1.7171386"><tag k="note:name" v="Les Chocolats d'Isa" /><tag k="note:address" v="3 Rue des Halles, 78200 Mantes-la-Jolie, France" /><tag k="note:city" v="Mantes-la-Jolie" /><tag k="note:comment" v="Les Chocolats d’Isa est ouvert à minima les mardis mercredis et jeudis matin &#10;Les vendredis et samedis de 9h30 à 13h et de 14h30 à 17h &#10;Vous pouvez passer vos commandes au 0130639907" /></node><node id="-2" version="1" lat="48.989944" lon="1.7125536"><tag k="note:name" v="La Divette" /><tag k="note:address" v="26 Avenue de la République, 78200 Mantes-la-Jolie, France" /><tag k="note:city" v="Mantes-la-Jolie" /><tag k="note:comment" v="Tabac :&#10;Ouvert le vendredi de 10h00 à 16h" /></node><node id="-3" version="1" lat="48.988037" lon="1.7179945"><tag k="note:name" v="Bar Tabac Le Havane" /><tag k="note:address" v="31 Rue Porte aux Saints, 78200 Mantes-la-Jolie, France" /><tag k="note:city" v="Mantes-la-Jolie" /><tag k="note:comment" v="Tabac :&#10;Ouvert le jeudi de 10h00 à 16h" /></node><node id="-4" version="1" lat="48.993324" lon="1.7074648"><tag k="note:name" v="Le Celtique" /><tag k="note:address" v="59 Rue de Gassicourt, 78200 Mantes-la-Jolie, France" /><tag k="note:city" v="Mantes-la-Jolie" /><tag k="note:comment" v="Tabac :&#10;Ouvert le mercredi de 10h00 à 16h" /></node><node id="-5" version="1" lat="48.99002" lon="1.7168291"><tag k="note:name" v="43 Rue nationale" /><tag k="note:address" v="43 Rue nationale, 78200 Mantes-la-Jolie, France" /><tag k="note:city" v="Mantes-la-Jolie" /><tag k="note:comment" v="Tabac - Le Balto :&#10;Ouvert le lundi de 10h00 à 16h" /></node><node id="-6" version="1" lat="48.99098" lon="1.716515"><tag k="note:name" v="Boucherie Chanzy" /><tag k="note:address" v="16 Place du Marché au Blé, 78200 Mantes-la-Jolie, France" /><tag k="note:city" v="Mantes-la-Jolie" /><tag k="note:comment" v="Ouvert du mardi au vendredi de 9h à  12h30 puis de 15h à 18h et le samedi de 9h à 18h" /></node><node id="-7" version="1" lat="48.995827" lon="1.7517899"><tag k="note:name" v="4 Rue des Carrières" /><tag k="note:address" v="4 Rue des Carrières, 78520 Limay, France" /><tag k="note:city" v="Mantes-la-Jolie" /><tag k="note:comment" v="Les Halles de limay, magasins de fruits et légumes et produits frais" /></node><node id="-8" version="1" lat="48.990067" lon="1.7155921"><tag k="note:name" v="L' EPICURIEN" /><tag k="note:address" v="21 Rue Chanzy, 78200 Mantes-la-Jolie, France" /><tag k="note:city" v="Mantes-la-Jolie" /><tag k="note:comment" v="Cave à vins - Epicerie fine -thé" /></node><node id="-9" version="1" lat="48.9922" lon="1.6716331"><tag k="note:name" v="Comme à la Ferme" /><tag k="note:address" v="4 Rue de l'Ardèche, 78200 Buchelay, France" /><tag k="note:city" v="Mantes-la-Jolie" /><tag k="note:comment" v="Comme à la Ferme reste ouvert pendant cette période de confinement et vous propose désormais de passer commande par téléphone 01 30 63 35 45 aux heures d’ouverture du magasin et 48 heures avant le retrait de la marchandise. Heures d'ouverture : Mardi Mercredi Jeudi : 9h30 - 12h30, 14h - 19h30 / Vendredi Samedi : 9h30 - 19h30" /></node><node id="-10" version="1" lat="48.989914" lon="1.7117208"><tag k="note:name" v="27 Avenue de la République" /><tag k="note:address" v="27 Avenue de la République, 78200 Mantes-la-Jolie, France" /><tag k="note:city" v="Mantes-la-Jolie" /><tag k="note:comment" v="JWELL (boutique de cigarettes électroniques)&#10;Ouvert du lundi au samedi de 10h à 19h30&#10;Livraison : oui&#10;Téléphone : 07 78 11 60 13" /></node><node id="-11" version="1" lat="48.979935" lon="1.7110097"><tag k="note:name" v="Tabac du Marché" /><tag k="note:address" v="7 Rue de l'Île de France, 78711 Mantes-la-Ville, France" /><tag k="note:city" v="Mantes-la-Jolie" /><tag k="note:comment" v="7 Rue de l'Île de France, 78711 Mantes-la-Ville" /></node><node id="-12" version="1" lat="48.990063" lon="1.7167131"><tag k="note:name" v="At Bread Chailli" /><tag k="note:address" v="45 Rue nationale, 78200 Mantes-la-Jolie, France" /><tag k="note:city" v="Mantes-la-Jolie" /></node><node id="-13" version="1" lat="48.987835" lon="1.7179575"><tag k="note:name" v="Franprix" /><tag k="note:address" v="37 Rue Porte aux Saints, 78200 Mantes-la-Jolie, France" /><tag k="note:city" v="Mantes-la-Jolie" /></node><node id="-14" version="1" lat="48.99064" lon="1.7170314"><tag k="note:name" v="Relais des Mers" /><tag k="note:address" v="6 Rue des Halles, 78200 Mantes-la-Jolie, France" /><tag k="note:city" v="Mantes-la-Jolie" /></node><node id="-15" version="1" lat="48.990456" lon="1.7170496"><tag k="note:name" v="Fromagerie Crémerie Guilbaud" /><tag k="note:address" v="14 Rue des Halles, 78200 Mantes-la-Jolie, France" /><tag k="note:city" v="Mantes-la-Jolie" /></node><node id="-16" version="1" lat="48.99063" lon="1.7171504"><tag k="note:name" v="Boucherie des Halles" /><tag k="note:address" v="5 Rue des Halles, 78200 Mantes-la-Jolie, France" /><tag k="note:city" v="Mantes-la-Jolie" /></node><node id="-17" version="1" lat="48.990276" lon="1.7166162"><tag k="note:name" v="A La Terrine" /><tag k="note:address" v="50 Rue nationale, 78200 Mantes-la-Jolie, France" /><tag k="note:city" v="Mantes-la-Jolie" /></node><node id="-18" version="1" lat="48.980198" lon="1.6842422"><tag k="note:name" v="Auchan MANTES" /><tag k="note:address" v="Chemin Départemental 110, 78200 Buchelay, France" /><tag k="note:city" v="Mantes-la-Jolie" /></node><node id="-19" version="1" lat="48.990074" lon="1.7154583"><tag k="note:name" v="Aux Fins Délices" /><tag k="note:address" v="22 Rue Chanzy, 78200 Mantes-la-Jolie, France" /><tag k="note:city" v="Mantes-la-Jolie" /></node><node id="-20" version="1" lat="48.98984" lon="1.7167227"><tag k="note:name" v="Le Lys d'Or - Burger &amp; Bar à Cocktails" /><tag k="note:address" v="3 rue de Colmar, 4 Rue Cadotte, 78200 Mantes-la-Jolie, France" /><tag k="note:city" v="Mantes-la-Jolie" /></node><node id="-21" version="1" lat="48.99899" lon="1.6856605"><tag k="note:name" v="6 Rue la Fontaine" /><tag k="note:address" v="6 Rue la Fontaine, 78200 Mantes-la-Jolie, France" /><tag k="note:city" v="Mantes-la-Jolie" /><tag k="note:comment" v="ouvert du lundi au vendredi de 9h à 12h et de 14h à 17h, fermé le samedi à minima jusqu’au 11 avril." /></node><node id="-22" version="1" lat="48.990665" lon="1.7154433"><tag k="note:name" v="Le Jardin des Hespérides" /><tag k="note:address" v="22 Rue du Vieux Pilori, 78200 Mantes-la-Jolie, France" /><tag k="note:city" v="Mantes-la-Jolie" /><tag k="note:comment" v="ouvert que le mardi de 10h à 16h" /></node><node id="-23" version="1" lat="48.98528" lon="1.7173798"><tag k="note:name" v="Maison Guitton" /><tag k="note:address" v="13 Boulevard Victor Duhamel, 78200 Mantes-la-Jolie, France" /><tag k="note:city" v="Mantes-la-Jolie" /><tag k="note:comment" v="13 Boulevard Victor Duhamel / ouverte du lundi au vendredi de 7h à 19h et le dimanche de 7h à 14h" /></node><node id="-24" version="1" lat="48.99233" lon="1.7142274"><tag k="note:name" v="Hypnosis Mantes" /><tag k="note:address" v="10 Rue Saint-Roch, 78200 Mantes-la-Jolie, France" /><tag k="note:city" v="Mantes-la-Jolie" /><tag k="note:comment" v="En cette période de crise, mon objectif est de rendre accessible l’hypnose à toutes les personnes ayant besoin de soutien. Convaincu des bienfaits de l’hypnose, je vous offre ce tarif solidarité COVID-19.&#10;• Anxiété&#10;• Stress&#10;• Relaxation&#10;• Motivation &amp; Encouragement&#10;• Renforcement du système immunitaire&#10;• Fatigue &amp; Épuisement&#10;• Tristesse &amp; Mélancolie" /></node><node id="-25" version="1" lat="48.97885" lon="1.6996632"><tag k="note:name" v="20 Rue des Merisiers" /><tag k="note:address" v="20 Rue des Merisiers, 78200 Magnanville, France" /><tag k="note:city" v="Mantes-la-Jolie" /><tag k="note:comment" v="BEAU MARCHE - 20 rue des Merisiers à Magnanville (Ex Sodeviam) : Viandes / Fromage / Fruits / Légumes / Épicerie : horaires pour toute la durée du confinement : du mardi au samedi ouverture de 09 heures à 13 heures &amp; Livraison à domicile tout les après-midi sur les environs&#10;Commande à passer le matin par tél au 01 30 98 63 00" /></node></osm>