<?xml version='1.0' encoding='utf-8'?>
<osm version="0.6" generator="OSM Conflator 1.4.1"><changeset><tag k="source" v="dokomaps.com" /><tag k="created_by" v="OSM Conflator 1.4.1" /><tag k="type" v="import" /></changeset><node id="3049597230" version="5" lat="48.5843937" lon="7.7578392" action="modify"><tag k="brand" v="Carrefour City" /><tag k="brand:wikidata" v="Q2940187" /><tag k="ele" v="0" /><tag k="name" v="Carrefour City" /><tag k="opening_hours" v="Mo-Sa 07:00-21:00, Su 09:00-13:00" /><tag k="operator" v="Carrefour" /><tag k="shop" v="supermarket" /><tag k="wheelchair" v="yes" /><tag k="note:name" v="Carrefour City Strasbourg Marseillaise Gallia" /><tag k="note:address" v="30 Avenue de la Marseillaise, 67000 Strasbourg, France" /><tag k="note:city" v="Strasbourg" /></node><node id="2676662296" version="3" lat="48.5834202" lon="7.7412714" action="modify"><tag k="amenity" v="restaurant" /><tag k="cuisine" v="brazilian" /><tag k="name" v="O Brazil" /><tag k="note:name" v="Restaurant O Brazil" /><tag k="note:address" v="13 Rue du Jeu-des-Enfants, 67000 Strasbourg, France" /><tag k="note:city" v="Strasbourg" /><tag k="note:comment" v="Notre service à EMPORTER sera disponible à tout moment. Toute l’équipe du restaurant O BRAZIL vous souhaite de rester en bonne santé et nous tenons à adresser une grande pensée toute particulière au personnel soignant qui œuvre jours et nuits pour préserver notre santé." /></node><node id="5782485269" version="4" lat="48.5780232" lon="7.7499962" action="modify"><tag k="bulk_purchase" v="yes" /><tag k="contact:city" v="Strasbourg" /><tag k="contact:country" v="FR" /><tag k="contact:email" v="contact@coquelicot.bio" /><tag k="contact:housenumber" v="6-8" /><tag k="contact:phone" v="+33 3 67 31 13 11" /><tag k="contact:postcode" v="67000" /><tag k="contact:street" v="Rue de la Première Armée" /><tag k="contact:website" v="https://www.biocoop.fr/magasins-bio/Trouver-mon-magasin-Biocoop/Grand-Est/Bas-Rhin/BIOCOOP-COQUELICOT" /><tag k="name" v="Biocoop Coquelicot" /><tag k="opening_hours" v="Mo-Sa 10:00-20:00; Su 09:00-13:00" /><tag k="shop" v="greengrocer" /><tag k="note:name" v="Biocoop Coquelicot" /><tag k="note:address" v="6 Rue de la 1ère Armée, 67000 Strasbourg, France" /><tag k="note:city" v="Strasbourg" /><tag k="note:comment" v="Biocoop est consciente de la situation et se mobilise pour continuer à vous fournir des produits bio de consommation courante, tout en vous assurant les conditions de sécurité optimales durant vos courses (mesures d’hygiène et organisation du flux clients)." /></node><node id="1211016710" version="5" lat="48.5901859" lon="7.7485826" action="modify"><tag k="brand" v="Carrefour City" /><tag k="brand:wikidata" v="Q2940187" /><tag k="contact:city" v="Strasbourg" /><tag k="contact:housenumber" v="63" /><tag k="contact:phone" v="+33 3 88 36 42 69" /><tag k="contact:postcode" v="67000" /><tag k="contact:street" v="Avenue des Vosges" /><tag k="name" v="Carrefour City" /><tag k="opening_hours" v="Mo-Sa 07:00-21:00; Su 09:00-12:00" /><tag k="operator" v="JSRE" /><tag k="shop" v="supermarket" /><tag k="note:name" v="Carrefour City Strasbourg Vosges" /><tag k="note:address" v="63 Avenue des Vosges, 67000 Strasbourg, France" /><tag k="note:city" v="Strasbourg" /></node><node id="520270764" version="7" lat="48.5891964" lon="7.6959277" action="modify"><tag k="brand" v="Maxi Zoo" /><tag k="brand:wikidata" v="Q875796" /><tag k="brand:wikipedia" v="en:Fressnapf" /><tag k="dog" v="yes" /><tag k="name" v="Maxi Zoo" /><tag k="opening_hours:covid19" v="Mo-Sa 10:00-13:00,14:00-17:00" /><tag k="shop" v="pet" /><tag k="source" v="cadastre-dgi-fr source : Direction Générale des Impôts - Cadastre. Mise à jour : 2009" /><tag k="source:opening_hours:covid19" v="https://www.openstreetmap.org/note/2138096" /><tag k="note:name" v="Maxi Zoo Strasbourg" /><tag k="note:address" v="38 Rue Charles Péguy, 67000 Strasbourg, France" /><tag k="note:city" v="Strasbourg" /><tag k="note:comment" v="Pour la nourritures des animaux de compagnie&#10;les horraires sont: 10h-13h / 14h-17h" /></node><node id="-1" version="1" lat="48.564507" lon="7.760687"><tag k="note:name" v="Boucherie Chez Julien" /><tag k="note:address" v="113 Route du Polygone, 67100 Strasbourg, France" /><tag k="note:city" v="Strasbourg" /><tag k="note:comment" v="Chez Julien - 10 % durant toute l’épidémie sur la Boucherie Charcuterie Traiteur maison pour nous soutenir nous petit commerçant et préserver les 5 emplois.&#10;&#10;Nous sommes ouvert à nos horaires habituels tout le long de l’épidémie covid 19 mais nous demandons à notre aimable clientèle de bien vouloir respecter une distance de 1 mètre entre chaque personne." /></node><node id="-2" version="1" lat="48.578735" lon="7.751891"><tag k="note:name" v="Mavrommátis" /><tag k="note:address" v="8 Rue d'Austerlitz, 67000 Strasbourg, France" /><tag k="note:city" v="Strasbourg" /><tag k="note:comment" v="Nos boutiques-traiteur (vente à emporter et livraison à domicile) restent ouvertes et nous serions ravis de vous accueillir aux horaires suivants :&#10; Ouvert du lundi au jeudi de 10h à 20h / vendredi et samedi de 10h à 21h" /></node><node id="-3" version="1" lat="48.5862" lon="7.7433305"><tag k="note:name" v="Biocoop" /><tag k="note:address" v="6 Rue de Sébastopol, 67000 Strasbourg, France" /><tag k="note:city" v="Strasbourg" /><tag k="note:comment" v="Biocoop est consciente de la situation et se mobilise pour continuer à vous fournir des produits bio de consommation courante, tout en vous assurant les conditions de sécurité optimales durant vos courses (mesures d’hygiène et organisation du flux clients)." /></node></osm>