<?xml version='1.0' encoding='utf-8'?>
<osm version="0.6" generator="OSM Conflator 1.4.1"><changeset><tag k="source" v="dokomaps.com" /><tag k="created_by" v="OSM Conflator 1.4.1" /><tag k="type" v="import" /></changeset><node id="6503457341" version="2" lat="44.9287602" lon="4.8896784" action="modify"><tag k="name" v="Maison de la presse" /><tag k="opening_hours" v="Mo-Sa 07:00-19:00" /><tag k="shop" v="newsagent" /><tag k="note:name" v="Maison de la Presse Valence" /><tag k="note:address" v="8 Place Aristide Briand, 26000 Valence, France" /><tag k="note:city" v="Valence" /><tag k="note:comment" v="Nouveaux horaires &#10;Ouverture de 6h00 Ã  15h00" /></node><node id="4294689789" version="2" lat="44.9285026" lon="4.8919017" action="modify"><tag k="addr:city" v="Valence" /><tag k="addr:housenumber" v="17" /><tag k="addr:postcode" v="26000" /><tag k="addr:street" v="Avenue Pierre Semard" /><tag k="description" v="Boulangerie-pÃ¢tisserie avec spÃ©cialitÃ©s locales : Suisse, Pogne, Saint-Genix." /><tag k="name" v="Nivon" /><tag k="note:opening_hours" v="Ouvert le lundi les jours fÃ©riÃ©s." /><tag k="opening_hours" v="Tu-Sa 06:00-19:30;Su 06:00-19:00" /><tag k="phone" v="+33 4 75 44 03 37" /><tag k="shop" v="bakery" /><tag k="website" v="http://www.nivon.com/" /><tag k="note:name" v="Maison Pognes Nivon" /><tag k="note:address" v="17 Avenue Pierre Semard, 26000 Valence, France" /><tag k="note:city" v="Valence" /><tag k="note:comment" v="Changement d'horaires&#10;Ouverture de 6h00 Ã  13h00" /></node><way id="71210428" version="6" action="modify"><tag k="addr:city" v="Valence" /><tag k="addr:housenumber" v="48" /><tag k="addr:postcode" v="26000" /><tag k="addr:street" v="Rue Madier de Montjau" /><tag k="bulk_purchase" v="only" /><tag k="name" v="day by day" /><tag k="opening_hours" v="Mo 10:00-19:30; Tu 10:00-17:00; Fr 12:00-19:30; Sa 09:00-19:00" /><tag k="organic" v="yes" /><tag k="phone" v="+33475628232" /><tag k="shop" v="convenience" /><tag k="source" v="cadastre-dgi-fr source : Direction GÃ©nÃ©rale des Finances Publiques - Cadastre. Mise Ã  jour : 2017" /><tag k="website" v="http://daybyday-shop.com/magasin/valence" /><tag k="note:name" v="day by day - Mon Ã©picerie en vrac" /><tag k="note:address" v="48 Rue Madier de Montjau, 26000 Valence, France" /><tag k="note:city" v="Valence" /><nd ref="847685084" /><nd ref="847685219" /><nd ref="847686002" /><nd ref="847685571" /><nd ref="2503403931" /><nd ref="847684658" /><nd ref="847684764" /><nd ref="847686458" /><nd ref="847685954" /><nd ref="847685084" /></way><node id="7243019501" version="1" lat="44.9310741" lon="4.8914359" action="modify"><tag k="name" v="Boutique Laurent" /><tag k="shop" v="alcohol" /><tag k="note:name" v="BOUTIQUE LAURENT" /><tag k="note:address" v="30 Rue Emile Augier, 26000 Valence, France" /><tag k="note:city" v="Valence" /><tag k="note:comment" v="Nouveaux horaires : 9h-13h du mardi au samedi&#10;Livraisons possibles&#10;Commandes et conseils : 04 75 43 65 73 et boutique.laurent@orange.fr" /></node><node id="3143525214" version="3" lat="44.9200651" lon="4.8856863" action="modify"><tag k="name" v="La Tartine" /><tag k="opening_hours:covid19" v="Th-Tu 07:30-13:00;We off" /><tag k="phone" v="+33 4 75 44 13 51" /><tag k="shop" v="bakery" /><tag k="note:name" v="La Tartine" /><tag k="note:address" v="210 Avenue Victor Hugo, 26000 Valence, France" /><tag k="note:city" v="Valence" /><tag k="note:comment" v="Matin jusqu'Ã  12h30 sauf le mercredi" /></node><node id="6697287319" version="1" lat="44.8821873" lon="4.8917149" action="modify"><tag k="name" v="Comme Trois Pommes" /><tag k="organic" v="yes" /><tag k="shop" v="convenience" /><tag k="wheelchair" v="yes" /><tag k="note:name" v="Comme Trois Pommes" /><tag k="note:address" v="335 Chemin de l'Olagnier, 26800 Portes-lÃ¨s-Valence, France" /><tag k="note:city" v="Valence" /><tag k="note:comment" v="Ã‰picerie" /></node><node id="6503457342" version="2" lat="44.9287313" lon="4.8897897" action="modify"><tag k="name" v="Honorin" /><tag k="opening_hours" v="Mo-Sa 07:00-19:00" /><tag k="shop" v="bakery" /><tag k="note:name" v="Honorin Boulangerie" /><tag k="note:address" v="10 Place Aristide Briand, 26000 Valence, France" /><tag k="note:city" v="Valence" /><tag k="note:comment" v="Fermeture Ã  15h00" /></node><node id="5851747194" version="1" lat="44.8993627" lon="4.8878821" action="modify"><tag k="name" v="Le SunBay" /><tag k="shop" v="tobacco" /><tag k="note:name" v="Le Sun Bay Tabac Presse Loto cafÃ© bar" /><tag k="note:address" v="26000 Valence, France" /><tag k="note:city" v="Valence" /><tag k="note:comment" v="7h - 13h" /></node><node id="5466610213" version="2" lat="44.9326447" lon="4.893749" action="modify"><tag k="brand" v="Carrefour City" /><tag k="brand:wikidata" v="Q2940187" /><tag k="brand:wikipedia" v="fr:Carrefour City" /><tag k="name" v="Carrefour City" /><tag k="shop" v="supermarket" /><tag k="note:name" v="Carrefour City" /><tag k="note:address" v="58 Rue Madier de Montjau, 26000 Valence, France" /><tag k="note:city" v="Valence" /><tag k="note:comment" v="Horaires exceptionnels: &#10;Ouverture de 7h Ã  19h45" /></node><way id="107359531" version="9" action="modify"><tag k="addr:city" v="Valence" /><tag k="addr:country" v="FR" /><tag k="addr:housenumber" v="153" /><tag k="addr:postcode" v="26000" /><tag k="addr:street" v="Avenue de Romans" /><tag k="brand" v="Lidl" /><tag k="brand:wikidata" v="Q151954" /><tag k="brand:wikipedia" v="en:Lidl" /><tag k="building" v="retail" /><tag k="name" v="Lidl" /><tag k="opening_hours" v="Mo-Sa 08:30-19:30" /><tag k="shop" v="supermarket" /><tag k="source" v="cadastre-dgi-fr source : Direction GÃ©nÃ©rale des Finances Publiques - Cadastre. Mise Ã  jour : 2017" /><tag k="note:name" v="Lidl" /><tag k="note:address" v="153 Avenue de Romans, 26000 Valence, France" /><tag k="note:city" v="Valence" /><nd ref="861487144" /><nd ref="4863634224" /><nd ref="3917634878" /><nd ref="1234036283" /><nd ref="4863662036" /><nd ref="4863634225" /><nd ref="4863634226" /><nd ref="861452740" /><nd ref="1234036286" /><nd ref="1234036291" /><nd ref="861450675" /><nd ref="861487144" /></way><node id="4290564569" version="4" lat="44.9316771" lon="4.891205" action="modify"><tag k="addr:city" v="Valence" /><tag k="addr:housenumber" v="11" /><tag k="addr:postcode" v="26000" /><tag k="addr:street" v="Rue de l'UniversitÃ©" /><tag k="name" v="Poissonnerie Fereyre" /><tag k="opening_hours" v="Mo-Sa 08:00-12:30, 15:00-19:30;Su 08:00-12:30" /><tag k="phone" v="+33 4 75 43 69 70" /><tag k="shop" v="seafood" /><tag k="note:name" v="Poissonnerie Fereyre" /><tag k="note:address" v="11 Rue de l'UniversitÃ©, 26000 Valence, France" /><tag k="note:city" v="Valence" /></node><node id="5817919818" version="3" lat="44.9285381" lon="4.8907547" action="modify"><tag k="brand" v="Monoprix" /><tag k="brand:wikidata" v="Q3321241" /><tag k="brand:wikipedia" v="en:Monoprix" /><tag k="name" v="Monoprix" /><tag k="opening_hours" v="Mo-Sa 08:30-19:30" /><tag k="operator" v="Groupe Casino" /><tag k="shop" v="supermarket" /><tag k="note:name" v="MONOPRIX" /><tag k="note:address" v="2 Avenue Pierre Semard, 26000 Valence, France" /><tag k="note:city" v="Valence" /><tag k="note:comment" v="Pas de changement d'horaires pour le moment" /></node><node id="6007270455" version="2" lat="44.9282762" lon="4.8918843" action="modify"><tag k="name" v="Mougel" /><tag k="shop" v="bakery" /><tag k="note:name" v="PÃ¢tisserie Boulangerie MOUGEL" /><tag k="note:address" v="22 Avenue Pierre Semard, 26000 Valence, France" /><tag k="note:city" v="Valence" /><tag k="note:comment" v="Horaires exceptionnels: &#10;Ouverture de 7h Ã  12h30" /></node><node id="4413810032" version="3" lat="44.9330923" lon="4.9015203" action="modify"><tag k="name" v="La ferme Maubourg" /><tag k="opening_hours" v="Tu-Sa 09:00-19:00" /><tag k="shop" v="deli" /><tag k="wheelchair" v="yes" /><tag k="note:name" v="La Ferme Maubourg" /><tag k="note:address" v="Rue Servan, 26000 Valence, France" /><tag k="note:city" v="Valence" /><tag k="note:comment" v="Horaires dâ€™ouverture de 9h00 Ã  19h00" /></node><node id="2347462724" version="3" lat="44.9201479" lon="4.8991003" action="modify"><tag k="brand" v="Carrefour Express" /><tag k="brand:wikidata" v="Q2940190" /><tag k="brand:wikipedia" v="fr:Carrefour Express" /><tag k="name" v="Carrefour Express" /><tag k="operator" v="Carrefour" /><tag k="shop" v="convenience" /><tag k="note:name" v="Carrefour Express" /><tag k="note:address" v="122 Rue ChÃ¢teauvert, 26000 Valence, France" /><tag k="note:city" v="Valence" /></node><node id="4666246920" version="1" lat="44.9285598" lon="4.8916578" action="modify"><tag k="name" v="L'Oriental" /><tag k="shop" v="tobacco" /><tag k="note:name" v="15 Avenue Pierre Semard" /><tag k="note:address" v="15 Avenue Pierre Semard, 26000 Valence, France" /><tag k="note:city" v="Valence" /><tag k="note:comment" v="tabac,vape,fdj,presse l'oriental" /></node><node id="6503457339" version="2" lat="44.9291877" lon="4.8905166" action="modify"><tag k="amenity" v="bank" /><tag k="atm" v="yes" /><tag k="brand" v="CrÃ©dit Mutuel" /><tag k="brand:wikidata" v="Q642627" /><tag k="name" v="CrÃ©dit Mutuel" /><tag k="note:name" v="CrÃ©dit Mutuel" /><tag k="note:address" v="28 Avenue Victor Hugo, 26000 Valence, France" /><tag k="note:city" v="Valence" /><tag k="note:comment" v="CRÃ‰DIT MUTUEL, Banque, assurances, tÃ©lÃ©phonie. ouvert du mardi au vendredi de 9h Ã  12h et de 14h Ã  17h, le samedi de 9h Ã  12h. Vous pouvez nous contacter par mail 08903@creditmutuel.fr, tÃ©lÃ©phone 04 75 80 37 76." /></node><node id="2347559890" version="4" lat="44.9199964" lon="4.8991541" action="modify"><tag k="amenity" v="bank" /><tag k="atm" v="yes" /><tag k="brand" v="Caisse d'Ã‰pargne" /><tag k="brand:wikidata" v="Q1547738" /><tag k="brand:wikipedia" v="fr:Groupe Caisse d'Ã©pargne" /><tag k="name" v="Caisse d'Ã‰pargne" /><tag k="opening_hours" v="Tu-We 08:45-12:15, 13:45-17:45; Th 08:45-12:15, 14:45-17:45; Fr 08:45-12:15, 13:45-18:00; Sa 08:30-12:15" /><tag k="note:name" v="Caisse d'Epargne Chateauvert" /><tag k="note:address" v="124 Rue ChÃ¢teauvert, 26000 Valence, France" /><tag k="note:city" v="Valence" /><tag k="note:comment" v="Attention l'agence est ouvert au public le matin seulement.&#10;Fermeture tous les jours Ã  16h30" /></node><node id="5817919816" version="3" lat="44.9281578" lon="4.8933222" action="modify"><tag k="brand" v="monop'station" /><tag k="brand:wikidata" v="Q3321241" /><tag k="brand:wikipedia" v="fr:Monoprix (France)" /><tag k="indoor" v="yes" /><tag k="name" v="Monopâ€™station" /><tag k="shop" v="convenience" /><tag k="source" v="survey" /><tag k="survey:date" v="2018-11-15" /><tag k="note:name" v="Monop'Station" /><tag k="note:address" v="18 Rue Denis Papin, 26000 Valence, France" /><tag k="note:city" v="Valence" /><tag k="note:comment" v="Magasin fermÃ© pour virus" /></node><node id="3143526514" version="5" lat="44.9221005" lon="4.8863675" action="modify"><tag k="brand" v="Carrefour City" /><tag k="brand:wikidata" v="Q2940187" /><tag k="name" v="Carrefour City" /><tag k="shop" v="supermarket" /><tag k="note:name" v="Carrefour City" /><tag k="note:address" v="164 Avenue Victor Hugo, 26000 Valence, France" /><tag k="note:city" v="Valence" /><tag k="note:comment" v="Horaires exceptionnels: &#10;Ouverture de 9h Ã  20h" /></node><way id="225789647" version="6" action="modify"><tag k="brand" v="Auchan" /><tag k="brand:wikidata" v="Q758603" /><tag k="building" v="yes" /><tag k="name" v="Auchan" /><tag k="operator" v="Auchan" /><tag k="shop" v="supermarket" /><tag k="toilets:wheelchair" v="yes" /><tag k="wheelchair" v="yes" /><tag k="note:name" v="Auchan GUILHERAND-GRANGES" /><tag k="note:address" v="1449 Avenue de la RÃ©publique, 07500 Guilherand-Granges, France" /><tag k="note:city" v="Valence" /><nd ref="2345434075" /><nd ref="2345433967" /><nd ref="2345433999" /><nd ref="2345434066" /><nd ref="2345434083" /><nd ref="2345433965" /><nd ref="2345434068" /><nd ref="2345434002" /><nd ref="2345433971" /><nd ref="2345433969" /><nd ref="2345434025" /><nd ref="2345434011" /><nd ref="2345433993" /><nd ref="2345433997" /><nd ref="2345433959" /><nd ref="2345434020" /><nd ref="2345433995" /><nd ref="2345434044" /><nd ref="2345434015" /><nd ref="2345434060" /><nd ref="2345434070" /><nd ref="2345434023" /><nd ref="2345434008" /><nd ref="2345434078" /><nd ref="2345434056" /><nd ref="2345434062" /><nd ref="2345434054" /><nd ref="2345434050" /><nd ref="2345434035" /><nd ref="2345433958" /><nd ref="2345433961" /><nd ref="2345434027" /><nd ref="2345434031" /><nd ref="2345434005" /><nd ref="2345434046" /><nd ref="2345434075" /></way><way id="419299775" version="5" action="modify"><tag k="brand" v="Aldi" /><tag k="brand:wikidata" v="Q125054" /><tag k="brand:wikipedia" v="en:Aldi" /><tag k="building" v="retail" /><tag k="name" v="Aldi" /><tag k="shop" v="supermarket" /><tag k="source" v="cadastre-dgi-fr source : Direction GÃ©nÃ©rale des Finances Publiques - Cadastre. Mise Ã  jour : 2017" /><tag k="note:name" v="ALDI" /><tag k="note:address" v="Angle 331 Avenue Victor Hugo et, Rue Benjamin Franklin, 26000 Valence, France" /><tag k="note:city" v="Valence" /><tag k="note:comment" v="10h 13h et 14h -18h" /><nd ref="1129626238" /><nd ref="4863629989" /><nd ref="4863629988" /><nd ref="1129684102" /><nd ref="1129639184" /><nd ref="1129639649" /><nd ref="4193979207" /><nd ref="1129626238" /></way><node id="4343680507" version="4" lat="44.9156724" lon="4.885254" action="modify"><tag k="addr:city" v="Valence" /><tag k="addr:housenumber" v="333" /><tag k="addr:postcode" v="26000" /><tag k="addr:street" v="Avenue Victor Hugo" /><tag k="brand" v="Biocoop" /><tag k="brand:wikidata" v="Q2904039" /><tag k="brand:wikipedia" v="fr:Biocoop" /><tag k="bulk_purchase" v="yes" /><tag k="level" v="0" /><tag k="name" v="Biocoop" /><tag k="opening_hours" v="Mo 15:30-20:00; Tu-Th 09:00-13:00,15:30-20:00; Fr 09:00-20:00; Sa 09:00-19:30" /><tag k="organic" v="only" /><tag k="phone" v="+33 9 67 11 69 46" /><tag k="shop" v="supermarket" /><tag k="website" v="https://valence.biocoop.net/" /><tag k="wheelchair" v="yes" /><tag k="note:name" v="Biocoop Victor Hugo" /><tag k="note:address" v="333 Avenue Victor Hugo, 26000 Valence, France" /><tag k="note:city" v="Valence" /><tag k="note:comment" v="Nous restons OUVERT avec les mÃªmes horaires!&#10;Contact: 04 75 85 61 87" /></node><way id="99925594" version="8" action="modify"><tag k="addr:street" v="Avenue de Provence" /><tag k="alt_name" v="Valence Sud" /><tag k="brand" v="GÃ©ant Casino" /><tag k="brand:wikidata" v="Q1380537" /><tag k="brand:wikipedia" v="en:GÃ©ant Casino" /><tag k="building" v="retail" /><tag k="name" v="GÃ©ant Casino" /><tag k="operator" v="Casino" /><tag k="shop" v="supermarket" /><tag k="source" v="cadastre-dgi-fr source : Direction GÃ©nÃ©rale des Finances Publiques - Cadastre. Mise Ã  jour : 2017" /><tag k="note:name" v="GÃ©ant Casino" /><tag k="note:address" v="Avenue de Provence Quartier, Rue de Chantecouriol, 26000 Valence, France" /><tag k="note:city" v="Valence" /><tag k="note:comment" v="Ouvert 7 jours sur 7&#10;Du lundi Ã  samedi de 8h Ã   20h30&#10;Le dimanche de 9h Ã  21h" /><nd ref="1155132191" /><nd ref="4745811207" /><nd ref="4863625476" /><nd ref="4863661011" /><nd ref="1155158574" /><nd ref="1155183093" /><nd ref="1155142310" /><nd ref="1155169194" /><nd ref="1155170284" /><nd ref="1155169876" /><nd ref="1155171926" /><nd ref="1155154178" /><nd ref="1155157239" /><nd ref="1155146938" /><nd ref="1155136082" /><nd ref="1155163854" /><nd ref="1155180656" /><nd ref="1155122333" /><nd ref="1155165318" /><nd ref="1155152679" /><nd ref="1155183581" /><nd ref="1155149784" /><nd ref="1155128714" /><nd ref="1183410542" /><nd ref="1155162480" /><nd ref="4745811208" /><nd ref="1155174550" /><nd ref="1155161685" /><nd ref="4745811209" /><nd ref="1155181789" /><nd ref="4863625477" /><nd ref="4863625478" /><nd ref="4863625479" /><nd ref="4863625480" /><nd ref="1155132161" /><nd ref="1155173498" /><nd ref="1155163095" /><nd ref="1155182669" /><nd ref="1155132191" /></way><node id="672113277" version="6" lat="44.9285231" lon="4.8934416" action="modify"><tag k="addr:housenumber" v="24" /><tag k="addr:postcode" v="26000" /><tag k="addr:street" v="Rue Denis Papin" /><tag k="name" v="Carbone Zero" /><tag k="service:bicycle:repair" v="yes" /><tag k="service:bicycle:retail" v="yes" /><tag k="shop" v="bicycle" /><tag k="source" v="cadastre-dgi-fr source : Direction GÃ©nÃ©rale des ImpÃ´ts - Cadastre. Mise Ã  jour : 2010" /><tag k="website" v="http://www.carbone-zero.fr/" /><tag k="note:name" v="Carbone ZÃ©ro" /><tag k="note:address" v="24 Rue Denis Papin, 26000 Valence, France" /><tag k="note:city" v="Valence" /><tag k="note:comment" v="Horaires exceptionnels: &#10;Mardi au Vendredi de 9h Ã  12h00" /></node><way id="99531152" version="6" action="modify"><tag k="alt_name" v="Valence 2" /><tag k="brand" v="GÃ©ant Casino" /><tag k="brand:wikidata" v="Q1380537" /><tag k="brand:wikipedia" v="en:GÃ©ant Casino" /><tag k="building" v="retail" /><tag k="name" v="GÃ©ant Casino" /><tag k="operator" v="Casino" /><tag k="shop" v="supermarket" /><tag k="source" v="cadastre-dgi-fr source : Direction GÃ©nÃ©rale des Finances Publiques - Cadastre. Mise Ã  jour : 2017" /><tag k="note:name" v="GÃ©ant Casino" /><tag k="note:address" v="2 Avenue de Romans, 26000 Valence, France" /><tag k="note:city" v="Valence" /><tag k="note:comment" v="Ouverture 8h&#10;Fermeture 20h30&#10;HypermarchÃ© d'alimentation" /><nd ref="1151112227" /><nd ref="1151158329" /><nd ref="4863659168" /><nd ref="4863605943" /><nd ref="1151209494" /><nd ref="1151214045" /><nd ref="4863605936" /><nd ref="4863605937" /><nd ref="1151103865" /><nd ref="1151200850" /><nd ref="4863605939" /><nd ref="1151141233" /><nd ref="1151178208" /><nd ref="1151109066" /><nd ref="1151139786" /><nd ref="1151105312" /><nd ref="4863605940" /><nd ref="4863605941" /><nd ref="4863605938" /><nd ref="4863605942" /><nd ref="1151126823" /><nd ref="1151169638" /><nd ref="1151141225" /><nd ref="4745811031" /><nd ref="4745811030" /><nd ref="1151127678" /><nd ref="1151205427" /><nd ref="4863659166" /><nd ref="4863605948" /><nd ref="4863659167" /><nd ref="1151182816" /><nd ref="1151172772" /><nd ref="1151183998" /><nd ref="1151103163" /><nd ref="1151141385" /><nd ref="1151163270" /><nd ref="1151158668" /><nd ref="4745811469" /><nd ref="4745811470" /><nd ref="4745811471" /><nd ref="4745811808" /><nd ref="1151188034" /><nd ref="4745811473" /><nd ref="1151112356" /><nd ref="4745811468" /><nd ref="1151114271" /><nd ref="4745811476" /><nd ref="1151105748" /><nd ref="1151141978" /><nd ref="4863605949" /><nd ref="4863605945" /><nd ref="4863661490" /><nd ref="4863605946" /><nd ref="4863605947" /><nd ref="1151173351" /><nd ref="1151145080" /><nd ref="1151120122" /><nd ref="1151131049" /><nd ref="1151188403" /><nd ref="1151102190" /><nd ref="1151180344" /><nd ref="1151134136" /><nd ref="1151192669" /><nd ref="1151141561" /><nd ref="4863605933" /><nd ref="4863605932" /><nd ref="4863605931" /><nd ref="4863605950" /><nd ref="1151129667" /><nd ref="1151112227" /></way><node id="3141961424" version="3" lat="44.9120036" lon="4.912621" action="modify"><tag k="addr:city" v="Valence" /><tag k="addr:housenumber" v="362" /><tag k="addr:postcode" v="26000" /><tag k="addr:street" v="Rue Faventines" /><tag k="brand" v="IntermarchÃ©" /><tag k="brand:wikidata" v="Q3153200" /><tag k="brand:wikipedia" v="fr:IntermarchÃ©" /><tag k="fax" v="+33 4 75 78 13 99" /><tag k="level" v="0" /><tag k="name" v="IntermarchÃ©" /><tag k="opening_hours" v="Mo-Sa 08:30-20:00" /><tag k="operator" v="IntermarchÃ©" /><tag k="payment:cash" v="yes" /><tag k="payment:credit_cards" v="yes" /><tag k="phone" v="+33 4 75 78 13 90" /><tag k="shop" v="supermarket" /><tag k="source" v="https://www.intermarche.com/home/magasins/accueil/drome/valence-10101.html;survey;local knowledge" /><tag k="website" v="https://www.intermarche.com/" /><tag k="wheelchair" v="yes" /><tag k="note:name" v="IntermarchÃ© Super VALENCE" /><tag k="note:address" v="362 Rue Faventines, 26000 Valence, France" /><tag k="note:city" v="Valence" /></node><node id="4197382860" version="2" lat="44.9329566" lon="4.8926047" action="modify"><tag k="amenity" v="pharmacy" /><tag k="contact:housenumber" v="1" /><tag k="contact:street" v="Rue Ã‰mile Augier" /><tag k="dispensing" v="yes" /><tag k="name" v="Pharmacie de l'HÃ´tel de Ville" /><tag k="opening_hours" v="Mo-Sa 08:00-19:00" /><tag k="ref:fr:finess" v="260014642" /><tag k="source" v="Celtipharm - 10/2014" /><tag k="note:name" v="Mairie de Valence" /><tag k="note:address" v="1 Place de la LibertÃ©, 26000 Valence, France" /><tag k="note:city" v="Valence" /><tag k="note:comment" v="Lâ€™HÃ´tel de ville et le service d'Ã©tat civil sont ouverts du lundi au vendredi de 9h00 Ã  17h00. Merci de privilÃ©gier les Ã©changes tÃ©lÃ©phoniques et les formulaires du site internet.&#10;Contact : 04 75 79 20 00&#10;Les actes traitÃ©s en prioritÃ© : actes de naissance, dÃ©cÃ¨s et mariage.&#10;+ dâ€™infos sur www.valence.fr et facebook&#10; &#10;+ les plages horaires Ã  modifier :&#10;lundi 9h â€“ 17h&#10;mardi 9h â€“ 17h&#10;mercredi 9h â€“ 17h&#10;jeudi 9h â€“ 17h&#10;vendredi 9h â€“ 17h" /></node><node id="-1" version="1" lat="44.93427" lon="4.9050717"><tag k="note:name" v="Spidzza Grand'MÃ¨re" /><tag k="note:address" v="119 Avenue de Romans, 26000 Valence, France" /><tag k="note:city" v="Valence" /></node><node id="-2" version="1" lat="44.96361" lon="4.9444003"><tag k="note:name" v="Clarabio" /><tag k="note:address" v="52 Rue du Vivarais, 26320 Saint-Marcel-lÃ¨s-Valence, France" /><tag k="note:city" v="Valence" /></node><node id="-3" version="1" lat="44.928677" lon="4.891197"><tag k="note:name" v="PÃ¢tisserie ChocolaterieTraiteur Paris Friand Valence - Domaine des Seigneurs COLOMB FrÃ©dÃ©ric" /><tag k="note:address" v="7 Avenue Pierre Semard, 26000 Valence, France" /><tag k="note:city" v="Valence" /><tag k="note:comment" v="Horaires :&#10;Ouvert du Mardi au Samedi de 8h00 Ã  18h45 et le Dimanche de 8h00 Ã  17h00&#10;TÃ©lÃ©phone : 04 75 44 06 76" /></node><node id="-4" version="1" lat="44.933285" lon="4.892648"><tag k="note:name" v="Casino shop" /><tag k="note:address" v="21 Rue Madier de Montjau, 26000 Valence, France" /><tag k="note:city" v="Valence" /><tag k="note:comment" v="Horaires exceptionnels: &#10;Lundi au Samedi de 7h30 Ã  20h00&#10;Dimanche de 9h00 Ã  20h00" /></node><node id="-5" version="1" lat="44.93544" lon="4.8970037"><tag k="note:name" v="TABAC Presse loto" /><tag k="note:address" v="48 Avenue Sadi Carnot, 26000 Valence, France" /><tag k="note:city" v="Valence" /><tag k="note:comment" v="tel 0475409504&#10;du lundi au samedi : 7h-18h&#10;dimanche : 7h-12h" /></node><node id="-6" version="1" lat="44.92985" lon="4.8979306"><tag k="note:name" v="CHICKENS RUN" /><tag k="note:address" v="47 Rue Faventines, 26000 Valence, France" /><tag k="note:city" v="Valence" /></node><node id="-7" version="1" lat="44.893627" lon="4.890048"><tag k="note:name" v="Agence Dumond" /><tag k="note:address" v="Zone Industriel des AurÃ©ats, 81 Bis Rue des Mourettes, 26000 Valence, France" /><tag k="note:city" v="Valence" /><tag k="note:comment" v="Permanence de 9h00 Ã  16h00 pour les urgences.&#10;Evitons les dÃ©placements pour un entretien. Prenez soin de vous et votre familleðŸ˜·ðŸ˜·&#10;04 75 44 41 95" /></node><node id="-8" version="1" lat="44.929955" lon="4.8908997"><tag k="note:name" v="Taklope Store Valence" /><tag k="note:address" v="6 Avenue Victor Hugo, 26000 Valence, France" /><tag k="note:city" v="Valence" /><tag k="note:comment" v="Horaires Ã  jour en temps rÃ©el sur Google. &#10;Pour tout renseignement : 0986349988&#10;Ou valence@taklope.com" /></node><node id="-9" version="1" lat="44.93098" lon="4.8882885"><tag k="note:name" v="L'Objectiforme" /><tag k="note:address" v="1 Rue des Repenties, 26000 Valence, France" /><tag k="note:city" v="Valence" /><tag k="note:comment" v="Ouvert de 8h30-12h.&#10;Attention ouvert uniquement pour les complÃ©ments alimentaires et nutrition sportive" /></node><node id="-10" version="1" lat="44.933647" lon="4.897936"><tag k="note:name" v="La Poste Carre Enterprises" /><tag k="note:address" v="69 Avenue de la Marne, 26000 Valence, France" /><tag k="note:city" v="Valence" /><tag k="note:comment" v="ouvert aussi aux particulier&#10;pas plus de 2 personnes dans le local" /></node><node id="-11" version="1" lat="44.932774" lon="4.893316"><tag k="note:name" v="MÃ‰DIAPHONE DISCOUNT" /><tag k="note:address" v="50 Rue Madier de Montjau, 26000 Valence, France" /><tag k="note:city" v="Valence" /><tag k="note:comment" v="Horaires exceptionnels: &#10;Ouverture de 14h Ã  18h&#10;&#10;PossibilitÃ© de se faire livrer son telephone Ã  domicile" /></node><node id="-12" version="1" lat="44.96696" lon="4.9484234"><tag k="note:name" v="MÃ‰DIAPHONE DISCOUNT" /><tag k="note:address" v="116 Avenue de Provence, 26320 Saint-Marcel-lÃ¨s-Valence, France" /><tag k="note:city" v="Valence" /><tag k="note:comment" v="Horaires exceptionnels: &#10;Ouverture de 14h Ã  18h&#10;&#10;PossibilitÃ© de se faire livrer son telephone Ã  domicile" /></node><node id="-13" version="1" lat="44.937935" lon="4.865602"><tag k="note:name" v="MÃ‰DIAPHONE DISCOUNT" /><tag k="note:address" v="Centre commercial Auchan, 1449 Avenue de la RÃ©publique, 07500 Guilherand-Granges, France" /><tag k="note:city" v="Valence" /><tag k="note:comment" v="Horaires exceptionnels: &#10;Ouverture de 14h Ã  18h&#10;&#10;PossibilitÃ© de se faire livrer son telephone Ã  domicile" /></node><node id="-14" version="1" lat="44.929455" lon="4.8906307"><tag k="note:name" v="Officiel Mobile Service" /><tag k="note:address" v="20 Avenue Victor Hugo, 26000 Valence, France" /><tag k="note:city" v="Valence" /><tag k="note:comment" v="Horaires exceptionnels: &#10;Ouverture de 14h Ã  18h&#10;&#10;PossibilitÃ© de se faire livrer son telephone Ã  domicile" /></node><node id="-15" version="1" lat="44.933247" lon="4.8807964"><tag k="note:name" v="Boucherie le Mistral" /><tag k="note:address" v="126 Rue Louis Pasteur, 07500 Guilherand-Granges, France" /><tag k="note:city" v="Valence" /><tag k="note:comment" v="Changement d'horaires Ã  partir de Lundi 23:&#10;Boucherie charcuterie traiteur" /></node><node id="-16" version="1" lat="44.930725" lon="4.9238353"><tag k="note:name" v="Au Comptoir Fruitier" /><tag k="note:address" v="19 Place Europe, 26000 Valence, France" /><tag k="note:city" v="Valence" /></node><node id="-17" version="1" lat="44.933395" lon="4.894732"><tag k="note:name" v="Super Qi" /><tag k="note:address" v="36 Rue Bouffier, 26000 Valence, France" /><tag k="note:city" v="Valence" /><tag k="note:comment" v="Horaires: 15H00-18H30&#10;Livraison Ã  domicile possible sur Valence et dans un rayon de 15 kms autour de Valence.&#10;TÃ©l: 04 75 55 50 67 &#10;NB: Pour laisser un message afin d'Ãªtre recontactÃ© : 06 08 99 69 59" /></node><node id="-18" version="1" lat="44.933716" lon="4.891087"><tag k="note:name" v="Boulangerie PÃ¢tisserie Serre SARL" /><tag k="note:address" v="13 Grande Rue, 26000 Valence, France" /><tag k="note:city" v="Valence" /><tag k="note:comment" v="Horaires exceptionnels: &#10;Matin de 7h15 Ã  13h15&#10;AprÃ¨s-midi 16h15 Ã  17h15" /></node><node id="-19" version="1" lat="44.932014" lon="4.8895564"><tag k="note:name" v="Boucherie Simonian" /><tag k="note:address" v="Place du PrÃ©sidial, 26000 Valence, France" /><tag k="note:city" v="Valence" /><tag k="note:comment" v="Horaires exceptionnels: FERME APRESMIDI &#10;Ouverture de 7h Ã  12h30" /></node><node id="-20" version="1" lat="44.932377" lon="4.894222"><tag k="note:name" v="Merveill'Home" /><tag k="note:address" v="5 Rue Jeu de Paume, 26000 Valence, France" /><tag k="note:city" v="Valence" /><tag k="note:comment" v="Commande en ligne sur le eshop www.merveill-home.com/shop&#10;Livraison Ã  domicile (dÃ©pÃ´t des commandes dans le hall de votre immeuble ou derriÃ¨re votre portail en maison individuelle sur rdv, envoi de sms une fois le dÃ©pÃ´t effectuÃ© pour que vous rÃ©cupÃ©riez votre colis)" /></node><node id="-21" version="1" lat="44.906498" lon="4.885457"><tag k="note:name" v="O'CANEO" /><tag k="note:address" v="124 Avenue de la LibÃ©ration, 26000 Valence, France" /><tag k="note:city" v="Valence" /><tag k="note:comment" v="Alimentation chiens et chats et accessoires chiens, accÃ¨s rÃ©duit au magasin pour limiter les risques. &#10;Horaires du lundi au vendredi 10h-13h // 16h-19h&#10;Samedi 10h-15h" /></node><node id="-22" version="1" lat="44.950417" lon="4.926188"><tag k="note:name" v="KALAO" /><tag k="note:address" v="Plateau des Couleures, Place Jean Rostand, 26000 Valence, France" /><tag k="note:city" v="Valence" /><tag k="note:comment" v="Lundi de 14h Ã  19h&#10;Du mardi au samedi de 9h Ã  19h&#10;04 75 56 94 20" /></node><node id="-23" version="1" lat="44.93405" lon="4.8909516"><tag k="note:name" v="My Little Warung Valence" /><tag k="note:address" v="4 Grande Rue, 26000 Valence, France" /><tag k="note:city" v="Valence" /><tag k="note:comment" v="PROVISOIREMENT FERME" /></node><node id="-24" version="1" lat="44.933723" lon="4.890467"><tag k="note:name" v="La Valentinoise, Brasserie artisanale de Valence" /><tag k="note:address" v="11 Rue Sabaterie, 26000 Valence, France" /><tag k="note:city" v="Valence" /><tag k="note:comment" v="Pendant la pÃ©riode de confinement, La Brasserie propose un service gratuit de livraison des biÃ¨res Ã  domicile pour l'agglomÃ©ration de Valence. Vous pouvez passer commande via le site internet : www.brasserielavalentinoise.fr ou sur FB : La Valentinoise, biÃ¨re de Valence." /></node><node id="-25" version="1" lat="44.92212" lon="4.890659"><tag k="note:name" v="Chez Gayane" /><tag k="note:address" v="97 Rue Denis Papin, 26000 Valence, France" /><tag k="note:city" v="Valence" /><tag k="note:comment" v="OUVERT DU LUNDI AU SAMEDI SOIR A PARTIR DE 18H 30&#10;SPECIALITE LIBANO ARMENIENNE A EMPORTER OU LIVRER A DOMICILE SUR UBER EAT&#10;TEL 09 50 89 22 41 OU 06 64 09 63 66" /></node><node id="-26" version="1" lat="44.92982" lon="4.8955874"><tag k="note:name" v="PÃ¢tisserie Chocolaterie Traiteur Paris Friand COLOMB FrÃ©dÃ©ric Valence" /><tag k="note:address" v="5 Rue des Alpes, 26000 Valence, France" /><tag k="note:city" v="Valence" /><tag k="note:comment" v="Horaires d'ouverture:&#10;Ouvert du Mardi au Samedi de 8h15 Ã  13h30 et de 15h15 Ã  19h00 et le Dimanche de 8h15 Ã  13h00&#10;TÃ©lÃ©phone : 04 75 42 37 82" /></node><node id="-27" version="1" lat="44.931236" lon="4.895338"><tag k="note:name" v="LE PARKER" /><tag k="note:address" v="29 Avenue FÃ©lix Faure, 26000 Valence, France" /><tag k="note:city" v="Valence" /></node><node id="-28" version="1" lat="44.93412" lon="4.891269"><tag k="note:name" v="Green'Box" /><tag k="note:address" v="15 Place St Jean, 26000 Valence, France" /><tag k="note:city" v="Valence" /><tag k="note:comment" v="Pour l'instant pas de changement." /></node><node id="-29" version="1" lat="44.932964" lon="4.8963423"><tag k="note:name" v="Le Pain de Sucre" /><tag k="note:address" v="95 Avenue Sadi Carnot, 26000 Valence, France" /><tag k="note:city" v="Valence" /><tag k="note:comment" v="Horaires exceptionnels: &#10;Ouverture de 6h Ã  13h tous les jours" /></node><node id="-30" version="1" lat="44.92818" lon="4.892267"><tag k="note:name" v="Smokys Pizza" /><tag k="note:address" v="28 Avenue Pierre Semard, 26000 Valence, France" /><tag k="note:city" v="Valence" /><tag k="note:comment" v="Ouverture jusqu'a minuit:&#10;Choisissez en ligne et commandez par tÃ©l au 04.75.44.26.26 ou passes par les plateformes de livraisons UberEats Delivroo" /></node><node id="-31" version="1" lat="44.93385" lon="4.8908362"><tag k="note:name" v="gramme et kilogramme" /><tag k="note:address" v="6 Grande Rue, 26000 Valence, France" /><tag k="note:city" v="Valence" /><tag k="note:comment" v="INFO - Gramme et Kilogramme reste ouvert mais sera fermÃ© dÃ¨s 18h00 !! tous les soirs (pas d'autre changement d'horaire pour le moment)&#10;- PrivilÃ©giez le paiement CB et sans contact.&#10;- Pensez Ã  apporter vos sacs/paniers/cabas dans la mesure du possible.&#10;- Laissez une distance d'au moins 1 m entre chaque personne.&#10;- L'accÃ¨s au magasin sera limitÃ© sur les pÃ©riodes d'affluence, nous vous demanderons peut-Ãªtre d'attendre un peu dehors.&#10;Il n'y a aucune rupture annoncÃ©e, donc pas besoin de trop stocker...&#10;Soyons toutes et tous responsables les uns des autres pour passer ce moment difficile et nous avons confiance en vous pour que cela se fasse dans les meilleures conditions possibles." /></node><node id="-32" version="1" lat="44.928463" lon="4.889071"><tag k="note:name" v="Chamas TacosÂ® Valence" /><tag k="note:address" v="7 Avenue du Champ de Mars, 26000 Valence, France" /><tag k="note:city" v="Valence" /><tag k="note:comment" v="Fonctionne seulement avec les plateformes de livraisons (UberEats / Delivroo)" /></node><node id="-33" version="1" lat="44.934036" lon="4.9053593"><tag k="note:name" v="Office Notarial de MaÃ®tre CÃ©dric VALHIER, Notaire Ã  VALENCE" /><tag k="note:address" v="82 Avenue de Romans, 26000 Valence, France" /><tag k="note:city" v="Valence" /><tag k="note:comment" v="Disponible par email &amp; telephone" /></node><node id="-34" version="1" lat="44.92784" lon="4.889679"><tag k="note:name" v="Lounge and Vap" /><tag k="note:address" v="62 Avenue Victor Hugo, 26000 Valence, France" /><tag k="note:city" v="Valence" /><tag k="note:comment" v="Cigarettes Ã©lectroniques et e-liquides&#10;Permanences: &#10;mardi / jeudi / samedi -&gt; de 14h Ã  18h" /></node><node id="-35" version="1" lat="44.920334" lon="4.885746"><tag k="note:name" v="Fromages _ et Terroirs Valence" /><tag k="note:address" v="206 Avenue Victor Hugo, 26000 Valence, France" /><tag k="note:city" v="Valence" /><tag k="note:comment" v="Fromagerie crÃ¨merie, glaces Terre AdÃ©lice, Ã©picerie diverse, confitures, miels, vins, jus de fruits etc....&#10;Horaires : du mardi au dimanche matin. Ouvert le matin et l'aprÃ¨s-midi. PrivilÃ©gier l'aprÃ¨s midi car moins d'affluence. &#10;TÃ©lÃ©phone : 04 75 42 31 61.&#10;Le terminal de paiement et le meuble  de caisse sont nettoyÃ©s Ã  l'alcool mÃ©nager aprÃ¨s chaque client. Nettoyage des mains avant de servir chaque client." /></node></osm>