<?xml version='1.0' encoding='utf-8'?>
<osm version="0.6" generator="OSM Conflator 1.4.1"><changeset><tag k="source" v="dokomaps.com" /><tag k="created_by" v="OSM Conflator 1.4.1" /><tag k="type" v="import" /></changeset><node id="455154323" version="6" lat="44.9440834" lon="4.8411728" action="modify"><tag k="addr:city" v="Saint-Péray" /><tag k="addr:housenumber" v="10" /><tag k="addr:postcode" v="07130" /><tag k="addr:street" v="Place de l'Hôtel de Ville" /><tag k="brand" v="Vival" /><tag k="brand:wikidata" v="Q7937525" /><tag k="brand:wikipedia" v="en:Vival (shop)" /><tag k="level" v="0" /><tag k="name" v="Vival" /><tag k="opening_hours" v="Mo-Sa 08:00-12:30,15:00-19:30; Su 08:00-12:15" /><tag k="opening_hours:covid19" v="Mo-Sa 08:00-14:00; Su 08:00-12:00" /><tag k="operator" v="Cinocle" /><tag k="payment:cash" v="yes" /><tag k="payment:contactless" v="yes" /><tag k="payment:credit_cards" v="yes" /><tag k="payment:debit_cards" v="yes" /><tag k="phone" v="+33 4 75 40 51 10" /><tag k="shop" v="convenience" /><tag k="source" v="cadastre-dgi-fr source : Direction Générale des Impôts - Cadastre;mise à jour : 2008;local knowledge" /><tag k="website" v="https://magasins.vival.fr/fr/s/vival-saint-peray" /><tag k="wheelchair" v="no" /><tag k="note:name" v="Vival" /><tag k="note:address" v="10 Place de la Mairie, 07130 Saint-Péray, France" /><tag k="note:city" v="Saint-Péray" /><tag k="note:comment" v="Nouveaux horaire a definir &#10;Conseillé d'appeler avant de vous déplacer&#10;tel: 04 75 40 51 10" /></node><node id="4369382974" version="3" lat="44.9447819" lon="4.8543417" action="modify"><tag k="addr:city" v="Saint-Péray" /><tag k="addr:postcode" v="07130" /><tag k="addr:street" v="Avenue de Gross Umstadt" /><tag k="brand" v="Satoriz" /><tag k="brand:wikidata" v="Q3473968" /><tag k="brand:wikipedia" v="fr:Satoriz" /><tag k="bulk_purchase" v="yes" /><tag k="contact:facebook" v="https://www.facebook.com/SatorizMagasinsBio" /><tag k="contact:phone" v="+33 4 75 78 31 10" /><tag k="name" v="Satoriz" /><tag k="opening_hours" v="Mo-Sa 08:30-19:30" /><tag k="organic" v="only" /><tag k="shop" v="supermarket" /><tag k="website" v="http://www.satoriz.fr" /><tag k="note:name" v="Satoriz" /><tag k="note:address" v="100 avenue Gross Umstadt Zone Murets Satoriz, 07130 Saint-Péray, France" /><tag k="note:city" v="Saint-Péray" /><tag k="note:comment" v="Nouveaux horaires 10:00 - 17:00" /></node><node id="826791979" version="1" lat="44.9419262" lon="4.8611613" action="modify"><tag k="name" v="La baguetterie" /><tag k="shop" v="bakery" /><tag k="source" v="cadastre-dgi-fr source : Direction Générale des Impôts - Cadastre. Mise à jour : 2010" /><tag k="note:name" v="La Baguetterie" /><tag k="note:address" v="767 Avenue Gross Umstadt, 07130 Saint-Péray, France" /><tag k="note:city" v="Saint-Péray" /><tag k="note:comment" v="Horaires exceptionnels: &#10;Ouverture de 5h à 18h" /></node><node id="4379751143" version="2" lat="44.942674" lon="4.8597557" action="modify"><tag k="addr:housenumber" v="629" /><tag k="addr:street" v="Av. Gross Umstadt" /><tag k="name" v="Boucherie Demars" /><tag k="opening_hours" v="Tu-Fr 07:00-12:45, 15:00-19:00; Sa 07:00-12:45, 14:30-18:30" /><tag k="phone" v="+33475853647" /><tag k="shop" v="butcher" /><tag k="website" v="boucheriedemars.e-monsite.com" /><tag k="note:name" v="Boucherie DEMARS" /><tag k="note:address" v="629 Avenue Gross Umstadt, 07130 Saint-Péray, France" /><tag k="note:city" v="Saint-Péray" /><tag k="note:comment" v="Horaires exceptionnels&#10;Ouvert seulement le matin de 7h30 à 12h30" /></node><node id="-1" version="1" lat="44.943165" lon="4.8587575"><tag k="note:name" v="Boulangerie Marie Blachère" /><tag k="note:address" v="Avenue Gross Umstadt, 07130 Saint-Péray, France" /><tag k="note:city" v="Saint-Péray" /><tag k="note:comment" v="Horaires exceptionnels: &#10;Ouverture de 7h30 à 18h30" /></node><node id="-2" version="1" lat="44.943367" lon="4.8409004"><tag k="note:name" v="Au Fournil de Nicolas" /><tag k="note:address" v="10 Rue Ferdinand Malet, 07130 Saint-Péray, France" /><tag k="note:city" v="Saint-Péray" /><tag k="note:comment" v="Nouveaux horaires a partir du 18 Mars&#10;6h00 - 14h00" /></node><node id="-3" version="1" lat="44.944542" lon="4.841819"><tag k="note:name" v="Boucherie Charcuterie Traiteur Marlard" /><tag k="note:address" v="70 Rue de la République, 07130 Saint-Péray, France" /><tag k="note:city" v="Saint-Péray" /><tag k="note:comment" v="&quot;Chers clients,&#10;En ces moments très difficiles notre priorité absolu est de protéger nos clients et notre équipe afin de limiter au maximum la propagation du virus, nous avons pris les mesures qui s'imposent naturellement dans un cas aussi exceptionnel.&#10;N’hésitez pas à passer vos commandes au 04.75.40.30.52, par mail, ou par Facebook. Afin de gérer au mieux la situation, pour éviter les attentes trop longue en magasin et la rupture de stock de certains produits. &#10;Votre boucherie traiteur est ouverte aux horaires habituels :&#10;Mardi : 6h30 - 19h30&#10;Mercredi : 6h30 - 12h30 &#10;Jeudi, vendredi, samedi : 6h30-19h30&#10;Dimanche : 7h30 - 12h15 &#10;Notre équipe vous y accueillent en suivant les règles d'hygiène les plus strictes, nettoyer et désinfecter là poignet de porte ainsi que l’appareil à carte bleu régulièrement, lavage des mains et/ou désinfecter avec une solution hydroalcoolique entre chaque paiements nous vous servirons (comme d’habitude) avec des gants sur chaque mains, portant chacun un masque et limitant le nombre de clients par 2 au sein de l'établissements. &#10;Nous vous remercions de respecter les règles sanitaires pour éviter tout risque de contagion, notamment de conserver une distance minimum de 1 mètre entre vous dans la file d'attente.&#10;La boutique met en place des services de livraison sur St-peray, Guilherand-Grange, Cornas et Toulaud (uniquement produits frais pour un minimum de 10€) le mardi, jeudi, vendredi et samedi de 12h à 14h et de 16h à 18h, par téléphone/Facebook&#10;Soyons tous responsables, protégeons nous, protégeons les plus fragiles, et nos proches. &#10;Bon courage à vous dans cet épreuve.&#10;Morgane, Paul-Alexandre, Guillaume et Alicia.&quot;" /></node></osm>