<?xml version='1.0' encoding='utf-8'?>
<osm version="0.6" generator="OSM Conflator 1.4.1"><changeset><tag k="source" v="dokomaps.com" /><tag k="created_by" v="OSM Conflator 1.4.1" /><tag k="type" v="import" /></changeset><node id="6365018208" version="3" lat="46.1915699" lon="6.2192536" action="modify"><tag k="addr:housenumber" v="1" /><tag k="addr:street" v="Rue des Bellosses" /><tag k="contact:phone" v="+33 4 50 92 52 51" /><tag k="name" v="Boucherie du Bel'Os" /><tag k="opening_hours" v="Mo off; Tu-Sa 07:30-12:30, 15:00-19:30; Su 08:30-12:30" /><tag k="ref:fr:naf" v="4722Z" /><tag k="ref:fr:siren" v="442 906 004" /><tag k="ref:fr:siret" v="44290600400019" /><tag k="shop" v="butcher" /><tag k="start_date" v="2002-08-07" /><tag k="note:name" v="Boucherie du Bel'Os" /><tag k="note:address" v="1 Rue des Bellosses, 74100 Ambilly, France" /><tag k="note:city" v="Gaillard" /><tag k="note:comment" v="Boucherie de quartier et proposant des produits locaux" /></node><node id="7235233455" version="1" lat="46.1848751" lon="6.2082966" action="modify"><tag k="addr:housenumber" v="5" /><tag k="addr:street" v="Cours de la République" /><tag k="contact:phone" v="+33 4 50 35 11 94" /><tag k="name" v="Le Savoyard Gourmand" /><tag k="opening_hours" v="Mo-Sa 08:30-12:30, 14:30-19:30; Su 08:30-15:00" /><tag k="ref:fr:naf" v="4729Z" /><tag k="ref:fr:siren" v="530 587 187" /><tag k="ref:fr:siret" v="53058718700028" /><tag k="shop" v="deli" /><tag k="start_date" v="2011-02-25" /><tag k="note:name" v="Le Savoyard Gourmand" /><tag k="note:address" v="5 Cours de la République, 74240 Gaillard, France" /><tag k="note:city" v="Gaillard" /><tag k="note:comment" v="Savoyard Gourmand proposes des produits locaux et de qualité." /></node><way id="200081737" version="7" action="modify"><tag k="addr:city" v="Gaillard" /><tag k="addr:housenumber" v="97" /><tag k="addr:postcode" v="74240" /><tag k="addr:street" v="Rue de Genève" /><tag k="brand" v="Casino" /><tag k="brand:wikidata" v="Q2670967" /><tag k="brand:wikipedia" v="fr:Enseignes du groupe Casino#Casino Supermarchés" /><tag k="building" v="retail" /><tag k="building:levels" v="1" /><tag k="contact:phone" v="+33 4 50 43 96 90" /><tag k="contact:website" v="https://magasins.supercasino.fr/supermarche/gaillard/CS163" /><tag k="name" v="Casino" /><tag k="opening_hours" v="Mo-Sa 08:00-23:59; Su 08:30-23:59" /><tag k="ref:fr:casino" v="CS163" /><tag k="shop" v="supermarket" /><tag k="source" v="Orthophotos 2009 du SITG (Système d'Information du Territoire Genevois)" /><tag k="note:name" v="Casino supermarché" /><tag k="note:address" v="97 Rue de Genève, 74240 Gaillard, France" /><tag k="note:city" v="Gaillard" /><nd ref="2100679894" /><nd ref="2100679892" /><nd ref="2100679887" /><nd ref="2100679883" /><nd ref="2100679754" /><nd ref="2100679730" /><nd ref="2100679709" /><nd ref="2100679691" /><nd ref="2100679678" /><nd ref="2100679718" /><nd ref="2103532295" /><nd ref="2103532294" /><nd ref="2103532293" /><nd ref="2100679894" /></way><way id="200400323" version="6" action="modify"><tag k="addr:city" v="Gaillard" /><tag k="addr:housenumber" v="118" /><tag k="addr:postcode" v="74240" /><tag k="addr:street" v="Rue de Genève" /><tag k="brand:wikidata" v="Q610492" /><tag k="building" v="retail" /><tag k="building:levels" v="1" /><tag k="contact:phone" v="+33 4 50 38 80 40" /><tag k="contact:website" v="https://magasins.spar.fr/fr/s/spar-supermarche-gaillard" /><tag k="name" v="Spar" /><tag k="opening_hours" v="Mo-Sa 08:30-20:00; Su 08:30-12:15" /><tag k="operator" v="Spar" /><tag k="shop" v="supermarket" /><tag k="source" v="Bing;Orthophotos 2011 du SITG (Système d'Information du Territoire Genevois)" /><tag k="wheelchair" v="yes" /><tag k="note:name" v="Spar" /><tag k="note:address" v="118 Rue de Genève, 74240 Gaillard, France" /><tag k="note:city" v="Gaillard" /><tag k="note:comment" v="Supermarché de quartier" /><nd ref="2103929172" /><nd ref="2103929171" /><nd ref="2094236844" /><nd ref="2094236889" /><nd ref="2094236888" /><nd ref="2094236936" /><nd ref="2094236956" /><nd ref="2103929172" /></way><node id="-1" version="1" lat="46.18527" lon="6.220279"><tag k="note:name" v="Costa Earl" /><tag k="note:address" v="9 Rue de l'Industrie, 74240 Gaillard, France" /><tag k="note:city" v="Gaillard" /><tag k="note:comment" v="COMMANDEZ MAINTENANT &#10; RETIREZ VOS FRUITS ET LEGUMES JEUDI 02 AVRIL&#10; 04 50 92 00 39  06 75 78 24 70  Messages privés&#10;VENTES A LA FERME LES VENDREDIS &amp; SAMEDIS DU 8H A 14H !" /></node></osm>