<?xml version='1.0' encoding='utf-8'?>
<osm version="0.6" generator="OSM Conflator 1.4.1"><changeset><tag k="source" v="dokomaps.com" /><tag k="created_by" v="OSM Conflator 1.4.1" /><tag k="type" v="import" /></changeset><node id="7348677152" version="1" lat="47.0803699" lon="2.3914391" action="modify"><tag k="addr:housenumber" v="91" /><tag k="amenity" v="bar" /><tag k="name" v="Le Field" /><tag k="opening_hours:covid19" v="Mo-Fr 08:00-18:00; Sa 08:00-16:00" /><tag k="shop" v="newsagent" /><tag k="tobacco" v="yes" /><tag k="note:name" v="Le Field" /><tag k="note:address" v="91 Rue d'Auron, 18000 Bourges, France" /><tag k="note:city" v="Bourges" /><tag k="note:comment" v="Bureau de tabac - ouvert de 8hà 18h du lundi au vendredi&#10;le samedi de 8hà 16h" /></node><way id="64600810" version="8" action="modify"><tag k="brand" v="E. Leclerc" /><tag k="brand:wikidata" v="Q1273376" /><tag k="brand:wikipedia" v="fr:E.Leclerc" /><tag k="building" v="retail" /><tag k="name" v="E. Leclerc" /><tag k="shop" v="supermarket" /><tag k="source" v="cadastre-dgi-fr source : Direction Générale des Impôts - Cadastre. Mise à jour : 2010" /><tag k="note:name" v="E.Leclerc Bourges" /><tag k="note:address" v="Le Nouveau, Le Prado, 18000 Bourges, France" /><tag k="note:city" v="Bourges" /><nd ref="793705021" /><nd ref="793705153" /><nd ref="793690811" /><nd ref="793637147" /><nd ref="793648682" /><nd ref="793675880" /><nd ref="793645281" /><nd ref="793645113" /><nd ref="793619060" /><nd ref="793693197" /><nd ref="793665969" /><nd ref="793686308" /><nd ref="793660542" /><nd ref="793620253" /><nd ref="793680671" /><nd ref="793656339" /><nd ref="793705021" /></way><node id="3580385265" version="4" lat="47.0873738" lon="2.3961002" action="modify"><tag k="brand" v="Monoprix" /><tag k="brand:wikidata" v="Q3321241" /><tag k="brand:wikipedia" v="en:Monoprix" /><tag k="name" v="Monoprix" /><tag k="shop" v="supermarket" /><tag k="note:name" v="Monoprix" /><tag k="note:address" v="8 Avenue de Peterborough, 18000 Bourges, France" /><tag k="note:city" v="Bourges" /></node><way id="64597926" version="8" action="modify"><tag k="addr:city" v="Bourges" /><tag k="addr:housenumber" v="121" /><tag k="addr:postcode" v="18000" /><tag k="addr:street" v="Boulevard de l'Avenir" /><tag k="brand" v="Biocoop" /><tag k="brand:wikidata" v="Q2904039" /><tag k="brand:wikipedia" v="fr:Biocoop" /><tag k="building" v="yes" /><tag k="bulk_purchase" v="yes" /><tag k="name" v="Au Bourgeon vert" /><tag k="opening_hours" v="Mo-Sa 09:30-19:30; PH closed" /><tag k="organic" v="only" /><tag k="phone" v="+33 2 48 21 19 01" /><tag k="shop" v="supermarket" /><tag k="source" v="cadastre-dgi-fr source : Direction Générale des Impôts - Cadastre. Mise à jour : 2010" /><tag k="website" v="https://www.biocoopaubourgeonvert.fr/" /><tag k="note:name" v="Biocoop Au Bourgeon Vert" /><tag k="note:address" v="121 Boulevard de l'Avenir, 18000 Bourges, France" /><tag k="note:city" v="Bourges" /><tag k="note:comment" v="horaires :  tous les jours, 9h30 - 18h30" /><nd ref="793700538" /><nd ref="793620515" /><nd ref="793620847" /><nd ref="793634509" /><nd ref="793633014" /><nd ref="793688446" /><nd ref="793669966" /><nd ref="793641516" /><nd ref="793704738" /><nd ref="793648705" /><nd ref="793700538" /></way><node id="-1" version="1" lat="47.100346" lon="2.407024"><tag k="note:name" v="Lotus d'Asie" /><tag k="note:address" v="105 Av. du Général Charles de Gaulle, 18000 Bourges, France" /><tag k="note:city" v="Bourges" /><tag k="note:comment" v="Épicerie Asiatique et Exotique &#10;Horaires temporaires &#10;Lundi au jeudi : 14h à 17h&#10;Vendredi et samedi : 10h à 12h et 14h à 17h&#10;Dimanche : fermé &#10;Mail : lotusdasie@live.fr&#10;Tél : 06 50 56 80 11" /></node><node id="-2" version="1" lat="47.081013" lon="2.398782"><tag k="note:name" v="Bourges" /><tag k="note:address" v="18000 Bourges, France" /><tag k="note:city" v="Bourges" /><tag k="note:comment" v="Coronavirus // Les établissements ouverts à Bourges.&#10;Pour vous soutenir et vous accompagner pendant la période de confinement, je vous propose une carte des établissements ouverts (commerces alimentaires, pharmacies, stations-service…).&#10;L'outil est collaboratif : je compte sur vous pour ajouter vos infos afin d’avoir une carte la plus complète possible.&#10;Si un lieux ouvert n’apparaît pas sur cette carte, cliquer sur le bouton &quot;Proposer un endroit à ajouter&quot;, en précisant : &#10;• le nom de votre commerce&#10;• les horaires d’ouverture (ou de livraison)&#10;• le téléphone de votre enseigne&#10;Et surtout, n'oubliez pas #SAUVEZDESVIES #RESTEZCHEZVOUS" /></node><node id="-3" version="1" lat="47.07905" lon="2.3897681"><tag k="note:name" v="Le bistro le bergerac" /><tag k="note:address" v="1 Rue Jean-Jacques Rousseau, 18000 Bourges, France" /><tag k="note:city" v="Bourges" /><tag k="note:comment" v="Tabac &#10;ouvert de 8h00/13h00 et 16h00/20h00&#10;Proposition de plateaux à emporter : &#10; entrée, plats, dessert . ( couverts, pain ) &#10;Nos plats seront chaud &#10;Prix : 13€50/ par pers &#10;Livraison  gratuite possible quartier : auron , Barbès,Rousseau , &#10;Commande à partir de 10h00 livraison pour le déjeuner &#10;                     à partir de 17h00 livraison pour le dîner &#10;Des menus seront élaborés au jour le jour.&#10;Contact : &#10;&#10;David &#10;06.98.83.09.06&#10;E-mail : davidbonnet72@hotmail.com&#10;Mise en place dès lundi 30 mars 2020" /></node><node id="-4" version="1" lat="47.089676" lon="2.4011858"><tag k="note:name" v="Boucherie Chevaline" /><tag k="note:address" v="132 Rue Edouard Vaillant, 18000 Bourges, France" /><tag k="note:city" v="Bourges" /><tag k="note:comment" v="Ouverture du mardi au samedi 8h à 12h30 .possibilité de livré" /></node><node id="-5" version="1" lat="47.085617" lon="2.3934162"><tag k="note:name" v="PHARMACY CHER" /><tag k="note:address" v="23 Rue du Commerce, 18000 Bourges, France" /><tag k="note:city" v="Bourges" /><tag k="note:comment" v="horaires à confirmer" /></node><node id="-6" version="1" lat="47.08441" lon="2.3954074"><tag k="note:name" v="La Mie Câline" /><tag k="note:address" v="11 Rue Moyenne, 18000 Bourges, France" /><tag k="note:city" v="Bourges" /><tag k="note:comment" v="ouvert de 7h30 à 14h" /></node></osm>