<?xml version='1.0' encoding='utf-8'?>
<osm version="0.6" generator="OSM Conflator 1.4.1"><changeset><tag k="source" v="dokomaps.com" /><tag k="created_by" v="OSM Conflator 1.4.1" /><tag k="type" v="import" /></changeset><node id="2377254037" version="4" lat="47.2153851" lon="-1.5523484" action="modify"><tag k="amenity" v="restaurant" /><tag k="contact:city" v="Nantes" /><tag k="contact:country" v="FR" /><tag k="contact:housenumber" v="20" /><tag k="contact:phone" v="+33 2 40 47 99 60" /><tag k="contact:postcode" v="44000" /><tag k="contact:street" v="Rue des Petites Écuries" /><tag k="cuisine" v="asian" /><tag k="delivery" v="yes" /><tag k="name" v="La Grande Muraille" /><tag k="opening_hours" v="Mo-Fr 12:00-14:30,19:00-23:00; Sa,Su 12:00-14:30,19:00-23:30; We off" /><tag k="outdoor_seating" v="yes" /><tag k="survey:date" v="2019-02-24" /><tag k="takeaway" v="yes" /><tag k="note:name" v="La Grande Muraille" /><tag k="note:address" v="18 Rue des Petites Écuries, 44000 Nantes, France" /><tag k="note:city" v="Nantes" /></node><way id="74609825" version="11" action="modify"><tag k="brand" v="Carrefour City" /><tag k="brand:wikidata" v="Q2940187" /><tag k="brand:wikipedia" v="fr:Carrefour City" /><tag k="building" v="apartments" /><tag k="name" v="Carrefour City" /><tag k="opening_hours" v="Mo-Sa 07:00-22:00, Su 09:00-13:00" /><tag k="operator" v="Carrefour" /><tag k="phone" v="+33 2 40 20 48 76" /><tag k="shop" v="supermarket" /><tag k="source" v="cadastre-dgi-fr source : Direction Générale des Impôts - Cadastre. Mise à jour : 2010" /><tag k="survey:date" v="2019-02-20" /><tag k="website" v="https://www.carrefour.fr/magasin/city-nantes-cassini" /><tag k="wheelchair" v="yes" /><tag k="note:name" v="Carrefour City" /><tag k="note:address" v="3 Rue Cassini, 44000 Nantes, France" /><tag k="note:city" v="Nantes" /><nd ref="881423957" /><nd ref="881460101" /><nd ref="881519962" /><nd ref="881514612" /><nd ref="881465384" /><nd ref="881537973" /><nd ref="881528197" /><nd ref="881539496" /><nd ref="882111918" /><nd ref="881423957" /></way><node id="6042340126" version="2" lat="47.2333502" lon="-1.5661374" action="modify"><tag k="addr:city" v="NANTES" /><tag k="addr:housenumber" v="1" /><tag k="addr:postcode" v="44000" /><tag k="addr:street" v="Boulevard Robert Schuman" /><tag k="amenity" v="restaurant" /><tag k="cuisine" v="pizza" /><tag k="delivery" v="yes" /><tag k="name" v="Basilic &amp; Co" /><tag k="opening_hours" v="11:30-14:00,18:00-22:00; Fr,Sa 11:30-14:00,18:00-22:30" /><tag k="phone" v="+33240025128" /><tag k="takeaway" v="yes" /><tag k="website" v="http://www.basilic-and-co.com" /><tag k="note:name" v="Basilic &amp; Co Nantes (Schuman)" /><tag k="note:address" v="1 Boulevard Robert Schuman, 44300 Nantes, France" /><tag k="note:city" v="Nantes" /></node><node id="4396149089" version="6" lat="47.2172562" lon="-1.5574106" action="modify"><tag k="addr:city" v="Nantes" /><tag k="addr:housenumber" v="23" /><tag k="addr:postcode" v="44000" /><tag k="addr:street" v="Allée d'Orléans" /><tag k="brand" v="Naturalia" /><tag k="brand:wikidata" v="Q3337081" /><tag k="brand:wikipedia" v="fr:Naturalia" /><tag k="bulk_purchase" v="yes" /><tag k="contact:phone" v="+33 2 40357540" /><tag k="description" v="Épicerie biologique et naturelle" /><tag k="highway" v="crossing" /><tag k="name" v="Naturalia" /><tag k="opening_hours" v="Mo-Sa 09:00-20:00; Su 09:00-13:30" /><tag k="organic" v="only" /><tag k="shop" v="supermarket" /><tag k="website" v="https://magasins.naturalia.fr/produits-bio/nantes/3954/" /><tag k="wheelchair" v="yes" /><tag k="note:name" v="NATURALIA" /><tag k="note:address" v="23 Allée d'Orléans, 44000 Nantes, France" /><tag k="note:city" v="Nantes" /></node><node id="1226122333" version="3" lat="47.2097402" lon="-1.5653394" action="modify"><tag k="amenity" v="restaurant" /><tag k="brand" v="Pizza Hut" /><tag k="brand:wikidata" v="Q191615" /><tag k="brand:wikipedia" v="en:Pizza Hut" /><tag k="contact:phone" v="+33 2 85 52 46 46" /><tag k="contact:website" v="https://www.pizzahut.fr/" /><tag k="cuisine" v="pizza" /><tag k="delivery" v="yes" /><tag k="name" v="Pizza Hut" /><tag k="opening_hours" v="Mo-Fr 11:30-15:00,18:00-23:00; Sa,Su 11:30-23:00" /><tag k="survey:date" v="2019-09-21" /><tag k="takeaway" v="yes" /><tag k="wheelchair" v="yes" /><tag k="note:name" v="Pizza Hut" /><tag k="note:address" v="64 Quai de la Fosse, 44000 Nantes, France" /><tag k="note:city" v="Nantes" /></node><node id="2406178636" version="6" lat="47.2141824" lon="-1.5457678" action="modify"><tag k="brand" v="Carrefour City" /><tag k="brand:wikidata" v="Q2940187" /><tag k="brand:wikipedia" v="fr:Carrefour City" /><tag k="name" v="Carrefour City" /><tag k="opening_hours" v="Mo-Sa 07:00-22:00; Su 09:00-22:00" /><tag k="operator" v="Carrefour" /><tag k="shop" v="supermarket" /><tag k="note:name" v="Carrefour City" /><tag k="note:address" v="6-8, 10 Avenue Carnot, 44000 Nantes, France" /><tag k="note:city" v="Nantes" /></node><node id="5990552064" version="2" lat="47.2156851" lon="-1.5358484" action="modify"><tag k="brand" v="Carrefour City" /><tag k="brand:wikidata" v="Q2940187" /><tag k="brand:wikipedia" v="fr:Carrefour City" /><tag k="name" v="Carrefour City" /><tag k="opening_hours" v="Mo-Sa 07:00-22:00; Su 09:00-13:00" /><tag k="operator" v="Carrefour City" /><tag k="shop" v="supermarket" /><tag k="note:name" v="Carrefour City" /><tag k="note:address" v="16 Bis Mail Pablo Picasso, 44000 Nantes, France" /><tag k="note:city" v="Nantes" /></node><node id="-1" version="1" lat="47.21626" lon="-1.5512857"><tag k="note:name" v="Basilic &amp; Co Nantes (Strasbourg)" /><tag k="note:address" v="16 Rue de Strasbourg, 44000 Nantes, France" /><tag k="note:city" v="Nantes" /></node><node id="-2" version="1" lat="47.21558" lon="-1.55529"><tag k="note:name" v="Big Fernand" /><tag k="note:address" v="5/7 Rue des Halles, 44000 Nantes, France" /><tag k="note:city" v="Nantes" /></node><node id="-3" version="1" lat="47.189674" lon="-1.5191145"><tag k="note:name" v="Basilic &amp; Co Nantes (Clisson)" /><tag k="note:address" v="110 Route de Clisson, 44200 Nantes, France" /><tag k="note:city" v="Nantes" /></node><node id="-4" version="1" lat="47.2126" lon="-1.5604945"><tag k="note:name" v="Big Fernand" /><tag k="note:address" v="8 Rue Jean Jacques Rousseau, 44000 Nantes, France" /><tag k="note:city" v="Nantes" /></node><node id="-5" version="1" lat="47.211266" lon="-1.5453084"><tag k="note:name" v="Biocoop Nantes Cité des congrès" /><tag k="note:address" v="18-20 Rue de Mayence, 44000 Nantes, France" /><tag k="note:city" v="Nantes" /></node><node id="-6" version="1" lat="47.21671" lon="-1.5595247"><tag k="note:name" v="BIOCOOP NANTES PLACE BRETAGNE" /><tag k="note:address" v="14 Rue de Budapest, 44000 Nantes, France" /><tag k="note:city" v="Nantes" /></node><node id="-7" version="1" lat="47.230976" lon="-1.5637835"><tag k="note:name" v="SPEED BURGER NANTES" /><tag k="note:address" v="182 Rue Paul Bellamy, 44000 Nantes, France" /><tag k="note:city" v="Nantes" /></node><node id="-8" version="1" lat="47.205257" lon="-1.5365577"><tag k="note:name" v="Pizza Hut Express" /><tag k="note:address" v="Boulevard Général de Gaulle, 44272 Nantes, France" /><tag k="note:city" v="Nantes" /></node></osm>