<?xml version='1.0' encoding='utf-8'?>
<osm version="0.6" generator="OSM Conflator 1.4.1"><changeset><tag k="source" v="dokomaps.com" /><tag k="created_by" v="OSM Conflator 1.4.1" /><tag k="type" v="import" /></changeset><node id="6020161428" version="2" lat="43.3028037" lon="5.3978913" action="modify"><tag k="brand" v="Bio C' Bon" /><tag k="bulk_purchase" v="yes" /><tag k="contact:facebook" v="https://www.facebook.com/biocbonfrance/" /><tag k="contact:housenumber" v="17" /><tag k="contact:street" v="Boulevard de la Blancarde" /><tag k="name" v="Bio C' Bon" /><tag k="opening_hours" v="Mo-Fr 10:00-20:00; Sa 09:30-20:00; Su 10:00-13:00" /><tag k="organic" v="only" /><tag k="shop" v="convenience" /><tag k="website" v="https://www.bio-c-bon.eu/fr/nos_magasins/bio-c-bon-marseille-blancarde" /><tag k="note:name" v="Bio c' Bon Marseille Blancarde" /><tag k="note:address" v="17 Boulevard de la Blancarde, 13004 Marseille, France" /><tag k="note:city" v="Marseille" /></node><node id="7235320051" version="1" lat="43.2834314" lon="5.3846821" action="modify"><tag k="brand" v="Naturalia" /><tag k="brand:wikidata" v="Q3337081" /><tag k="brand:wikipedia" v="fr:Naturalia" /><tag k="bulk_purchase" v="yes" /><tag k="contact:housenumber" v="46" /><tag k="contact:phone" v="+33 4 91 81 96 20" /><tag k="contact:street" v="Avenue du Prado" /><tag k="name" v="Naturalia" /><tag k="opening_hours" v="Mo-Sa 09:00-20:00; Su 09:00-12:45" /><tag k="organic" v="only" /><tag k="shop" v="convenience" /><tag k="note:name" v="NATURALIA" /><tag k="note:address" v="46 Avenue du Prado, 13006 Marseille, France" /><tag k="note:city" v="Marseille" /></node><node id="2456030128" version="6" lat="43.292653" lon="5.3840999" action="modify"><tag k="addr:housenumber" v="85" /><tag k="addr:postcode" v="13006" /><tag k="addr:street" v="Cours Julien" /><tag k="brand" v="Bio C' Bon" /><tag k="bulk_purchase" v="yes" /><tag k="contact:facebook" v="https://www.facebook.com/biocbonfrance/" /><tag k="description:covid19" v="ouvert de 10 à 14 h et de 15 à 18h" /><tag k="name" v="Bio C' Bon" /><tag k="opening_hours" v="Mo-Sa 09:30-20:00; Su 09:30-13:30" /><tag k="opening_hours:covid19" v="same" /><tag k="operator" v="Bio C' Bon" /><tag k="organic" v="only" /><tag k="shop" v="supermarket" /><tag k="website" v="https://bio-c-bon.eu/fr/nos_magasins/bio-c-bon-marseille-cours-julien" /><tag k="note:name" v="Bio c' Bon Marseille cours Julien" /><tag k="note:address" v="85 Cours Julien, 13006 Marseille, France" /><tag k="note:city" v="Marseille" /></node><node id="6030132703" version="3" lat="43.2906383" lon="5.3757958" action="modify"><tag k="brand" v="Bio C' Bon" /><tag k="bulk_purchase" v="yes" /><tag k="contact:housenumber" v="43" /><tag k="contact:street" v="Rue Breteuil" /><tag k="name" v="Bio C' Bon" /><tag k="opening_hours" v="Mo-Fr 10:00-20:00; Sa 09:30-20:00; Su 10:00-13:00" /><tag k="shop" v="convenience" /><tag k="website" v="https://bio-c-bon.eu/fr/nos_magasins/bio-c-bon-marseille-breteuil" /><tag k="note:name" v="Bio c' Bon Marseille Breteuil" /><tag k="note:address" v="43 Rue Breteuil, 13006 Marseille, France" /><tag k="note:city" v="Marseille" /></node><node id="1886609583" version="6" lat="43.2917345" lon="5.3723107" action="modify"><tag k="brand" v="Lidl" /><tag k="brand:website" v="http://www.lidl.fr" /><tag k="brand:wikidata" v="Q151954" /><tag k="brand:wikipedia" v="fr:Lidl" /><tag k="name" v="Lidl Port" /><tag k="shop" v="supermarket" /><tag k="note:name" v="Lidl" /><tag k="note:address" v="69-71 Rue Sainte, 13001 Marseille, France" /><tag k="note:city" v="Marseille" /></node><node id="3391011714" version="1" lat="43.3147247" lon="5.3708862" action="modify"><tag k="amenity" v="restaurant" /><tag k="name" v="Le 444" /><tag k="note:name" v="Snack le 444" /><tag k="note:address" v="444 Boulevard National, 13003 Marseille, France" /><tag k="note:city" v="Marseille" /></node><node id="4846089448" version="4" lat="43.2879584" lon="5.3636106" action="modify"><tag k="addr:city" v="Marseille" /><tag k="addr:housenumber" v="23" /><tag k="addr:postcode" v="13007" /><tag k="addr:street" v="Rue Sauveur Tobelem" /><tag k="amenity" v="restaurant" /><tag k="cuisine" v="asian;asiatique;vietnamese" /><tag k="delivery" v="yes" /><tag k="name" v="Chez riz" /><tag k="opening_hours" v="Th-Tu 10:30-14:00, 18:00-22:30" /><tag k="opening_hours:covid19" v="same" /><tag k="outdoor_seating" v="yes" /><tag k="phone" v="+33 4 91 35 16 13" /><tag k="smoking" v="outside" /><tag k="takeaway" v="yes" /><tag k="website" v="https://www.chezriz-marseille.fr/" /><tag k="note:name" v="Chez Riz" /><tag k="note:address" v="23 Rue Sauveur Tobelem, 13007 Marseille, France" /><tag k="note:city" v="Marseille" /></node><node id="6019909639" version="6" lat="43.2873497" lon="5.3839948" action="modify"><tag k="brand" v="Biocoop" /><tag k="bulk_purchase" v="yes" /><tag k="contact:housenumber" v="87" /><tag k="contact:street" v="Rue d'Italie" /><tag k="description:covid19" v="Filtrage à l'entrée du magasin, limité à 15 personnes En magasin puis en caisse, distance d'un mètre entre chaque personne Paiement par carte bancaire OBLIGATOIRE" /><tag k="name" v="Biocoop Castellane" /><tag k="opening_hours" v="Mo-Sa 09:30-19:30; Th 09:30-13:00,15:00-19:30" /><tag k="opening_hours:covid19" v="Mo-Sa 10:00-15:00" /><tag k="organic" v="only" /><tag k="shop" v="convenience" /><tag k="source" v="cadastre-dgi-fr source : Direction Générale des Impôts - Cadastre. Mise à jour : 2010" /><tag k="website" v="https://www.biocoopcastellane.fr/" /><tag k="wheelchair" v="yes" /><tag k="note:name" v="Biocoop Castellane" /><tag k="note:address" v="87 Rue d'Italie, 13006 Marseille, France" /><tag k="note:city" v="Marseille" /></node><node id="3535191515" version="4" lat="43.301845" lon="5.3693568" action="modify"><tag k="brand" v="Naturalia" /><tag k="brand:wikidata" v="Q3337081" /><tag k="brand:wikipedia" v="fr:Naturalia" /><tag k="bulk_purchase" v="yes" /><tag k="contact:housenumber" v="75" /><tag k="contact:street" v="Rue de la République" /><tag k="name" v="Naturalia" /><tag k="note" v="Magasion bio et nature" /><tag k="opening_hours" v="Mo-Sa 09:00-20:00" /><tag k="organic" v="only" /><tag k="phone" v="+33 4 91 89 95 92" /><tag k="shop" v="supermarket" /><tag k="note:name" v="NATURALIA" /><tag k="note:address" v="75 Rue de la République, 13002 Marseille, France" /><tag k="note:city" v="Marseille" /></node><node id="4073593041" version="2" lat="43.3042205" lon="5.3674495" action="modify"><tag k="amenity" v="restaurant" /><tag k="cuisine" v="sushi" /><tag k="name" v="Côté sushi" /><tag k="source" v="survey 2016" /><tag k="note:name" v="Côté Sushi Marseille Joliette" /><tag k="note:address" v="109 Rue de la République, 13002 Marseille, France" /><tag k="note:city" v="Marseille" /></node><way id="70067128" version="4" action="modify"><tag k="addr:city" v="Marseille" /><tag k="addr:housenumber" v="21" /><tag k="addr:postcode" v="13007" /><tag k="addr:street" v="Rue Sauveur Tobelem" /><tag k="brand" v="Biocoop" /><tag k="brand:wikidata" v="Q2904039" /><tag k="brand:wikipedia" v="fr:Biocoop" /><tag k="building" v="yes" /><tag k="bulk_purchase" v="yes" /><tag k="name" v="Biocoop Endoume" /><tag k="organic" v="only" /><tag k="shop" v="supermarket" /><tag k="source" v="cadastre-dgi-fr source : Direction Générale des Impôts - Cadastre. Mise à jour : 2010" /><tag k="website" v="https://www.biocoopendoume.fr/" /><tag k="note:name" v="Biocoop Endoume" /><tag k="note:address" v="21 Rue Sauveur Tobelem, 13007 Marseille, France" /><tag k="note:city" v="Marseille" /><nd ref="836688877" /><nd ref="836556162" /><nd ref="836816886" /><nd ref="836587368" /><nd ref="836651692" /><nd ref="836732662" /><nd ref="836538136" /><nd ref="836668956" /><nd ref="836762088" /><nd ref="836769728" /><nd ref="836694348" /><nd ref="836536539" /><nd ref="836758523" /><nd ref="836585743" /><nd ref="836648972" /><nd ref="836594920" /><nd ref="836733290" /><nd ref="836792138" /><nd ref="836702723" /><nd ref="836611759" /><nd ref="836688877" /></way><node id="-1" version="1" lat="43.279305" lon="5.3916316"><tag k="note:name" v="Pizza UP" /><tag k="note:address" v="137 Rue du Rouet, 13008 Marseille, France" /><tag k="note:city" v="Marseille" /></node><node id="-2" version="1" lat="43.299583" lon="5.3810453"><tag k="note:name" v="Snack Pitchou's Snack Sur Place, Emporter, Tacos, Burger hallal a Marseille" /><tag k="note:address" v="6 Boulevard d'Athènes, 13001 Marseille, France" /><tag k="note:city" v="Marseille" /></node><node id="-3" version="1" lat="43.28763" lon="5.3863072"><tag k="note:name" v="Le temps d'une Pizza" /><tag k="note:address" v="84 Rue Perrin Solliers, 13006 Marseille, France" /><tag k="note:city" v="Marseille" /></node><node id="-4" version="1" lat="43.287666" lon="5.3931794"><tag k="note:name" v="Le Vénitien" /><tag k="note:address" v="51 Rue Sainte-Cécile, 13005 Marseille, France" /><tag k="note:city" v="Marseille" /></node><node id="-5" version="1" lat="43.317284" lon="5.3823814"><tag k="note:name" v="KFC Marseille Plombières" /><tag k="note:address" v="114 Boulevard de Plombières, 13014 Marseille, France" /><tag k="note:city" v="Marseille" /></node><node id="-6" version="1" lat="43.285206" lon="5.3747325"><tag k="note:name" v="THE GOOD grocery" /><tag k="note:address" v="103 Boulevard Notre Dame, 13006 Marseille, France" /><tag k="note:city" v="Marseille" /></node></osm>