<?xml version='1.0' encoding='utf-8'?>
<osm version="0.6" generator="OSM Conflator 1.4.1"><changeset><tag k="source" v="dokomaps.com" /><tag k="created_by" v="OSM Conflator 1.4.1" /><tag k="type" v="import" /></changeset><node id="1583597723" version="6" lat="45.1537535" lon="5.3198898" action="modify"><tag k="name" v="Boulangerie Lebreton" /><tag k="shop" v="bakery" /><tag k="note:name" v="Boulangerie Lebreton" /><tag k="note:address" v="15 Place d'Armes, 38160 Saint-Marcellin, France" /><tag k="note:city" v="Saint-Marcellin" /><tag k="note:comment" v="Tous les jours de 6h à 13h30 et de 17h à 19h" /></node><way id="118070252" version="4" action="modify"><tag k="building" v="retail" /><tag k="name" v="Provenc'Halles" /><tag k="opening_hours:covid19" v="open" /><tag k="shop" v="greengrocer" /><tag k="source" v="cadastre-dgi-fr source : Direction Générale des Impôts - Cadastre. Mise à jour : 2011" /><tag k="note:name" v="Provenc'halle" /><tag k="note:address" v="Avenue de Romans, 38160 Saint-Marcellin, France" /><tag k="note:city" v="Saint-Marcellin" /><tag k="note:comment" v="09h00 à 12h30 - 14h30 à 18h00&#10;Samedi : de 9h00 à 18h00" /><nd ref="1328717863" /><nd ref="1328689036" /><nd ref="1328680326" /><nd ref="1328721966" /><nd ref="1328717863" /></way><node id="5159307422" version="2" lat="45.1526827" lon="5.3205416" action="modify"><tag k="drink:wine" v="yes" /><tag k="name" v="Les Carmes" /><tag k="shop" v="alcohol" /><tag k="note:name" v="Les Carmes" /><tag k="note:address" v="3 Place des Carmes, 38160 Saint-Marcellin, France" /><tag k="note:city" v="Saint-Marcellin" /><tag k="note:comment" v="Du mardi au samedi : 9h00 à 13h00 et de 15h00 à 19h00" /></node><way id="129740629" version="2" action="modify"><tag k="building" v="yes" /><tag k="name" v="Au Palais Fermier" /><tag k="shop" v="farm" /><tag k="source" v="cadastre-dgi-fr source : Direction Générale des Impôts - Cadastre. Mise à jour : 2011" /><tag k="note:name" v="The farmer Palace" /><tag k="note:address" v="950 A ZI la Gloriette, 38160 Chatte, France" /><tag k="note:city" v="Saint-Marcellin" /><tag k="note:comment" v="Au Palais Fermier&#10;Commandes au 09 64 47 38 44&#10;Horaires de retrait :&#10;- A partir de 16h pour toute commande passée avant midi&#10;- A partir de 11h pour toute commande passée la veille avant 18h" /><nd ref="1430741272" /><nd ref="1430741226" /><nd ref="1430741223" /><nd ref="1430741276" /><nd ref="1430741356" /><nd ref="1430741272" /></way><relation id="5455155" version="2" action="modify"><tag k="building" v="yes" /><tag k="name" v="La Halle Fermière" /><tag k="opening_hours" v="Th,Fr 08:30-12:30,14:30-18:30; Sa 08:30-13:00" /><tag k="shop" v="farm" /><tag k="source" v="cadastre-dgi-fr source : Direction Générale des Impôts - Cadastre. Mise à jour : 2012" /><tag k="type" v="multipolygon" /><tag k="wall" v="no" /><tag k="note:name" v="La halle fermière" /><tag k="note:address" v="20 Avenue de la Gare, 38470 Vinay, France" /><tag k="note:city" v="Saint-Marcellin" /><tag k="note:comment" v="Horaires habituels&#10;Tel : 04 76 36 68 49" /><member type="way" ref="169863463" role="outer" /><member type="way" ref="169863646" role="outer" /></relation><way id="118067758" version="4" action="modify"><tag k="amenity" v="pharmacy" /><tag k="building" v="yes" /><tag k="dispensing" v="yes" /><tag k="name" v="Pharmacie Centrale" /><tag k="ref:fr:finess" v="380009803" /><tag k="source" v="cadastre-dgi-fr source : Direction Générale des Impôts - Cadastre. Mise à jour : 2011" /><tag k="note:name" v="Pharmacie Centrale Michel Girond" /><tag k="note:address" v="7 Rue du Château Bayard, 38160 Saint-Marcellin, France" /><tag k="note:city" v="Saint-Marcellin" /><tag k="note:comment" v="Lundi au Samedi : 8h30-12h et 14h-19h" /><nd ref="1328703350" /><nd ref="1328734382" /><nd ref="1328723710" /><nd ref="1328683144" /><nd ref="1328728365" /><nd ref="1328695500" /><nd ref="1328703350" /></way><node id="5320372553" version="3" lat="45.1527271" lon="5.3201303" action="modify"><tag k="name" v="Magpresse" /><tag k="shop" v="newsagent" /><tag k="note:name" v="Mag Presse" /><tag k="note:address" v="63 Grande Rue, 38160 Saint-Marcellin, France" /><tag k="note:city" v="Saint-Marcellin" /><tag k="note:comment" v="Ghersinu le Jaurès &#10;En semaine 7h-19h&#10;Le dimanche 7h-12h30" /></node><node id="5673454488" version="2" lat="45.154829" lon="5.3232157" action="modify"><tag k="name" v="Boulangerie du Faubourg" /><tag k="shop" v="bakery" /><tag k="note:name" v="Boulangerie du Faubourg" /><tag k="note:address" v="36 Rue du Faubourg Vinay, 38160 Saint-Marcellin, France" /><tag k="note:city" v="Saint-Marcellin" /><tag k="note:comment" v="Mardi au Dimanche : 6h-12h30 et 15h30-19h" /></node><node id="1772951530" version="7" lat="45.1529357" lon="5.3220615" action="modify"><tag k="addr:postcode" v="38160" /><tag k="amenity" v="post_office" /><tag k="atm" v="yes" /><tag k="change_machine" v="yes" /><tag k="copy_facility" v="yes" /><tag k="deaf:description:fr" v="Distributeur de billets avec prise audio" /><tag k="name" v="Saint-Marcellin" /><tag k="note" v="situation : 3 BOULEVARD GAMBETTA" /><tag k="operator" v="La Poste" /><tag k="phone" v="3631" /><tag k="ref:fr:laposte" v="07255A" /><tag k="source" v="data.gouv.fr:LaPoste - 06/2015" /><tag k="stamping_machine" v="yes" /><tag k="wheelchair" v="yes" /><tag k="note:name" v="Post Office" /><tag k="note:address" v="3 Boulevard Gambetta, 38160 Saint-Marcellin, France" /><tag k="note:city" v="Saint-Marcellin" /><tag k="note:comment" v="Horaire et disposition pour envoyer du courrier en recommander" /></node><node id="1773373858" version="3" lat="45.1514302" lon="5.3170938" action="modify"><tag k="amenity" v="pharmacy" /><tag k="dispensing" v="yes" /><tag k="name" v="Pharmacie des Cedres" /><tag k="ref:fr:finess" v="380009837" /><tag k="source" v="Celtipharm - 10/2014" /><tag k="note:name" v="Pharmacie Des Cèdres (Crozet)" /><tag k="note:address" v="2 Avenue de Provence, 38160 Saint-Marcellin, France" /><tag k="note:city" v="Saint-Marcellin" /><tag k="note:comment" v="Lundi au Vendredi : 8h30-12h30 et 14h-19h30 &#10;Samedi : 8h30-12h30 et 14h-19h" /></node><node id="1328727616" version="3" lat="45.153688" lon="5.320776" action="modify"><tag k="addr:city" v="Saint-Marcellin" /><tag k="addr:housenumber" v="7" /><tag k="addr:postcode" v="38160" /><tag k="addr:street" v="Place d'Armes" /><tag k="amenity" v="pharmacy" /><tag k="dispensing" v="yes" /><tag k="name" v="Pharmacie du Kiosque" /><tag k="ref:fr:finess" v="380009787" /><tag k="ref:fr:siret" v="49248911700019" /><tag k="source" v="Celtipharm - 10/2014" /><tag k="type:fr:finess" v="620" /><tag k="note:name" v="Pharmacie du Kiosque" /><tag k="note:address" v="7 Place d'Armes, 38160 Saint-Marcellin, France" /><tag k="note:city" v="Saint-Marcellin" /><tag k="note:comment" v="Lundi au Samedi : 8h30-12h et 14h-19h" /></node><node id="5673454486" version="1" lat="45.153448" lon="5.3208214" action="modify"><tag k="name" v="Vival" /><tag k="shop" v="supermarket" /><tag k="note:name" v="Vival" /><tag k="note:address" v="36 Grande Rue, 38160 Saint-Marcellin, France" /><tag k="note:city" v="Saint-Marcellin" /><tag k="note:comment" v="Tous les jours : 7h30 - 21h" /></node><node id="1774681015" version="1" lat="45.1541665" lon="5.322038" action="modify"><tag k="name" v="Le jardin de Beauvoir" /><tag k="shop" v="convenience" /><tag k="note:name" v="Le Jardin de Beauvoir" /><tag k="note:address" v="17 Grande Rue, 38160 Saint-Marcellin, France" /><tag k="note:city" v="Saint-Marcellin" /><tag k="note:comment" v="8 h - 12 h du mardi au dimanche" /></node><way id="551622812" version="3" action="modify"><tag k="addr:city" v="Saint-Marcellin" /><tag k="addr:postcode" v="38160" /><tag k="addr:street" v="Avenue de Romans" /><tag k="brand" v="Lidl" /><tag k="brand:wikidata" v="Q151954" /><tag k="brand:wikipedia" v="fr:Lidl" /><tag k="building" v="retail" /><tag k="name" v="Lidl" /><tag k="shop" v="supermarket" /><tag k="note:name" v="Lidl" /><tag k="note:address" v="Avenue de Romans, 38160 Saint-Marcellin, France" /><tag k="note:city" v="Saint-Marcellin" /><tag k="note:comment" v="Lundi au samedi : 8h30 - 19h30" /><nd ref="5327131569" /><nd ref="6019108002" /><nd ref="6019108003" /><nd ref="5327131570" /><nd ref="6019107995" /><nd ref="6019107996" /><nd ref="6019107997" /><nd ref="6019107998" /><nd ref="5327131571" /><nd ref="5327131572" /><nd ref="6019107999" /><nd ref="6019108000" /><nd ref="6019108001" /><nd ref="5327131569" /></way><node id="5823447161" version="2" lat="45.1531466" lon="5.3169788" action="modify"><tag k="brand" v="Colruyt" /><tag k="brand:wikidata" v="Q2363991" /><tag k="name" v="Colruyt" /><tag k="shop" v="supermarket" /><tag k="note:name" v="Supermarché Colruyt" /><tag k="note:address" v="16 Cours Vallier, 38160 Saint-Marcellin, France" /><tag k="note:city" v="Saint-Marcellin" /><tag k="note:comment" v="Du lundi au samedi : 9H00-19H. Fermé le dimanche." /></node><node id="1773553529" version="4" lat="45.1547635" lon="5.3213815" action="modify"><tag k="name" v="Le Duo Gourmand" /><tag k="opening_hours" v="Mo,Tu,Th,Fr 06:15-12:45,15:30-19:15; Sa,Su 06:30-12:30" /><tag k="shop" v="bakery" /><tag k="note:name" v="Le Duo Gourmand" /><tag k="note:address" v="9 Rue Jean Baillet, 38160 Saint-Marcellin, France" /><tag k="note:city" v="Saint-Marcellin" /><tag k="note:comment" v="Lundi/Mardi/Jeudi/Vendredi : 6h15-13h et 16h-19h30&#10;Mercredi : 6h15-13h&#10;Samedi et Dimanche : 6h15-13h" /></node><node id="5823398722" version="1" lat="45.145978" lon="5.3102898" action="modify"><tag k="addr:city" v="Saint-Marcellin" /><tag k="addr:housenumber" v="9" /><tag k="addr:postcode" v="38160" /><tag k="addr:street" v="Avenue de Romans" /><tag k="name" v="Maison Brialon" /><tag k="opening_hours" v="Mo-Su 06:00-19:15" /><tag k="shop" v="bakery" /><tag k="note:name" v="Maison Brialon" /><tag k="note:address" v="9 Avenue de Romans, 38160 Saint-Marcellin, France" /><tag k="note:city" v="Saint-Marcellin" /><tag k="note:comment" v="du lundi au samedi de 6h à 19h15 sans interruption" /></node><node id="-1" version="1" lat="45.084423" lon="5.338185"><tag k="note:name" v="Le pain de Martin" /><tag k="note:address" v="465 ROUTE DE PONT EN ROYANS, 38680 Saint-André-en-Royans, France" /><tag k="note:city" v="Saint-Marcellin" /><tag k="note:comment" v="Pains et autres gourmandise à commandez le jeudi pour un retrait le vendredi au fournil ou une livraison le samedi matin sur Saint Marcellin (Chatte, Saint Sauveur)." /></node><node id="-2" version="1" lat="45.15295" lon="5.320271"><tag k="note:name" v="Vincent Christophe" /><tag k="note:address" v="46 Grande Rue, 38160 Saint-Marcellin, France" /><tag k="note:city" v="Saint-Marcellin" /><tag k="note:comment" v="Livraison à domicile offerte dans un rayon de 10km, la boutique étant fermée pour une durée indéterminée.&#10;Liste des propositions sur le site internet et réseaux sociaux.&#10;Commande par téléphone au 06.45.69.15.23 :&#10;- Lundi et mercredi de 17h à 19h&#10;- Mardi et jeudi avant 9h" /></node><node id="-3" version="1" lat="45.153976" lon="5.3212967"><tag k="note:name" v="Pharmacie de Saint Marcellin - Raynal" /><tag k="note:address" v="2 Place Jean Vinay, 38160 Saint-Marcellin, France" /><tag k="note:city" v="Saint-Marcellin" /><tag k="note:comment" v="Lundi au Vendredi : 8h30-12h15 et 14h-19h&#10;Samedi :  8h30-12h15 et 14h-18h" /></node><node id="-4" version="1" lat="45.153637" lon="5.321532"><tag k="note:name" v="Le Cubanito" /><tag k="note:address" v="33 Grande Rue, 38160 Saint-Marcellin, France" /><tag k="note:city" v="Saint-Marcellin" /><tag k="note:comment" v="Du Lundi au Samedi : 7h-12h30" /></node><node id="-5" version="1" lat="45.15403" lon="5.322369"><tag k="note:name" v="Cancade Michel Jean Gabriel" /><tag k="note:address" v="3 Rue de Beauvoir, 38160 Saint-Marcellin, France" /><tag k="note:city" v="Saint-Marcellin" /><tag k="note:comment" v="Mardi/Jeudi/Samedi : 6h-12h30&#10;Mercredi/ Vendredi :  6h - 19h15&#10;Dimanche : 6h30-12h30" /></node><node id="-6" version="1" lat="45.153885" lon="5.321616"><tag k="note:name" v="La Boutique des Simples" /><tag k="note:address" v="27 Grande Rue, 38160 Saint-Marcellin, France" /><tag k="note:city" v="Saint-Marcellin" /><tag k="note:comment" v="Mardi au Samedi : 9h-12h30 &#10;Sur RDV l'après-midi si besoin urgent &#10;0685580995 ou 0476642665" /></node><node id="-7" version="1" lat="45.14919" lon="5.257881"><tag k="note:name" v="La ferme du palmier" /><tag k="note:address" v="1745 Chemin Des Ports, 38160 Chatte, France" /><tag k="note:city" v="Saint-Marcellin" /><tag k="note:comment" v="Vente de produits laitiers de chèvre.&#10;Vente à la ferme le jeudi de 15h à 18h30. &#10;Possibilité de livraison ou de retrait à la demande." /></node><node id="-8" version="1" lat="45.154133" lon="5.3200116"><tag k="note:name" v="Mairie" /><tag k="note:address" v="21 Place d'Armes, 38160 Saint-Marcellin, France" /><tag k="note:city" v="Saint-Marcellin" /><tag k="note:comment" v="Accueil téléphonique : 04 76 38 41 61 / contact.ville@saint-marcellin.fr&#10;Des rendez-vous pourront être donnés suivant les urgences" /></node><node id="-9" version="1" lat="45.154263" lon="5.3196716"><tag k="note:name" v="Biocoop Saint-Marcellin" /><tag k="note:address" v="Avenue du Collège, 38160 Saint-Marcellin, France" /><tag k="note:city" v="Saint-Marcellin" /><tag k="note:comment" v="Lundi 15h-19h / du mardi au samedi : 8h30 - 19h" /></node><node id="-10" version="1" lat="45.14987" lon="5.3104606"><tag k="note:name" v="bievre viande" /><tag k="note:address" v="2 Avenue de Chatte, 38160 Saint-Marcellin, France" /><tag k="note:city" v="Saint-Marcellin" /><tag k="note:comment" v="Mardi au samedi : &#10;08:00–12:30&#10;15:00–19:00" /></node><node id="-11" version="1" lat="45.1442" lon="5.305501"><tag k="note:name" v="Leclerc - Chatte / Saint-Marcellin" /><tag k="note:address" v="Chemin des Gameux, 38160 Chatte, France" /><tag k="note:city" v="Saint-Marcellin" /><tag k="note:comment" v="Du lundi au samedi de 9h à 18h30&#10;Dimanche de 9h à 12h&#10;Drive en fonctionnement" /></node><node id="-12" version="1" lat="45.121017" lon="5.3374696"><tag k="note:name" v="Le Pain de Beauvoir" /><tag k="note:address" v="18 Rue porte d'aris, 38160 Beauvoir-en-Royans, France" /><tag k="note:city" v="Saint-Marcellin" /><tag k="note:comment" v="Au fournil :&#10;le mercredi et le vendredi de 17h à 19h.&#10;&#10;Sur les marchés (annulés jusqu'à nouvel ordre) :&#10;Saint-Marcellin le samedi matin &#10;Fontaine (place Louis Maisonnat) le mercredi de 15h à 19h&#10;&#10;En magasin :&#10;Biocoop de Chatte (ZC La Gloriette) – livraison le lundi, mercredi et vendredi vers 15h30.&#10;Biocoop de Saint-Marcellin (centre ville) – livraison le lundi, mercredi et vendredi vers 16h00.&#10;Épicerie Graines d’épicières à Tullins (2 Avenue Pierre Bérégovoy) – livraison le lundi à l’ouverture du magasin.&#10;Biocoop de Saint-Jean en Royans (Zone d’activité de la Roue Est) – livraison le mercredi et le vendredi vers 16h30." /></node><node id="-13" version="1" lat="45.1465" lon="5.307703"><tag k="note:name" v="VillaVerde Saint-Marcellin" /><tag k="note:address" v="5 Rue de la Camponnière, 38160 Saint-Marcellin, France" /><tag k="note:city" v="Saint-Marcellin" /><tag k="note:comment" v="Le magasin reste ouvert pour les rayons alimentation et alimentation animale à fin de répondre aux besoins essentiels de 9h00-12h00 du lundi au samedi ( fermé le dimanche)" /></node><node id="-14" version="1" lat="45.154118" lon="5.3199377"><tag k="note:name" v="Saint-Marcellin" /><tag k="note:address" v="38160 Saint-Marcellin, France" /><tag k="note:city" v="Saint-Marcellin" /></node><node id="-15" version="1" lat="45.125896" lon="5.3658957"><tag k="note:name" v="GAEC Les Jardins de Chérennes" /><tag k="note:address" v="500 Route d'Izeron, 38160 Saint-Pierre-de-Chérennes, France" /><tag k="note:city" v="Saint-Marcellin" /><tag k="note:comment" v="Vente à la ferme le mercredi de 16h30 à 19h" /></node><node id="-16" version="1" lat="45.157124" lon="5.3675995"><tag k="note:name" v="Les Truites d'Izeron / Pisciculture Murgat" /><tag k="note:address" v="435 Chemin de la pisciculture, 38160 Izeron, France" /><tag k="note:city" v="Saint-Marcellin" /><tag k="note:comment" v="07 87 40 53 96" /></node><node id="-17" version="1" lat="45.17228" lon="5.360794"><tag k="note:name" v="La Ferme de Rossat" /><tag k="note:address" v="915 chemin du Haut, 38160 Saint-Vérand, France" /><tag k="note:city" v="Saint-Marcellin" /><tag k="note:comment" v="04 76 64 15 02" /></node></osm>