<?xml version='1.0' encoding='utf-8'?>
<osm version="0.6" generator="OSM Conflator 1.4.1"><changeset><tag k="source" v="dokomaps.com" /><tag k="created_by" v="OSM Conflator 1.4.1" /><tag k="type" v="import" /></changeset><node id="2717259647" version="2" lat="50.632587" lon="3.0915283" action="modify"><tag k="addr:housenumber" v="186" /><tag k="amenity" v="restaurant" /><tag k="cuisine" v="asian" /><tag k="name" v="Fives Thai" /><tag k="note:name" v="Fives ThaÃ¯ Bangkok" /><tag k="note:address" v="186 Rue Pierre Legrand, 59800 Lille, France" /><tag k="note:city" v="Lille" /><tag k="note:comment" v="Vous pouvez commander les plats sur le site web : www.fivesthai.fr avant 10h30 pour le midi. Service Ã  emporter (devant le magasin) ou en livraison." /></node><way id="42325110" version="8" action="modify"><tag k="amenity" v="restaurant" /><tag k="building" v="yes" /><tag k="contact:phone" v="+33 3 20 92 55 75" /><tag k="contact:website" v="http://www.los3compadres.com" /><tag k="cuisine" v="mexican" /><tag k="name" v="Los 3 compadres" /><tag k="opening_hours" v="Tu-Sa 11:30-14:00,19:00-23:00" /><tag k="source" v="cadastre-dgi-fr source : Direction GÃ©nÃ©rale des ImpÃ´ts - Cadastre;mise Ã  jour : 2009" /><tag k="note:name" v="Los 3 compadres" /><tag k="note:address" v="80 Rue BrÃ»le Maison, 59000 Lille, France" /><tag k="note:city" v="Lille" /><tag k="note:comment" v="Toute la carte Ã  emporter sauf molcajete. Prix identiques." /><nd ref="528248018" /><nd ref="528248011" /><nd ref="528248068" /><nd ref="813386379" /><nd ref="528248073" /><nd ref="2593843026" /><nd ref="528248018" /></way><node id="5803644997" version="3" lat="50.6317659" lon="3.0436062" action="modify"><tag k="amenity" v="restaurant" /><tag k="contact:phone" v="+33 320401097" /><tag k="contact:website" v="https://pancook.fr/" /><tag k="diet:vegetarian" v="yes" /><tag k="name" v="Pancook" /><tag k="tag" v="pg" /><tag k="note:name" v="PANCOOK Lille" /><tag k="note:address" v="125 Rue Colbert, 59000 Lille, France" /><tag k="note:city" v="Lille" /><tag k="note:comment" v="&quot;Pancook ouvert en carte rÃ©duite du lundi au vendredi midi de 11h30 Ã  14h et du mercredi pour samedi soir de 19h Ã  21h30.&#10;&#10;Nous proposons Ã©galement un service de livraison pour toutes adresses Ã  10 minutes du Pancook afin de garantir la fraÃ®cheur des plats.&#10;&#10;Pour votre choix :&#10;â†’ les trois 3 Pancook,&#10;â†’ le trio de Pancook&#10;â†’ le potjevleesch&#10;â†’ les croquettes de crevettes&#10;â†’ la salade du moment.&#10;&#10;Vous pouvez Ã©galement passer vos commandes par avance sur le site du Pancook (https://pancook.fr/reservez-votre-table/) ou par tÃ©lÃ©phone au +33 7 82 42 24 84â€¬&quot;" /></node><node id="6276579998" version="1" lat="50.6377389" lon="3.0669274" action="modify"><tag k="brand" v="Carrefour City" /><tag k="brand:wikidata" v="Q2940187" /><tag k="brand:wikipedia" v="fr:Carrefour City" /><tag k="name" v="Carrefour City" /><tag k="operator" v="Groupe Carrefour" /><tag k="operator:wikidata" v="Q3117359" /><tag k="operator:wikipedia" v="fr:Groupe Carrefour" /><tag k="shop" v="supermarket" /><tag k="note:name" v="Carrefour City Arts Lille" /><tag k="note:address" v="1-7 Rue des Arts, 59000 Lille, France" /><tag k="note:city" v="Lille" /></node><node id="6643486595" version="1" lat="50.5735738" lon="2.9402155" action="modify"><tag k="addr:street" v="Place Pasteur" /><tag k="amenity" v="restaurant" /><tag k="cuisine" v="pizza" /><tag k="name" v="L'Italien" /><tag k="opening_hours" v="Tu-Fr 11:30-14:00, 18:30-21:30; Sa-Su 18:30-21:30" /><tag k="note:name" v="L'italien" /><tag k="note:address" v="2 Rue Faidherbe, 59136 Wavrin, France" /><tag k="note:city" v="Lille" /><tag k="note:comment" v="L'italien - 2 Rue Faidherbe, 59136 Wavrin &#10;&#10;Ouvert pour des pizzas Ã  emporter (Pensez Ã  rÃ©server au 0320903641 afin d'Ã©viter le flux)." /></node><way id="40875591" version="7" action="modify"><tag k="addr:housenumber" v="15" /><tag k="addr:street" v="Place Jacquart" /><tag k="amenity" v="restaurant" /><tag k="building" v="yes" /><tag k="cuisine" v="italian" /><tag k="diet:vegan" v="no" /><tag k="diet:vegetarian" v="yes" /><tag k="name" v="Gusto Mio" /><tag k="opening_hours" v="Mo-Fr 11:00-14:30" /><tag k="phone" v="+33 3 74 99 25 10" /><tag k="source" v="cadastre-dgi-fr source : Direction GÃ©nÃ©rale des ImpÃ´ts - Cadastre;mise Ã  jour : 2009" /><tag k="wheelchair" v="no" /><tag k="note:name" v="Gusto Mio" /><tag k="note:address" v="15 Pl. Jacquard, 59000 Lille, France" /><tag k="note:city" v="Lille" /><tag k="note:comment" v="Carte habituelle Ã  emporter ou en livraison sur Deliveroo." /><nd ref="497372290" /><nd ref="497372456" /><nd ref="497372458" /><nd ref="497372289" /><nd ref="2691237984" /><nd ref="497372290" /></way><way id="108796796" version="4" action="modify"><tag k="addr:city" v="La Madeleine" /><tag k="addr:housenumber" v="169" /><tag k="addr:postcode" v="59110" /><tag k="addr:street" v="Rue du GÃ©nÃ©ral de Gaulle" /><tag k="amenity" v="restaurant" /><tag k="building" v="yes" /><tag k="cuisine" v="pizza" /><tag k="name" v="Pizza Gourmet" /><tag k="phone" v="+33 6 77 31 38 41" /><tag k="source" v="cadastre-dgi-fr source : Direction GÃ©nÃ©rale des ImpÃ´ts - Cadastre. Mise Ã  jour : 2011" /><tag k="takeaway" v="yes" /><tag k="website" v="https://pizzagourmetlille.wordpress.com/" /><tag k="note:name" v="Pizza Gourmet" /><tag k="note:address" v="169 Rue du GÃ©nÃ©ral de Gaulle, 59110 La Madeleine, France" /><tag k="note:city" v="Lille" /><tag k="note:comment" v="Carte habituelle uniquement Ã  emporter." /><nd ref="1247285415" /><nd ref="1247292198" /><nd ref="1247317688" /><nd ref="1247348539" /><nd ref="1247308937" /><nd ref="1247311428" /><nd ref="1247285415" /></way><node id="5455331790" version="1" lat="50.6305884" lon="3.056455" action="modify"><tag k="amenity" v="restaurant" /><tag k="contact:facebook" v="https://www.facebook.com/Pixiesbar/" /><tag k="cuisine" v="burger" /><tag k="name" v="Pixies Bar&amp;Burger" /><tag k="source" v="survey" /><tag k="survey:date" v="2018-02" /><tag k="note:name" v="Pixies Bar &amp; Burger" /><tag k="note:address" v="33 Rue Ernest Deconynck, 59800 Lille, France" /><tag k="note:city" v="Lille" /><tag k="note:comment" v="Le pixies sera ouvert 7j/7 en livraison et Ã  emporter. &#10;&#10;Lundi mardi mercredi jeudi 11h30 / 14h30 - 18h3 /23h30&#10;Vendredi 11h30 / 14h30 - 18h30 / 00h30&#10;Samedi 12h / 00h30&#10;Dimanche 12h / 23h" /></node><node id="6835729003" version="1" lat="50.6577787" lon="3.0402484" action="modify"><tag k="amenity" v="restaurant" /><tag k="name" v="L'oriental" /><tag k="note:name" v="L'Oriental" /><tag k="note:address" v="75 Avenue du MarÃ©chal de Lattre de Tassigny, 59350 Saint-AndrÃ©-lez-Lille, France" /><tag k="note:city" v="Lille" /><tag k="note:comment" v="Kebab, tacos, panini, couscous .... Ouvert du lundi au samedi 11:30-14:00 et 18:00-23:00 et dimanche de 18:00-23:00. &#10;Commandes en livraison sur un rayon de 4km et Ã  emporter. 0320066965." /></node><node id="4424286721" version="3" lat="50.6386594" lon="3.061231" action="modify"><tag k="addr:city" v="Lille" /><tag k="addr:housenumber" v="47" /><tag k="addr:postcode" v="59000" /><tag k="addr:street" v="Rue Basse" /><tag k="amenity" v="restaurant" /><tag k="cuisine" v="french" /><tag k="diet:vegan" v="yes" /><tag k="diet:vegetarian" v="yes" /><tag k="name" v="L'arriÃ¨re pays" /><tag k="opening_hours" v="Mo 11:00-22:30; Tu-Th 12:00-23:00; Fr-Sa 12:00-23:30; Su 12:00-22:00" /><tag k="phone" v="+33 3 20 13 80 07" /><tag k="note:name" v="L'ArriÃ¨re Pays" /><tag k="note:address" v="47 Rue Basse, 59000 Lille, France" /><tag k="note:city" v="Lille" /><tag k="note:comment" v="Vente Ã  emporter sur la carte du restaurant.&#10;&#10;&quot;Vaut mieux appeler avant pour commander, on sait pas trop ce qui sera dispo Ã  la carte. 0320138007&quot;" /></node><node id="3201800182" version="5" lat="50.6287156" lon="3.0525261" action="modify"><tag k="amenity" v="restaurant" /><tag k="contact:housenumber" v="228" /><tag k="contact:phone" v="+33 3 20 31 54 74" /><tag k="cuisine" v="thai" /><tag k="name" v="Mon Petit Thai" /><tag k="opening_hours" v="Mo-Su 12:00-14:30, 19:00-22:30" /><tag k="smoking" v="no" /><tag k="source" v="survey" /><tag k="takeaway" v="yes" /><tag k="website" v="http://www.monpetitthai.com/" /><tag k="note:name" v="Mon Petit ThaÃ¯" /><tag k="note:address" v="228 Rue LÃ©on Gambetta, 59000 Lille, France" /><tag k="note:city" v="Lille" /><tag k="note:comment" v="&quot;Contactez-nous au 03.20.31.54.74 pour toute commande Ã  emporter ou via notre plate-forme Deliveroo pour toute commande en livraison. N'hÃ©sitez pas Ã  cocher la livraison sans contact pour une sÃ©curitÃ© maximum.&quot;" /></node><node id="5620643323" version="1" lat="50.6284489" lon="3.0519009" action="modify"><tag k="amenity" v="restaurant" /><tag k="contact:facebook" v="https://www.facebook.com/restaurant.toktok/" /><tag k="contact:phone" v="+33 9 72 65 80 35" /><tag k="contact:website" v="https://tok-tok.fr/" /><tag k="cuisine" v="thai" /><tag k="name" v="Tok Tok" /><tag k="source" v="survey" /><tag k="survey:date" v="2018-05" /><tag k="takeaway" v="yes" /><tag k="wheelchair" v="yes" /><tag k="note:name" v="Tok Tok" /><tag k="note:address" v="246 Rue LÃ©on Gambetta, 59000 Lille, France" /><tag k="note:city" v="Lille" /><tag k="note:comment" v="Vente Ã  emporter et livraison sur Deliveroo." /></node><way id="63555828" version="2" action="modify"><tag k="addr:city" v="Haubourdin" /><tag k="addr:country" v="FR" /><tag k="addr:housenumber" v="43b" /><tag k="addr:postcode" v="59320" /><tag k="addr:street" v="Rue Sadi Carnot" /><tag k="amenity" v="restaurant" /><tag k="building" v="yes" /><tag k="contact:phone" v="+33320851164" /><tag k="cuisine" v="pizza" /><tag k="name" v="Al Ritrovo" /><tag k="source" v="cadastre-dgi-fr source : Direction GÃ©nÃ©rale des ImpÃ´ts - Cadastre. Mise Ã  jour : 2010" /><tag k="note:name" v="Al Ritrovo" /><tag k="note:address" v="43 Rue Sadi Carnot, 59320 Haubourdin, France" /><tag k="note:city" v="Lille" /><nd ref="786791834" /><nd ref="786791747" /><nd ref="786791745" /><nd ref="786791742" /><nd ref="786791477" /><nd ref="786791466" /><nd ref="786791471" /><nd ref="786791411" /><nd ref="786791493" /><nd ref="786791487" /><nd ref="786791483" /><nd ref="786791788" /><nd ref="786791834" /></way><node id="5920731430" version="1" lat="50.6660954" lon="3.0299775" action="modify"><tag k="amenity" v="restaurant" /><tag k="cuisine" v="thai" /><tag k="name" v="Sam&amp;Lie" /><tag k="note:name" v="SAM &amp; LIE" /><tag k="note:address" v="368 Avenue du MarÃ©chal de Lattre de Tassigny, 59350 Saint-AndrÃ©-lez-Lille, France" /><tag k="note:city" v="Lille" /><tag k="note:comment" v="Vente Ã  emporter habituelle." /></node><way id="125887119" version="3" action="modify"><tag k="addr:city" v="Lambersart" /><tag k="addr:housenumber" v="118" /><tag k="addr:postcode" v="59130" /><tag k="addr:street" v="Rue Ferdinand de Lesseps" /><tag k="building" v="yes" /><tag k="email" v="maitre.georges@wanadoo.fr" /><tag k="name" v="MaÃ®tre Georges" /><tag k="opening_hours" v="Mo-Sa 09:00-12:30,14:00-19:00" /><tag k="phone" v="+33 3 20 57 95 00" /><tag k="shop" v="beverages" /><tag k="source" v="cadastre-dgi-fr source : Direction GÃ©nÃ©rale des ImpÃ´ts - Cadastre. Mise Ã  jour : 2011" /><tag k="website" v="https://www.maitregeorges.fr/" /><tag k="note:name" v="MaÃ®tre Georges" /><tag k="note:address" v="118 Rue Ferdinand de Lesseps, 59130 Lambersart, France" /><tag k="note:city" v="Lille" /><tag k="note:comment" v="Livraison Ã  domicile gratuite de toutes vos boissons sur la pÃ©riphÃ©rie Lambersartoise et Lilloise" /><nd ref="1397006353" /><nd ref="1397006489" /><nd ref="1397007983" /><nd ref="1397006948" /><nd ref="1397006172" /><nd ref="1397006353" /></way><node id="-1" version="1" lat="50.281654" lon="3.3201418"><tag k="note:name" v="Jardin d'Ostrevant" /><tag k="note:address" v="111 Rue Henri Bocquet, 59111 Bouchain, France" /><tag k="note:city" v="Lille" /></node><node id="-2" version="1" lat="50.645466" lon="3.056555"><tag k="note:name" v="O Ch'ti B LE COMPTOIR DES GASTRONOMES" /><tag k="note:address" v="98 Rue Saint-AndrÃ©, 59800 Lille, France" /><tag k="note:city" v="Lille" /><tag k="note:comment" v="DÃ¨s mardi midi, retrouvez nos ðŸ•, ainsi quâ€™une carte spÃ©ciale, nos fameux burgers, nos fabuleuses lasagnes aux 2 viandes, notre cochon de 9 h... etc&#10;Ã€ vous de choisir entre la livraison Ã  domicile via nos partenaires: @ubereats_fr ou @deliveroo_fr ou la vente Ã  venir chercher directement au restaurant&#10;Sachez que nous respecterons scrupuleusement les consignes de sÃ©curitÃ© face au virus. La santÃ© avant tout.&#10;Nous vous demanderons donc de respecter les distances recommandÃ©es par les autoritÃ©s. Pour une meilleure prise en charge et fluiditÃ© appelez le â˜Žï¸0612812786 ou 0320512502 afin de passer votre commande et Ã©viter lâ€™attente." /></node><node id="-3" version="1" lat="50.750366" lon="3.1520216"><tag k="note:name" v="Biola'Pizza" /><tag k="note:address" v="8 Place Roger Salengro, 59960 Neuville-en-Ferrain, France" /><tag k="note:city" v="Lille" /><tag k="note:comment" v="Vente Ã  emporter, appeler au  03 59 54 60 87 pour connaÃ®tre les stocks." /></node><node id="-4" version="1" lat="50.623596" lon="3.0429397"><tag k="note:name" v="A La Brasserie" /><tag k="note:address" v="41 Rue d'Esquermes, 59000 Lille, France" /><tag k="note:city" v="Lille" /><tag k="note:comment" v="Le restaurant propose de la vente Ã  emporter. Appeler au 03 20 08 23 66 avant pour connaÃ®tre les stocks." /></node><node id="-5" version="1" lat="50.619987" lon="3.068268"><tag k="note:name" v="Bio'Appetit !" /><tag k="note:address" v="6 Place DÃ©liot, 59000 Lille, France" /><tag k="note:city" v="Lille" /><tag k="note:comment" v="Commandes Ã  emporter en respectant toutes les mesures de sÃ©curitÃ©.&#10;&#10;Commandes Ã  passer par tÃ©lÃ©phone au 03 20 09 68 91." /></node><node id="-6" version="1" lat="50.582314" lon="3.110818"><tag k="note:name" v="La Fossetta Lesquin" /><tag k="note:address" v="100 Rue du Pic au Vent, 59810 Lesquin, France" /><tag k="note:city" v="Lille" /><tag k="note:comment" v="La Fossetta Lesquin vous propose des plats Ã  emporter, le midi uniquement de 11h30 Ã  14h00, dans le CRT 1-2-3-4, Ennevelin, Avelin et Pont-Ã -Marcq.&#10;&#10;ðŸ“ž Commande uniquement par tÃ©lÃ©phone au 0320110435 ou par mail commande@fossetta.fr&#10;Merci de prÃ©ciser dans vos commandes mails, l'horaire de livraison, votre numÃ©ro de portable ainsi que l'adresse de votre sociÃ©tÃ©.&#10;&#10;ðŸ§‘â€ðŸ³ DÃ©couvrez notre carte spÃ©ciale :&#10;&#10;- PÃ¢tes :&#10;Spaghetti Ã  lâ€™arrabiata : 12â‚¬&#10;Rigatoni bolognaise : 13â‚¬&#10;Rigatoni Carbonara : 13â‚¬&#10;&#10;PÃ¢tes du jour :&#10;&#10;Rigatoni Verselli 13â‚¬&#10;Sauce crÃ©mÃ©e, bÅ“uf hachÃ©, ail, crÃ¨me de truffe, roquette&#10;&#10;Spaghetti Tomates semi-sÃ©chÃ©es et jambons aux herbes : 13â‚¬&#10;Sauce crÃ©mÃ©e, ail, tomate semi-sÃ©chÃ©es, roquette, jambon aux herbes&#10;&#10;- Salades composÃ©es&#10;https://lafossetta.fr/specialites/&#10;&#10;- Pizzas&#10;https://lafossetta.fr/pizzas/&#10;&#10;- Desserts&#10;Tiramisu 6â‚¬&#10;&#10;- Boissons&#10;San Pellegrino 50cl 2.5â‚¬&#10;Coca 33 cl 3â‚¬&#10;Minute Maid Orange 33cl 3â‚¬&#10;Ice Tea 25cl 3â‚¬&#10;Sprite 3â‚¬&#10;Fanta 33cl 3â‚¬&#10;Goudale Blonde 50cl 6â‚¬&#10;&#10;â€¼ Nous vous livrons pour une commande minimum de 6 plats. Pour toutes les autres commandes, notre restaurant de Lesquin vous accueille dans les meilleures conditions pour le retrait.&#10;&#10;Pour une question de logistique, en cas de commande groupÃ©e, nous n'acceptons qu'un seul moyen de paiement (tickets restaurant, chÃ¨que, CB)" /></node><node id="-7" version="1" lat="50.640106" lon="3.058205"><tag k="note:name" v="Autour de Vous Lille" /><tag k="note:address" v="81 Rue d'Angleterre, 59800 Lille, France" /><tag k="note:city" v="Lille" /><tag k="note:comment" v="&quot;Nous serons sur place demain de 11h30 Ã  18h et nous verrons en fonction du stock vendu ce qui se passera les jours suivants... &#10;le tÃ©lÃ©phone du resto est le 0328077371 si les gens veulent savoir ce que nous proposons. &#10;Nous accepterons uniquement les paiement par carte bancaire! &quot;" /></node><node id="-8" version="1" lat="50.619545" lon="3.050772"><tag k="note:name" v="DREAM DINER" /><tag k="note:address" v="248 Rue des Postes, 59000 Lille, France" /><tag k="note:city" v="Lille" /><tag k="note:comment" v="Horaires et cartes habituels. Ã€ emporter ou en livraison." /></node><node id="-9" version="1" lat="50.633427" lon="3.0681977"><tag k="note:name" v="A La Maison" /><tag k="note:address" v="147 Rue Pierre Mauroy, 59800 Lille, France" /><tag k="note:city" v="Lille" /><tag k="note:comment" v="Le restaurant propose la vente Ã  emporter ou en livraison." /></node><node id="-10" version="1" lat="50.638382" lon="3.0585268"><tag k="note:name" v="Chez Brigitte" /><tag k="note:address" v="13 Rue des Bouchers, 59000 Lille, France" /><tag k="note:city" v="Lille" /><tag k="note:comment" v="Des plats sont proposÃ©s Ã  emporter. &#10;&#10;Pour avoir plus d'infos sur les plats, vous pouvez appeler au 09 83 80 89 61." /></node><node id="-11" version="1" lat="50.64457" lon="3.0623972"><tag k="note:name" v="Ke Tacos" /><tag k="note:address" v="72 ter Avenue du Peuple Belge, 59800 Lille, France" /><tag k="note:city" v="Lille" /><tag k="note:comment" v="Vente essentiellement de tacos 1,2 ou 3 viandes, hamburger&#10;Paiement espÃ¨ce + Tr + cb en sans contact" /></node><node id="-12" version="1" lat="50.633312" lon="3.063156"><tag k="note:name" v="IT Italian Trattoria" /><tag k="note:address" v="65-67 Rue de BÃ©thune, 59800 Lille, France" /><tag k="note:city" v="Lille" /><tag k="note:comment" v="Le restaurant propose la vente Ã  emporter ou en livraison." /></node><node id="-13" version="1" lat="50.636333" lon="3.0689821"><tag k="note:name" v="Taobento - Lille" /><tag k="note:address" v="8 Place de la Gare, 59800 Lille, France" /><tag k="note:city" v="Lille" /><tag k="note:comment" v="Carte habituelle Ã  emporter ou en livraison.&#10;De prÃ©fÃ©rence, commander la commande sur le site internet." /></node><node id="-14" version="1" lat="50.633167" lon="3.0621407"><tag k="note:name" v="Croque-FranÃ§ois" /><tag k="note:address" v="13 Rue de l'HÃ´pital Militaire, 59800 Lille, France" /><tag k="note:city" v="Lille" /><tag k="note:comment" v="Carte habituelle Ã  emporter. Paiement par carte de prÃ©fÃ©rence.&#10;Midi et soir Ã  partir de Mardi." /></node><node id="-15" version="1" lat="50.661484" lon="3.0554953"><tag k="note:name" v="Viva Italian Pizza" /><tag k="note:address" v="107 Rue Sadi Carnot, 59350 Saint-AndrÃ©-lez-Lille, France" /><tag k="note:city" v="Lille" /><tag k="note:comment" v="Viva Italian Pizza&#10;&#10;Commandes Ã  emporter / Ã€ commander par tÃ©lÃ©phone avant : 03 20 31 70 77" /></node><node id="-16" version="1" lat="50.63981" lon="3.0645936"><tag k="note:name" v="Le Comptoir Volant" /><tag k="note:address" v="22 Place des Patiniers, 59000 Lille, France" /><tag k="note:city" v="Lille" /><tag k="note:comment" v="Vente Ã  emporter avec paiement sans contact de prÃ©fÃ©rence." /></node><node id="-17" version="1" lat="50.64057" lon="3.065641"><tag k="note:name" v="SPOK - Lille" /><tag k="note:address" v="15 Rue Saint-Jacques, 59000 Lille, France" /><tag k="note:city" v="Lille" /><tag k="note:comment" v="Vente Ã  emporter et livraison.&#10;&#10;&quot;Sur la grande table en bois de la salle Ã©purÃ©e ou Ã  emporter, des sandwiches, soupes et petits plats crÃ©atifs.&quot;" /></node><node id="-18" version="1" lat="50.610992" lon="3.01971"><tag k="note:name" v="Fruits de la Terre" /><tag k="note:address" v="65 Rue du GÃ©nÃ©ral Leclerc, 59120 Loos, France" /><tag k="note:city" v="Lille" /><tag k="note:comment" v="Les horaires :&#10;dimanche - 09:30â€“13:00&#10;lundi - FermÃ©&#10;mardi- 10:00â€“12:30 / 15:30â€“19:30&#10;mercredi - 10:00â€“12:30 / 15:30â€“19:30&#10;jeudi - 15:30â€“19:30&#10;vendredi&#09;- 10:00â€“12:30 / 15:30â€“19:30&#10;samedi - 09:00â€“13:00 / 15:30â€“19:30&#10;&#10;NumÃ©ro de tÃ©lÃ©phone : 03 62 26 34 14&#10;&#10;Vous pouvez Ã©galement commander sur notre site www.fruitsdelaterre.com et bÃ©nÃ©ficier d'une livraison gratuite dans un rayon de 20 km autour de Lille/Lomme.&#10;&#10;Nous permettons Ã  notre clientÃ¨le situÃ©e Ã  Loos, de consommer en toute confiance des fruits et lÃ©gumes extra frais issus de l'agriculture biologique ou raisonnÃ©e, dont la qualitÃ© vous donnera envie d'y revenir. De plus, nous developpons une large gamme de produits vrac, pour le plus grands plaisir de nos clients. La boutique Ã  Loos, vous offre Ã©galement une large gamme de produits d'Ã©picerie, de vins, de fromages ainsi que des produits originaux pour Ã©pater vos convives ! Pour nos clients partout en France, nous livrons Ã  domicile nos produits les plus originaux (mini-lÃ©gumes, micro-vÃ©gÃ©taux, fleurs comestibles, algues bio...) via notre boutique en ligne, avec l'assurance de leur fraÃ®cheur tout au long du trajet." /></node><node id="-19" version="1" lat="50.641064" lon="3.061567"><tag k="note:name" v="BiBoViNo Vieux-Lille" /><tag k="note:address" v="14-16 Rue de PÃ©tÃ©rinck, 59800 Lille, France" /><tag k="note:city" v="Lille" /><tag k="note:comment" v="&quot;On propose des vins de petits vignerons Ã  emporter en cubi ! Cela se garde deux mois aprÃ¨s ouverture. IdÃ©al pour la consommation quotidienne :)&#10;40 rÃ©fÃ©rences dispos.&#10;Horaires : mardi au samedi : 11h-18h, dimanche 10h30-14h30&quot;" /></node><node id="-20" version="1" lat="50.636024" lon="3.069528"><tag k="note:name" v="Daddy CrÃªpes" /><tag k="note:address" v="32 Place de la Gare, 59800 Lille, France" /><tag k="note:city" v="Lille" /><tag k="note:comment" v="Bar Ã  CrÃªpes vente Ã  emporter entre 11h et 15h. &#10;&#10;La carte est disponible sur ce lien ðŸ™‚ https://daddycrepes.fr/creperie-lille/creperie-lille-carte/" /></node><node id="-21" version="1" lat="50.64676" lon="3.0576108"><tag k="note:name" v="Sam'RÃ©gal" /><tag k="note:address" v="36 Rue Saint-SÃ©bastien, 59800 Lille, France" /><tag k="note:city" v="Lille" /><tag k="note:comment" v="Carte habituelle uniquement Ã  emporter.&#10;&#10;Ouvert midi et soir sauf le lundi." /></node><node id="-22" version="1" lat="50.626637" lon="3.049996"><tag k="note:name" v="DINA LILLE Wazemmes" /><tag k="note:address" v="19 Place Nouvelle Aventure, 59000 Lille, France" /><tag k="note:city" v="Lille" /><tag k="note:comment" v="Restaurant de pÃ¢tes fraiches.&#10;&#10;Uniquement Ã  emporter." /></node><node id="-23" version="1" lat="50.63941" lon="3.058262"><tag k="note:name" v="Bierbuik- Bloemeke" /><tag k="note:address" v="19 Rue Royale, 59000 Lille, France" /><tag k="note:city" v="Lille" /><tag k="note:comment" v="Tous les snacks et toutes les biÃ¨res sont Ã  emporter." /></node><node id="-24" version="1" lat="50.63691" lon="3.0627892"><tag k="note:name" v="Pokawa Lille" /><tag k="note:address" v="5 Rue Nationale, 59800 Lille, France" /><tag k="note:city" v="Lille" /><tag k="note:comment" v="Commandes Ã  emporter ou en livraison." /></node><node id="-25" version="1" lat="50.640457" lon="3.064681"><tag k="note:name" v="Sushi Shop" /><tag k="note:address" v="4-6 Place Louise de Bettignies, 59000 Lille, France" /><tag k="note:city" v="Lille" /><tag k="note:comment" v="Vente en livraison et Ã  emporter. Les commandes doivent Ãªtre rÃ©glÃ©es avant la rÃ©cupÃ©ration." /></node><node id="-26" version="1" lat="50.632664" lon="3.062658"><tag k="note:name" v="Sushi Shop Lille Centre" /><tag k="note:address" v="15 Place de BÃ©thune, 59800 Lille, France" /><tag k="note:city" v="Lille" /><tag k="note:comment" v="Vente en livraison et Ã  emporter. Les commandes doivent Ãªtre rÃ©glÃ©es avant la rÃ©cupÃ©ration." /></node><node id="-27" version="1" lat="50.638786" lon="3.060216"><tag k="note:name" v="Pacte le drive pieton des produits locaux" /><tag k="note:address" v="46 Rue Basse, 59800 Lille, France" /><tag k="note:city" v="Lille" /></node><node id="-28" version="1" lat="50.607307" lon="3.0589113"><tag k="note:name" v="Fast Pizza" /><tag k="note:address" v="246 Rue du Faubourg d'Arras, 59000 Lille, France" /><tag k="note:city" v="Lille" /><tag k="note:comment" v="Carte habituelle Ã  emporter.&#10;&#10;www.fast-pizza-lille.fr" /></node><node id="-29" version="1" lat="50.639023" lon="3.0584428"><tag k="note:name" v="Halles Modernes - Vieux Lille" /><tag k="note:address" v="6 Rue de la Barre, 59000 Lille, France" /><tag k="note:city" v="Lille" /><tag k="note:comment" v="Les halles restent ouvertes, mais information importante :&#10;&#10;Livraison gratuite Ã  domicile Ã  partir de 19,90â‚¬ d'achat jusqu'Ã  nouvel ordre pour aider les personnes qui doivent rester Ã  la maison." /></node><node id="-30" version="1" lat="50.641937" lon="3.056636"><tag k="note:name" v="Quai Des Bananas" /><tag k="note:address" v="84 Rue Royale, 59800 Lille, France" /><tag k="note:city" v="Lille" /><tag k="note:comment" v="Ã€ emporter : cocktails, biÃ¨res, tapas, saucisson, planche tartinable (et mÃªme barman Ã  domicile)." /></node><node id="-31" version="1" lat="50.636654" lon="3.064476"><tag k="note:name" v="Shake'N Out Burger" /><tag k="note:address" v="4 Rue des Manneliers, 59800 Lille, France" /><tag k="note:city" v="Lille" /><tag k="note:comment" v="Carte habituelle Ã  emporter ou en livraison sur les diffÃ©rentes plateformes." /></node><node id="-32" version="1" lat="50.63716" lon="3.064176"><tag k="note:name" v="Fives Thai Coffee" /><tag k="note:address" v="8 Rue des 7 Agaches, 59000 Lille, France" /><tag k="note:city" v="Lille" /><tag k="note:comment" v="Vous pouvez commander les plats sur le site web : www.fivesthai.fr avant 10h30 pour le midi. Service Ã  emporter (devant le magasin) ou en livraison." /></node><node id="-33" version="1" lat="50.610294" lon="3.130603"><tag k="note:name" v="L'ATELIER STREET FOOD" /><tag k="note:address" v="Stade Pierre Mauroy, Rue du Virage, 59650 Villeneuve-d'Ascq, France" /><tag k="note:city" v="Lille" /><tag k="note:comment" v="Vente Ã  emporter sur la carte habituelle." /></node><node id="-34" version="1" lat="50.636227" lon="3.066249"><tag k="note:name" v="Wok and Sweet" /><tag k="note:address" v="4 Rue des Ponts de Comines, 59800 Lille, France" /><tag k="note:city" v="Lille" /><tag k="note:comment" v="Commandes Ã  emporter sur la carte habituelle." /></node><node id="-35" version="1" lat="50.62937" lon="3.021381"><tag k="note:name" v="Le Barboteur" /><tag k="note:address" v="90 Quai de l'Ouest, 59000 Lille, France" /><tag k="note:city" v="Lille" /><tag k="note:comment" v="Une formule Ã  emporter Ã  15â‚¬ : plat du jour + dessert.&#10;&#10;Vous pouvez les appeler au 03 20 02 57 97 pour connaÃ®tre les produits du jour." /></node><node id="-36" version="1" lat="50.713116" lon="2.9971616"><tag k="note:name" v="On Part En Vrac" /><tag k="note:address" v="2a Chemin de l'Ange Gardien, 59890 Quesnoy-sur-DeÃ»le, France" /><tag k="note:city" v="Lille" /><tag k="note:comment" v="Livraisons Ã  domicile gratuites sur la mÃ©tropole pour les commandes de plus de 50â‚¬ sur http://www.onpartenvrac-drive.com" /></node><node id="-37" version="1" lat="50.652134" lon="3.0810301"><tag k="note:name" v="Al Fornello" /><tag k="note:address" v="114 Avenue Saint-Maur, 59110 La Madeleine, France" /><tag k="note:city" v="Lille" /><tag k="note:comment" v="Ouvert de 10h Ã  13h30 et de 18h Ã  20h30 &#10;Ferme le dimanche et lundi" /></node><node id="-38" version="1" lat="50.68055" lon="3.0623186"><tag k="note:name" v="TWO D" /><tag k="note:address" v="village des voiles, 59520 Marquette-lez-Lille, France" /><tag k="note:city" v="Lille" /><tag k="note:comment" v="11h Ã  13h30. &#10;Au 09 62 51 03 48 ou sur le site www.bistrot-two-d.com" /></node></osm>